% Index	Latitude	Longitude	Country code	Subcontinental Zone code	Locality	Provider Name	Provider URL
1	-26.194878	134.29688	AU	OCE	australia	Amazon EC2	http://www.datacentermap.com/cloud/amazon-ec2.html
2	-26.194878	134.29688	AU	OCE	australia	dc two	http://www.datacentermap.com/cloud/dc-two.html
3	-26.194878	134.29688	AU	OCE	australia	Cloud Central	http://www.datacentermap.com/cloud/cloudcentral.html
4	-26.194878	134.29688	AU	OCE	australia	lc9	http://www.datacentermap.com/cloud/lc9.html
5	-26.194878	134.29688	AU	OCE	australia	openvz vps	http://www.datacentermap.com/cloud/openvz-vps.html
6	-26.194878	134.29688	AU	OCE	australia	digital sense hosting pty ltd	http://www.datacentermap.com/cloud/digital-sense-hosting-pty-ltd.html
7	-26.194878	134.29688	AU	OCE	australia	zettagrid	http://www.datacentermap.com/cloud/zettagrid.html
8	-26.194878	134.29688	AU	OCE	australia	logic plus	http://www.datacentermap.com/cloud/logic-plus.html
9	-26.194878	134.29688	AU	OCE	australia	enterprise cloud	http://www.datacentermap.com/cloud/enterprise-cloud.html
10	47.54687	13.337402	AT	EUW	austria	topcloud	http://www.datacentermap.com/cloud/topcloud.html
11	50.75036	4.669189	BE	EUW	belgium	housingcenter	http://www.datacentermap.com/cloud/housingcenter.html
12	50.75036	4.669189	BE	EUW	belgium	people _ technology	http://www.datacentermap.com/cloud/people-technology.html
13	50.75036	4.669189	BE	EUW	belgium	network research belgium nrb	http://www.datacentermap.com/cloud/network-research-belgium-nrb.html
14	50.75036	4.669189	BE	EUW	belgium	colt vcloud services	http://www.datacentermap.com/cloud/colt-vcloud-services.html
15	50.75036	4.669189	BE	EUW	belgium	Colt managed workspace	http://www.datacentermap.com/cloud/colt-managed-workspace.html
16	-14.235004	-51.92528	BR	SAE	brazil	alog corporate cloud	http://www.datacentermap.com/cloud/alog-corporate-cloud.html
17	-14.235004	-51.92528	BR	SAE	brazil	kinghost	http://www.datacentermap.com/cloud/kinghost.html
18	-14.235004	-51.92528	BR	SAE	brazil	enterprise cloud	http://www.datacentermap.com/cloud/enterprise-cloud.html
19	42.455887	25.202637	BG	EUE	bulgaria	rax cloud	http://www.datacentermap.com/cloud/rax-cloud.html
20	55.37911	-99.66797	CA	NAN	canada	ElasticHosts	http://www.datacentermap.com/cloud/elastichosts.html
21	55.37911	-99.66797	CA	NAN	canada	FlexCloud Servers	http://www.datacentermap.com/cloud/flexcloud-servers.html
22	55.37911	-99.66797	CA	NAN	canada	Shatter I.T.	http://www.datacentermap.com/cloud/shatter-it.html
23	55.37911	-99.66797	CA	NAN	canada	inerail	http://www.datacentermap.com/cloud/inerail.html
24	55.37911	-99.66797	CA	NAN	canada	LINKBYNET	http://www.datacentermap.com/cloud/linkbynet.html
25	55.37911	-99.66797	CA	NAN	canada	Netel NAXUS CLOUD	http://www.datacentermap.com/cloud/netel-naxus-cloud.html
26	55.37911	-99.66797	CA	NAN	canada	server cloud canada	http://www.datacentermap.com/cloud/server-cloud-canada.html
27	55.37911	-99.66797	CA	NAN	canada	cirrus9	http://www.datacentermap.com/cloud/cirrus9.html
28	36.87962	101.953125	CN	ASP	china	radixcloud	http://www.datacentermap.com/cloud/radixcloud.html
29	36.87962	101.953125	CN	ASP	china	Cloud Dedicated Hosting	http://www.datacentermap.com/cloud/cloud-dedicated-hosting.html
30	36.87962	101.953125	CN	ASP	china	chinanetcloud	http://www.datacentermap.com/cloud/chinanetcloud.html
31	9.750926	-83.80371	CR	NAS	costa-rica	Rack Lodge Cloud	http://www.datacentermap.com/cloud/rack-lodge-cloud.html
32	9.750926	-83.80371	CR	NAS	costa-rica	DataCenterCostaRica-Cloud	http://www.datacentermap.com/cloud/dccr-cloud.html
33	35.12641	33.42986	CY	EUE	cyprus	DatumcenterClouds	http://www.datacentermap.com/cloud/datumclouds.html
34	55.714733	10.327148	DK	EUW	denmark	nakana cloud	http://www.datacentermap.com/cloud/nakana-cloud.html
35	64.58618	26.279297	FI	EUE	finland	UpCloud Ltd	http://www.datacentermap.com/cloud/upcloud-ltd.html
36	64.58618	26.279297	FI	EUE	finland	Tenue vCloud	http://www.datacentermap.com/cloud/tenue-vcloud.html
37	47.27923	2.548828	FR	EUW	france	ntt europe ltd	http://www.datacentermap.com/cloud/ntt-europe-ltd.html
38	47.27923	2.548828	FR	EUW	france	ataraxie	http://www.datacentermap.com/cloud/ataraxie.html
39	47.27923	2.548828	FR	EUW	france	sfr isiad -cloud iaas	http://www.datacentermap.com/cloud/sfr-isiad--cloud-iaas.html
40	47.27923	2.548828	FR	EUW	france	interoute communications ltd	http://www.datacentermap.com/cloud/interoute-communications.html
41	47.27923	2.548828	FR	EUW	france	colt vcloud services	http://www.datacentermap.com/cloud/colt-vcloud-services.html
42	47.27923	2.548828	FR	EUW	france	Colt managed workspace	http://www.datacentermap.com/cloud/colt-managed-workspace.html
43	47.27923	2.548828	FR	EUW	france	euclyde cloud solutions	http://www.datacentermap.com/cloud/euclyde-cloud-solutions.html
44	47.27923	2.548828	FR	EUW	france	LINKBYNET	http://www.datacentermap.com/cloud/linkbynet.html
45	47.27923	2.548828	FR	EUW	france	Euclyde Cloud	http://www.datacentermap.com/cloud/euclyde-cloud.html
46	47.27923	2.548828	FR	EUW	france	cloudarchitek	http://www.datacentermap.com/cloud/cloudarchitek1.html
47	47.27923	2.548828	FR	EUW	france	cloudmaker	http://www.datacentermap.com/cloud/cloudmaker.html
48	47.27923	2.548828	FR	EUW	france	navlink cloud services	http://www.datacentermap.com/cloud/navlink-cloud-services.html
49	47.27923	2.548828	FR	EUW	france	tina	http://www.datacentermap.com/cloud/tina.html
50	47.27923	2.548828	FR	EUW	france	kheops organisation	http://www.datacentermap.com/cloud/kheops-organisation.html
51	47.27923	2.548828	FR	EUW	france	jn cloud	http://www.datacentermap.com/cloud/jn-cloud.html
52	47.27923	2.548828	FR	EUW	france	ahmed omari	http://www.datacentermap.com/cloud/sql-cloud.html
53	51.179344	10.50293	DE	EUW	germany	LeaseWeb	http://www.datacentermap.com/cloud/leaseweb.html
54	51.179344	10.50293	DE	EUW	germany	ccloud	http://www.datacentermap.com/cloud/ccloud.html
55	51.179344	10.50293	DE	EUW	germany	ScaleUp Cloud	http://www.datacentermap.com/cloud/scaleupcloud.html
56	51.179344	10.50293	DE	EUW	germany	cloud anetsisnet	http://www.datacentermap.com/cloud/cloud-anetsisnet.html
57	51.179344	10.50293	DE	EUW	germany	ntt europe ltd	http://www.datacentermap.com/cloud/ntt-europe-ltd.html
58	51.179344	10.50293	DE	EUW	germany	datacenter muc vmware cloud	http://www.datacentermap.com/cloud/datacenter-muc-vmware-cloud.html
59	51.179344	10.50293	DE	EUW	germany	interoute communications ltd	http://www.datacentermap.com/cloud/interoute-communications.html
60	51.179344	10.50293	DE	EUW	germany	colt vcloud services	http://www.datacentermap.com/cloud/colt-vcloud-services.html
61	51.179344	10.50293	DE	EUW	germany	Colt managed workspace	http://www.datacentermap.com/cloud/colt-managed-workspace.html
62	51.179344	10.50293	DE	EUW	germany	mesh iaas	http://www.datacentermap.com/cloud/mesh-iaas.html
63	51.179344	10.50293	DE	EUW	germany	yunicon	http://www.datacentermap.com/cloud/yunicon.html
64	51.179344	10.50293	DE	EUW	germany	vpsnine	http://www.datacentermap.com/cloud/vpsnine.html
65	39.074207	21.824312	GR	EUE	greece	bronet virtual infrastructure	http://www.datacentermap.com/cloud/bronet-virtual-infrastructure.html
66	39.074207	21.824312	GR	EUE	greece	lancom vmware	http://www.datacentermap.com/cloud/lancom-vmware.html
67	39.074207	21.824312	GR	EUE	greece	lancom hyper-v	http://www.datacentermap.com/cloud/lancom-hyper-v.html
68	39.074207	21.824312	GR	EUE	greece	lancom openvz	http://www.datacentermap.com/cloud/lancom-openvz.html
69	39.074207	21.824312	GR	EUE	greece	interworks hyperv cloud	http://www.datacentermap.com/cloud/interworks-hyperv-cloud.html
70	22.396427	114.1095	HK	ASP	hong-kong	SuperCloud	http://www.datacentermap.com/cloud/sunnyvision-cloud-server.html
71	22.396427	114.1095	HK	ASP	hong-kong	vps	http://www.datacentermap.com/cloud/vps1.html
72	22.396427	114.1095	HK	ASP	hong-kong	Cloud Dedicated Hosting	http://www.datacentermap.com/cloud/cloud-dedicated-hosting.html
73	22.396427	114.1095	HK	ASP	hong-kong	cloud service 360	http://www.datacentermap.com/cloud/cloud-service-360.html
74	22.396427	114.1095	HK	ASP	hong-kong	super icloud	http://www.datacentermap.com/cloud/super-icloud.html
75	22.396427	114.1095	HK	ASP	hong-kong	computerline cloud	http://www.datacentermap.com/cloud/computerline-cloud.html
76	47.43552	19.588623	HU	EUE	hungary	radixcloud	http://www.datacentermap.com/cloud/radixcloud.html
77	20.632784	78.75	IN	ASS	india	cloud vps	http://www.datacentermap.com/cloud/cloud-vps.html
78	20.632784	78.75	IN	ASS	india	Tata Communications Instacompute	http://www.datacentermap.com/cloud/instacompute.html
79	20.632784	78.75	IN	ASS	india	bsnl sis cloud	http://www.datacentermap.com/cloud/bsnl-sis-cloud.html
80	20.632784	78.75	IN	ASS	india	servernet services p ltd	http://www.datacentermap.com/cloud/servernet-services.html
81	20.632784	78.75	IN	ASS	india	cloud server hosting - spectranet	http://www.datacentermap.com/cloud/cloud-server-hosting---spectranet.html
82	31.689535	54.66797	IR	ASC	iran	jaygah data center	http://www.datacentermap.com/cloud/jaygah-data-center.html
83	53.514187	-7.77832	IE	EUW	ireland	Amazon EC2	http://www.datacentermap.com/cloud/amazon-ec2.html
84	53.514187	-7.77832	IE	EUW	ireland	Dediserve	http://www.datacentermap.com/cloud/dediserve.html
85	53.514187	-7.77832	IE	EUW	ireland	sungard availability services	http://www.datacentermap.com/cloud/sungard-availability-services.html
86	53.514187	-7.77832	IE	EUW	ireland	interoute communications ltd	http://www.datacentermap.com/cloud/interoute-communications.html
87	53.514187	-7.77832	IE	EUW	ireland	Titan Technology Solutions Limited	http://www.datacentermap.com/cloud/titanlivehosting.html
88	53.514187	-7.77832	IE	EUW	ireland	cloudcix	http://www.datacentermap.com/cloud/cloudcix.html
89	54.21707	-4.54834	GB	EUW	isle-of-man	netcetera	http://www.datacentermap.com/cloud/netcetera.html
90	41.013065	11.99707	IT	EUW	italy	inasset cloud	http://www.datacentermap.com/cloud/inasset-cloud.html
91	41.013065	11.99707	IT	EUW	italy	seeweb	http://www.datacentermap.com/cloud/seeweb.html
92	41.013065	11.99707	IT	EUW	italy	colt vcloud services	http://www.datacentermap.com/cloud/colt-vcloud-services.html
93	41.013065	11.99707	IT	EUW	italy	Colt managed workspace	http://www.datacentermap.com/cloud/colt-managed-workspace.html
94	35.675148	137.02148	JP	ASP	japan	Amazon EC2	http://www.datacentermap.com/cloud/amazon-ec2.html
95	35.675148	137.02148	JP	ASP	japan	Libra	http://www.datacentermap.com/cloud/libra.html
96	49.21444	-2.13125	FR	EUW	jersey	foreshore	http://www.datacentermap.com/cloud/foreshore.html
97	57.016815	24.554443	LV	EUE	latvia	subitech	http://www.datacentermap.com/cloud/subitech.html
98	57.016815	24.554443	LV	EUE	latvia	makonix cloud	http://www.datacentermap.com/cloud/makonix-cloud.html
99	57.016815	24.554443	LV	EUE	latvia	tcloud	http://www.datacentermap.com/cloud/tcloud.html
100	55.247814	23.708496	LT	EUE	lithuania	baltneta	http://www.datacentermap.com/cloud/baltneta.html
101	55.247814	23.708496	LT	EUE	lithuania	Linux Cloud Servers	http://www.datacentermap.com/cloud/hostex-iaas-vds.html
102	55.247814	23.708496	LT	EUE	lithuania	vmware cloud servers	http://www.datacentermap.com/cloud/vmware-cloud-servers.html
103	3.908099	102.10693	MY	ASP	malaysia	SkaliCloud	http://www.datacentermap.com/cloud/skalicloud.html
104	-20.260908	57.577972	MU	AFR	mauritius	mcs cloud services	http://www.datacentermap.com/cloud/mcs-cloud-services.html
105	23.6345	-102.55279	MX	NAS	mexico	syptec cloud	http://www.datacentermap.com/cloud/syptec-cloud.html
106	-40.78054	173.4082	NZ	OCE	new-zealand	hd cloud	http://www.datacentermap.com/cloud/hd-cloud.html
107	-40.78054	173.4082	NZ	OCE	new-zealand	vpsnine	http://www.datacentermap.com/cloud/vpsnine.html
108	65.54937	13.710938	NO	EUW	norway	nethome vdc vsn1	http://www.datacentermap.com/cloud/nethome-vdc-vsn1.html
109	65.54937	13.710938	NO	EUW	norway	nethome vdc vsn2	http://www.datacentermap.com/cloud/nethome-vdc-vsn2.html
110	30.297018	69.87305	PK	ASS	pakistan	cubexs cloud services	http://www.datacentermap.com/cloud/cubexs-cloud-services.html
111	51.919437	19.145136	PL	EUE	poland	skycloud	http://www.datacentermap.com/cloud/skycloud.html
112	51.919437	19.145136	PL	EUE	poland	Titan Technology Solutions Limited	http://www.datacentermap.com/cloud/titanlivehosting.html
113	39.825413	-8.195801	PT	EUW	portugal	webtuga	http://www.datacentermap.com/cloud/webtuga.html
114	45.8288	24.763184	RO	EUE	romania	appnor cloud	http://www.datacentermap.com/cloud/appnor-cloud.html
115	45.8288	24.763184	RO	EUE	romania	starvault cloud server	http://www.datacentermap.com/cloud/starvault-cloud-server.html
116	45.8288	24.763184	RO	EUE	romania	hostway cloud	http://www.datacentermap.com/cloud/hostway-cloud.html
117	62.10388	93.86719	RU	EUE	russia	croc cloud c2	http://www.datacentermap.com/cloud/croc-cloud-c2.html
118	62.10388	93.86719	RU	EUE	russia	borovaya	http://www.datacentermap.com/cloud/borovaya.html
119	62.10388	93.86719	RU	EUE	russia	interoute communications ltd	http://www.datacentermap.com/cloud/interoute-communications.html
120	62.10388	93.86719	RU	EUE	russia	Selectel cloud	http://www.datacentermap.com/cloud/el-cloud.html
121	23.885942	45.079163	SA	ASC	saudi-arabia	flexi cloud server	http://www.datacentermap.com/cloud/flexi-cloud-server.html
122	1.347074	103.818054	SG	ASP	singapore	Amazon EC2	http://www.datacentermap.com/cloud/amazon-ec2.html
123	1.347074	103.818054	SG	ASP	singapore	SoftLayer CloudLayer	http://www.datacentermap.com/cloud/cloudlayer.html
124	1.347074	103.818054	SG	ASP	singapore	Tata Communications Instacompute	http://www.datacentermap.com/cloud/instacompute.html
125	1.347074	103.818054	SG	ASP	singapore	vpsnine	http://www.datacentermap.com/cloud/vpsnine.html
126	-29.15216	25.620117	ZA	AFR	south-africa	RSAWEB	http://www.datacentermap.com/cloud/rsaweb.html
127	-29.15216	25.620117	ZA	AFR	south-africa	vpsnine	http://www.datacentermap.com/cloud/vpsnine.html
128	-29.15216	25.620117	ZA	AFR	south-africa	go2cloud	http://www.datacentermap.com/cloud/go2cloud.html
129	40.14529	-3.47168	ES	EUW	spain	ntt europe ltd	http://www.datacentermap.com/cloud/ntt-europe-ltd.html
130	40.14529	-3.47168	ES	EUW	spain	gnet cloud	http://www.datacentermap.com/cloud/gnet-cloud.html
131	40.14529	-3.47168	ES	EUW	spain	ibercom cloud	http://www.datacentermap.com/cloud/ibercom-cloud.html
132	40.14529	-3.47168	ES	EUW	spain	abserver	http://www.datacentermap.com/cloud/abserver.html
133	40.14529	-3.47168	ES	EUW	spain	adam	http://www.datacentermap.com/cloud/adam.html
134	40.14529	-3.47168	ES	EUW	spain	interoute communications ltd	http://www.datacentermap.com/cloud/interoute-communications.html
135	40.14529	-3.47168	ES	EUW	spain	colt vcloud services	http://www.datacentermap.com/cloud/colt-vcloud-services.html
136	40.14529	-3.47168	ES	EUW	spain	Colt managed workspace	http://www.datacentermap.com/cloud/colt-managed-workspace.html
137	40.14529	-3.47168	ES	EUW	spain	occentus cloud	http://www.datacentermap.com/cloud/occentus-cloud.html
138	40.14529	-3.47168	ES	EUW	spain	ack cloud	http://www.datacentermap.com/cloud/ack-cloud.html
139	62.83509	17.226562	SE	EUW	sweden	GleSYS	http://www.datacentermap.com/cloud/glesys.html
140	46.882725	8.393555	CH	EUW	switzerland	Qube Virtual Data Centre	http://www.datacentermap.com/cloud/qube-virtual-dc.html
141	46.882725	8.393555	CH	EUW	switzerland	Virtual Pivate Servers	http://www.datacentermap.com/cloud/penta-vps.html
142	46.882725	8.393555	CH	EUW	switzerland	CloudSigma	http://www.datacentermap.com/cloud/cloudsigma.html
143	46.882725	8.393555	CH	EUW	switzerland	interoute communications ltd	http://www.datacentermap.com/cloud/interoute-communications.html
144	46.882725	8.393555	CH	EUW	switzerland	TC Virtual Private Coud	http://www.datacentermap.com/cloud/tc-cloud.html
145	46.882725	8.393555	CH	EUW	switzerland	bank of data	http://www.datacentermap.com/cloud/bank-of-data.html
146	46.882725	8.393555	CH	EUW	switzerland	computerline cloud	http://www.datacentermap.com/cloud/computerline-cloud.html
147	23.69781	120.96052	TW	ASP	taiwan	Cloud Dedicated Hosting	http://www.datacentermap.com/cloud/cloud-dedicated-hosting.html
148	15.870032	100.99254	TH	ASP	thailand	tcct	http://www.datacentermap.com/cloud/tcct.html
149	15.870032	100.99254	TH	ASP	thailand	bangkokvps	http://www.datacentermap.com/cloud/bangkokvps.html
150	52.17393	5.603027	NL	EUW	the-netherlands	LeaseWeb	http://www.datacentermap.com/cloud/leaseweb.html
151	52.17393	5.603027	NL	EUW	the-netherlands	Phoenix NAP Secured Cloud	http://www.datacentermap.com/cloud/secured-cloud.html
152	52.17393	5.603027	NL	EUW	the-netherlands	VPS.NET	http://www.datacentermap.com/cloud/vps-net.html
153	52.17393	5.603027	NL	EUW	the-netherlands	ntt europe ltd	http://www.datacentermap.com/cloud/ntt-europe-ltd.html
154	52.17393	5.603027	NL	EUW	the-netherlands	luna cloud	http://www.datacentermap.com/cloud/luna-cloud.html
155	52.17393	5.603027	NL	EUW	the-netherlands	ip2 virtual	http://www.datacentermap.com/cloud/ip2-virtual.html
156	52.17393	5.603027	NL	EUW	the-netherlands	Virtual Datacenter	http://www.datacentermap.com/cloud/cloud-server.html
157	52.17393	5.603027	NL	EUW	the-netherlands	colt vcloud services	http://www.datacentermap.com/cloud/colt-vcloud-services.html
158	52.17393	5.603027	NL	EUW	the-netherlands	Colt managed workspace	http://www.datacentermap.com/cloud/colt-managed-workspace.html
159	52.17393	5.603027	NL	EUW	the-netherlands	Interconnect VPC	http://www.datacentermap.com/cloud/virtual-private-cloud.html
160	52.17393	5.603027	NL	EUW	the-netherlands	enterprise cloud	http://www.datacentermap.com/cloud/enterprise-cloud.html
161	52.17393	5.603027	NL	EUW	the-netherlands	computerline cloud	http://www.datacentermap.com/cloud/computerline-cloud.html
162	38.27269	33.046875	TR	ASC	turkey	technoix	http://www.datacentermap.com/cloud/technoix.html
163	38.27269	33.046875	TR	ASC	turkey	rackdc	http://www.datacentermap.com/cloud/rackdc.html
164	38.27269	33.046875	TR	ASC	turkey	Dora Telekom	http://www.datacentermap.com/cloud/dora-telekom.html
165	24.397133	53.833008	AE	ASC	united-arab-emirates	Virtual Pivate Servers	http://www.datacentermap.com/cloud/penta-vps.html
166	54.033585	-4.482422	GB	EUW	united-kingdom	enterprise cloud	http://www.datacentermap.com/cloud/pulsant-enterprise.html
167	54.033585	-4.482422	GB	EUW	united-kingdom	Qube Virtual Data Centre	http://www.datacentermap.com/cloud/qube-virtual-dc.html
168	54.033585	-4.482422	GB	EUW	united-kingdom	pulsant ltd	http://www.datacentermap.com/cloud/pulsant.html
169	54.033585	-4.482422	GB	EUW	united-kingdom	Rackspace Cloud	http://www.datacentermap.com/cloud/rackspacecloud.html
170	54.033585	-4.482422	GB	EUW	united-kingdom	UpCloud Ltd	http://www.datacentermap.com/cloud/upcloud-ltd.html
171	54.033585	-4.482422	GB	EUW	united-kingdom	SoftLayer CloudLayer	http://www.datacentermap.com/cloud/cloudlayer.html
172	54.033585	-4.482422	GB	EUW	united-kingdom	ElasticHosts	http://www.datacentermap.com/cloud/elastichosts.html
173	54.033585	-4.482422	GB	EUW	united-kingdom	Serverlove	http://www.datacentermap.com/cloud/serverlove.html
174	54.033585	-4.482422	GB	EUW	united-kingdom	VPS.NET	http://www.datacentermap.com/cloud/vps-net.html
175	54.033585	-4.482422	GB	EUW	united-kingdom	FlexiScale	http://www.datacentermap.com/cloud/flexiscale.html
176	54.033585	-4.482422	GB	EUW	united-kingdom	Linode	http://www.datacentermap.com/cloud/linode.html
177	54.033585	-4.482422	GB	EUW	united-kingdom	DNS Europe	http://www.datacentermap.com/cloud/dnseurope.html
178	54.033585	-4.482422	GB	EUW	united-kingdom	wirehive cloud	http://www.datacentermap.com/cloud/wirehive-cloud.html
179	54.033585	-4.482422	GB	EUW	united-kingdom	netcetera	http://www.datacentermap.com/cloud/netcetera.html
180	54.033585	-4.482422	GB	EUW	united-kingdom	iland cloud infrastructure	http://www.datacentermap.com/cloud/iland-cloud-infrastructure.html
181	54.033585	-4.482422	GB	EUW	united-kingdom	sungard availability services	http://www.datacentermap.com/cloud/sungard-availability-services.html
182	54.033585	-4.482422	GB	EUW	united-kingdom	interoute communications ltd	http://www.datacentermap.com/cloud/interoute-communications.html
183	54.033585	-4.482422	GB	EUW	united-kingdom	navisite europe ltd	http://www.datacentermap.com/cloud/navisite-europe.html
184	54.033585	-4.482422	GB	EUW	united-kingdom	ServerSpace Cloud servers	http://www.datacentermap.com/cloud/serverspace-cloud-servers.html
185	54.033585	-4.482422	GB	EUW	united-kingdom	colt vcloud services	http://www.datacentermap.com/cloud/colt-vcloud-services.html
186	54.033585	-4.482422	GB	EUW	united-kingdom	Colt managed workspace	http://www.datacentermap.com/cloud/colt-managed-workspace.html
187	54.033585	-4.482422	GB	EUW	united-kingdom	iomart	http://www.datacentermap.com/cloud/iomart.html
188	54.033585	-4.482422	GB	EUW	united-kingdom	enterprise cloud	http://www.datacentermap.com/cloud/enterprise-cloud.html
189	54.033585	-4.482422	GB	EUW	united-kingdom	virtual server hosting	http://www.datacentermap.com/cloud/virtual-server-hosting.html
190	34.16182	-112.23633	US	NAN	arizona	nucor it solutions	http://www.datacentermap.com/cloud/nucor-it-solutions.html
191	34.16182	-112.23633	US	NAN	arizona	Phoenix NAP Secured Cloud	http://www.datacentermap.com/cloud/secured-cloud.html
192	34.16182	-112.23633	US	NAN	arizona	syptec cloud	http://www.datacentermap.com/cloud/syptec-cloud.html
193	36.66842	-119.9707	US	NAN	california	Atlantic Metro vCLOUD	http://www.datacentermap.com/cloud/amc-cloud.html
194	36.66842	-119.9707	US	NAN	california	iStreet Solutions HA Cloud Service	http://www.datacentermap.com/cloud/istreet-solutions.html
195	36.66842	-119.9707	US	NAN	california	Amazon EC2	http://www.datacentermap.com/cloud/amazon-ec2.html
196	36.66842	-119.9707	US	NAN	california	istreet solutions value cloud	http://www.datacentermap.com/cloud/istreet-solutions-value-cloud.html
197	36.66842	-119.9707	US	NAN	california	ElasticHosts	http://www.datacentermap.com/cloud/elastichosts.html
198	36.66842	-119.9707	US	NAN	california	Linode	http://www.datacentermap.com/cloud/linode.html
199	36.66842	-119.9707	US	NAN	california	GoGrid	http://www.datacentermap.com/cloud/gogrid.html
200	36.66842	-119.9707	US	NAN	california	infiniCloud logicworks	http://www.datacentermap.com/cloud/infinicloud-logicworks.html
201	36.66842	-119.9707	US	NAN	california	syptec cloud	http://www.datacentermap.com/cloud/syptec-cloud.html
202	36.66842	-119.9707	US	NAN	california	iland cloud infrastructure	http://www.datacentermap.com/cloud/iland-cloud-infrastructure.html
203	36.66842	-119.9707	US	NAN	california	navisite europe ltd	http://www.datacentermap.com/cloud/navisite-europe.html
204	36.66842	-119.9707	US	NAN	california	HOSTING	http://www.datacentermap.com/cloud/hosting.html
205	36.66842	-119.9707	US	NAN	california	SolarCloud	http://www.datacentermap.com/cloud/solarcloud.html
206	36.66842	-119.9707	US	NAN	california	scalematrix	http://www.datacentermap.com/cloud/scalematrix.html
207	38.82259	-106.083984	US	NAN	colorado	parsec data management	http://www.datacentermap.com/cloud/parsec-data-management.html
208	38.82259	-106.083984	US	NAN	colorado	HOSTING	http://www.datacentermap.com/cloud/hosting.html
209	38.82259	-106.083984	US	NAN	colorado	FORTRUST	http://www.datacentermap.com/cloud/fortrust.html
210	38.976494	-75.476074	US	NAN	delaware	ipr international - zoneit	http://www.datacentermap.com/cloud/ipr-international-zoneit.html
211	38.976494	-75.476074	US	NAN	delaware	HOSTING	http://www.datacentermap.com/cloud/hosting.html
212	38.889965	-77.01004	US	NAN	district-of-columbia	SoftLayer CloudLayer	http://www.datacentermap.com/cloud/cloudlayer.html
213	28.613459	-83.05664	US	NAN	florida	atlanticnet inc	http://www.datacentermap.com/cloud/atlanticnet-inc.html
214	28.613459	-83.05664	US	NAN	florida	vCloud Express	http://www.datacentermap.com/cloud/vcloudexpress.html
215	28.613459	-83.05664	US	NAN	florida	FlexCloud Servers	http://www.datacentermap.com/cloud/flexcloud-servers.html
216	28.613459	-83.05664	US	NAN	florida	cloud south	http://www.datacentermap.com/cloud/cloud-south.html
217	28.613459	-83.05664	US	NAN	florida	data-tech cloud services	http://www.datacentermap.com/cloud/data-tech-cloud-services.html
218	28.613459	-83.05664	US	NAN	florida	enterprise cloud	http://www.datacentermap.com/cloud/enterprise-cloud.html
219	28.613459	-83.05664	US	NAN	florida	Open Hosting	http://www.datacentermap.com/cloud/east1.html
220	32.472694	-83.49609	US	NAN	georgia	Linode	http://www.datacentermap.com/cloud/linode.html
221	32.472694	-83.49609	US	NAN	georgia	GNAX Cloud	http://www.datacentermap.com/cloud/gnax-cloud.html
222	40.17887	-89.384766	US	NAN	illinois	Atlantic Metro vCLOUD	http://www.datacentermap.com/cloud/amc-cloud.html
223	40.17887	-89.384766	US	NAN	illinois	Rackspace Cloud	http://www.datacentermap.com/cloud/rackspacecloud.html
224	40.17887	-89.384766	US	NAN	illinois	cloud3k	http://www.datacentermap.com/cloud/cloud3k.html
225	40.17887	-89.384766	US	NAN	illinois	GigeNET Cloud	http://www.datacentermap.com/cloud/gigenetcloud.html
226	40.17887	-89.384766	US	NAN	illinois	Server Axis Corporation	http://www.datacentermap.com/cloud/server-axis-corporation.html
227	40.17887	-89.384766	US	NAN	illinois	vpsnine	http://www.datacentermap.com/cloud/vpsnine.html
228	39.77477	-86.396484	US	NAN	indiana	cloud3k	http://www.datacentermap.com/cloud/cloud3k.html
229	39.77477	-86.396484	US	NAN	indiana	expedient public cloud	http://www.datacentermap.com/cloud/expedient-public-cloud.html
230	39.77477	-86.396484	US	NAN	indiana	expedient private cloud	http://www.datacentermap.com/cloud/expedient-private-cloud.html
231	39.77477	-86.396484	US	NAN	indiana	expedient hybrid cloud	http://www.datacentermap.com/cloud/expedient-hybrid-cloud.html
232	37.509727	-85.166016	US	NAN	kentucky	HOSTING	http://www.datacentermap.com/cloud/hosting.html
233	31.244823	-92.14503	US	NAN	louisiana	IaaSer.com	http://www.datacentermap.com/cloud/iaaser.html
234	38.993572	-76.59668	US	NAN	maryland	expedient public cloud	http://www.datacentermap.com/cloud/expedient-public-cloud.html
235	38.993572	-76.59668	US	NAN	maryland	expedient private cloud	http://www.datacentermap.com/cloud/expedient-private-cloud.html
236	38.993572	-76.59668	US	NAN	maryland	expedient hybrid cloud	http://www.datacentermap.com/cloud/expedient-hybrid-cloud.html
237	38.993572	-76.59668	US	NAN	maryland	OCOSA Cloud	http://www.datacentermap.com/cloud/ocosa-cloud.html
238	41.96766	-71.45508	US	NAN	massachusetts	cloud hosting	http://www.datacentermap.com/cloud/cloud-hosting.html
239	41.96766	-71.45508	US	NAN	massachusetts	navisite europe ltd	http://www.datacentermap.com/cloud/navisite-europe.html
240	41.96766	-71.45508	US	NAN	massachusetts	expedient public cloud	http://www.datacentermap.com/cloud/expedient-public-cloud.html
241	41.96766	-71.45508	US	NAN	massachusetts	expedient private cloud	http://www.datacentermap.com/cloud/expedient-private-cloud.html
242	41.96766	-71.45508	US	NAN	massachusetts	expedient hybrid cloud	http://www.datacentermap.com/cloud/expedient-hybrid-cloud.html
243	43.45292	-84.506836	US	NAN	michigan	StormOnDemand	http://www.datacentermap.com/cloud/stormondemand.html
244	43.45292	-84.506836	US	NAN	michigan	Managed Cloud Hosting	http://www.datacentermap.com/cloud/managed-cloud-hosting.html
245	38.61687	-92.54883	US	NAN	missouri	CoSentry	http://www.datacentermap.com/cloud/cosentry.html
246	38.61687	-92.54883	US	NAN	missouri	hostirian cloud	http://www.datacentermap.com/cloud/hostirian-cloud.html
247	47.100044	-109.77539	US	NAN	montana	parsec data management	http://www.datacentermap.com/cloud/parsec-data-management.html
248	41.37681	-100.458984	US	NAN	nebraska	CoSentry	http://www.datacentermap.com/cloud/cosentry.html
249	39.027718	-116.98242	US	NAN	nevada	cloud3k	http://www.datacentermap.com/cloud/cloud3k.html
250	39.027718	-116.98242	US	NAN	nevada	syptec cloud	http://www.datacentermap.com/cloud/syptec-cloud.html
251	39.50404	-74.88281	US	NAN	new-jersey	Atlantic Metro vCLOUD	http://www.datacentermap.com/cloud/amc-cloud.html
252	39.50404	-74.88281	US	NAN	new-jersey	cloud3k	http://www.datacentermap.com/cloud/cloud3k.html
253	39.50404	-74.88281	US	NAN	new-jersey	Linode	http://www.datacentermap.com/cloud/linode.html
254	39.50404	-74.88281	US	NAN	new-jersey	infiniCloud logicworks	http://www.datacentermap.com/cloud/infinicloud-logicworks.html
255	39.50404	-74.88281	US	NAN	new-jersey	Solar VPS	http://www.datacentermap.com/cloud/solar-vps.html
256	42.61779	-75.234375	US	NAN	new-york	Atlantic Metro vCLOUD	http://www.datacentermap.com/cloud/amc-cloud.html
257	42.61779	-75.234375	US	NAN	new-york	Qube Virtual Data Center	http://www.datacentermap.com/cloud/qube-virtual-data-center.html
258	42.61779	-75.234375	US	NAN	new-york	earthlink virtualization services	http://www.datacentermap.com/cloud/earthlink-virtualization.html
259	42.61779	-75.234375	US	NAN	new-york	infiniCloud logicworks	http://www.datacentermap.com/cloud/infinicloud-logicworks.html
260	42.61779	-75.234375	US	NAN	new-york	Shatter I.T.	http://www.datacentermap.com/cloud/shatter-it.html
261	42.61779	-75.234375	US	NAN	new-york	inerail	http://www.datacentermap.com/cloud/inerail.html
262	42.61779	-75.234375	US	NAN	new-york	vpsnine	http://www.datacentermap.com/cloud/vpsnine.html
263	35.675148	-80.06836	US	NAN	north-carolina	navisite europe ltd	http://www.datacentermap.com/cloud/navisite-europe.html
264	40.446945	-83.05664	US	NAN	ohio	expedient public cloud	http://www.datacentermap.com/cloud/expedient-public-cloud.html
265	40.446945	-83.05664	US	NAN	ohio	expedient private cloud	http://www.datacentermap.com/cloud/expedient-private-cloud.html
266	40.446945	-83.05664	US	NAN	ohio	expedient hybrid cloud	http://www.datacentermap.com/cloud/expedient-hybrid-cloud.html
267	40.446945	-83.05664	US	NAN	ohio	intercloud	http://www.datacentermap.com/cloud/intercloud.html
268	35.532227	-97.822266	US	NAN	oklahoma	OCOSA Cloud	http://www.datacentermap.com/cloud/ocosa-cloud.html
269	43.707596	-121.02539	US	NAN	oregon	data center west	http://www.datacentermap.com/cloud/data-center-west.html
270	43.707596	-121.02539	US	NAN	oregon	opus private cloud	http://www.datacentermap.com/cloud/opus-private-cloud.html
271	40.78054	-77.51953	US	NAN	pennsylvania	Xen Cloud Services from Netrepid	http://www.datacentermap.com/cloud/cloud-services-from-netrepid.html
272	40.78054	-77.51953	US	NAN	pennsylvania	open source cloud from netrepid	http://www.datacentermap.com/cloud/open-source-cloud-from-netrepid.html
273	40.78054	-77.51953	US	NAN	pennsylvania	ipr international - zoneit	http://www.datacentermap.com/cloud/ipr-international-zoneit.html
274	40.78054	-77.51953	US	NAN	pennsylvania	expedient public cloud	http://www.datacentermap.com/cloud/expedient-public-cloud.html
275	40.78054	-77.51953	US	NAN	pennsylvania	expedient private cloud	http://www.datacentermap.com/cloud/expedient-private-cloud.html
276	40.78054	-77.51953	US	NAN	pennsylvania	expedient hybrid cloud	http://www.datacentermap.com/cloud/expedient-hybrid-cloud.html
277	40.78054	-77.51953	US	NAN	pennsylvania	sierra data centers	http://www.datacentermap.com/cloud/sierra-data-centers.html
278	40.78054	-77.51953	US	NAN	pennsylvania	dbsi	http://www.datacentermap.com/cloud/dbsi.html
279	41.607227	-71.49902	US	NAN	rhode-island	provnet	http://www.datacentermap.com/cloud/provnet.html
280	44.465153	-100.458984	US	NAN	south-dakota	CoSentry	http://www.datacentermap.com/cloud/cosentry.html
281	31.728167	-99.4043	US	NAN	texas	Rackspace Cloud	http://www.datacentermap.com/cloud/rackspacecloud.html
282	31.728167	-99.4043	US	NAN	texas	SoftLayer CloudLayer	http://www.datacentermap.com/cloud/cloudlayer.html
283	31.728167	-99.4043	US	NAN	texas	ElasticHosts	http://www.datacentermap.com/cloud/elastichosts.html
284	31.728167	-99.4043	US	NAN	texas	Linode	http://www.datacentermap.com/cloud/linode.html
285	31.728167	-99.4043	US	NAN	texas	FlexCloud Servers	http://www.datacentermap.com/cloud/flexcloud-servers.html
286	31.728167	-99.4043	US	NAN	texas	manda cloud	http://www.datacentermap.com/cloud/manda-cloud.html
287	31.728167	-99.4043	US	NAN	texas	iland cloud infrastructure	http://www.datacentermap.com/cloud/iland-cloud-infrastructure.html
288	31.728167	-99.4043	US	NAN	texas	Solar VPS	http://www.datacentermap.com/cloud/solar-vps.html
289	31.728167	-99.4043	US	NAN	texas	HOSTING	http://www.datacentermap.com/cloud/hosting.html
290	31.728167	-99.4043	US	NAN	texas	GNAX Cloud	http://www.datacentermap.com/cloud/gnax-cloud.html
291	31.728167	-99.4043	US	NAN	texas	opus private cloud	http://www.datacentermap.com/cloud/opus-private-cloud.html
292	39.095963	-111.97266	US	NAN	utah	VPS.NET	http://www.datacentermap.com/cloud/vps-net.html
293	39.095963	-111.97266	US	NAN	utah	syptec cloud	http://www.datacentermap.com/cloud/syptec-cloud.html
294	37.160316	-79.01367	US	NAN	virginia	LeaseWeb	http://www.datacentermap.com/cloud/leaseweb.html
295	37.160316	-79.01367	US	NAN	virginia	Amazon EC2	http://www.datacentermap.com/cloud/amazon-ec2.html
296	37.160316	-79.01367	US	NAN	virginia	GoGrid	http://www.datacentermap.com/cloud/gogrid.html
297	37.160316	-79.01367	US	NAN	virginia	appnor cloud	http://www.datacentermap.com/cloud/appnor-cloud.html
298	37.160316	-79.01367	US	NAN	virginia	iland cloud infrastructure	http://www.datacentermap.com/cloud/iland-cloud-infrastructure.html
299	37.160316	-79.01367	US	NAN	virginia	sevtex	http://www.datacentermap.com/cloud/sevtex.html
300	37.160316	-79.01367	US	NAN	virginia	vps farm cloud	http://www.datacentermap.com/cloud/vps-farm-cloud.html
301	37.160316	-79.01367	US	NAN	virginia	enterprise cloud	http://www.datacentermap.com/cloud/enterprise-cloud.html
302	37.160316	-79.01367	US	NAN	virginia	Open Hosting	http://www.datacentermap.com/cloud/east1.html
303	47.100044	-121.02539	US	NAN	washington	SoftLayer CloudLayer	http://www.datacentermap.com/cloud/cloudlayer.html
304	47.100044	-121.02539	US	NAN	washington	parsec data management	http://www.datacentermap.com/cloud/parsec-data-management.html
