%City_Code	City_Name	Country_Code	Country_Name	SubcontinentalZone_Code	Latitude	Longitude	Internet_Users	MOOC_Users	OnlinePoker_Users	
%N/A	N/A	CN	China	ASP	N/A	N/A	564,000,000	32,144.611	5,626.332	
1796236	Shanghai	CN	China	ASP	31.22222	121.45806	65,138,535.575	3,712.505	649.807	
1816670	Beijing	CN	China	ASP	39.9075	116.39723	161,678,997.34	9,214.731	1,612.872	
1793724	Tai'an	CN	China	ASP	36.18528	117.12	13,990.611	0.797	0.14	
1927639	Yueyang	CN	China	ASP	29.33333	113.09194	865,669.05	49.338	8.636	
1804879	Kaifeng	CN	China	ASP	34.79111	114.34833	1,524,976.589	86.915	15.213	
1791247	Wuhan	CN	China	ASP	30.58333	114.26667	10,804,249.276	615.777	107.781	
1814906	Chongqing	CN	China	ASP	29.56278	106.55278	5,208,004.912	296.825	51.954	
1815286	Chengdu	CN	China	ASP	30.66667	104.06667	9,747,958.152	555.575	97.243	
1792947	Tianjin	CN	China	ASP	39.14222	117.17667	16,264,085.184	926.955	162.247	
2034937	Shenyang	CN	China	ASP	41.79222	123.43278	4,880,974.382	278.186	48.691	
1794903	Shiyan	CN	China	ASP	32.6475	110.77806	1,241,666.718	70.768	12.387	
2037013	Harbin	CN	China	ASP	45.75	126.65	4,765,551.842	271.608	47.54	
1790630	Xi'an	CN	China	ASP	34.25833	108.92861	9,538,098.989	543.614	95.15	
1804430	Lanzhou	CN	China	ASP	36.05639	103.79222	2,175,539.997	123.993	21.703	
1809858	Guangzhou	CN	China	ASP	23.11667	113.25	40,896,304.519	2,330.844	407.972	
1799962	Nanjing	CN	China	ASP	32.06167	118.77778	15,970,282.355	910.21	159.316	
1795565	Shenzhen	CN	China	ASP	22.54554	114.0683	5,975,739.685	340.581	59.613	
1793511	Taiyuan	CN	China	ASP	37.86944	112.56028	1,748,826.364	99.673	17.446	
2038180	Changchun	CN	China	ASP	43.88	125.32278	146,901.415	8.372	1.465	
1815577	Changsha	CN	China	ASP	28.2	112.96667	4,721,831.182	269.116	47.104	
1805753	Jinan	CN	China	ASP	36.66833	116.99722	7,908,192.817	450.719	78.89	
1814087	Dalian	CN	China	ASP	38.91222	121.60222	9,286,267.992	529.261	92.638	
1784658	Zhengzhou	CN	China	ASP	34.75778	113.64861	16,769,496.003	955.76	167.289	
1795270	Shijiazhuang	CN	China	ASP	38.04139	114.47861	19,237.09	1.096	0.192	
2036502	Jilin	CN	China	ASP	43.85083	126.56028	1,448,028.229	82.529	14.445	
1808926	Hangzhou	CN	China	ASP	30.29365	120.16142	19,429,460.903	1,107.363	193.824	
1800163	Nanchang	CN	China	ASP	28.68333	115.88333	8,997,711.642	512.815	89.759	
1797929	Qingdao	CN	China	ASP	36.09861	120.37194	5,692,429.814	324.434	56.786	
1793346	Tangshan	CN	China	ASP	39.63333	118.18333	741,502.378	42.261	7.397	
1529102	Urunchi	CN	China	ASP	43.80096	87.60046	1,360,586.911	77.545	13.573	
1808722	Hefei	CN	China	ASP	31.86389	117.28083	3,758,227.856	214.196	37.491	
1886760	Suzhou	CN	China	ASP	31.31139	120.61806	5,199,260.78	296.327	51.867	
1795940	Shantou	CN	China	ASP	23.36814	116.71479	2,693,192.6	153.496	26.867	
1787824	Tongshan	CN	China	ASP	34.18045	117.15707	731,009.42	41.663	7.292	
1810821	Fuzhou	CN	China	ASP	26.06139	119.30611	4,637,887.517	264.332	46.266	
1809461	Guiyang	CN	China	ASP	26.58333	106.71667	1,416,549.355	80.735	14.131	
1790923	Wuxi	CN	China	ASP	31.56887	120.28857	6,390,211.534	364.204	63.747	
7283386	Changshu City	CN	China	ASP	31.64615	120.74221	1,072,030.561	61.099	10.694	
1804651	Kunming	CN	China	ASP	25.03889	102.71833	1,385,070.48	78.941	13.817	
1816971	Baoding	CN	China	ASP	38.85111	115.49028	6,995.305	0.399	0.07	
1815456	Changzhou	CN	China	ASP	31.78333	119.96667	5,085,587.066	289.848	50.733	
1807700	Huaibei	CN	China	ASP	33.97444	116.79167	956,608.021	54.521	9.543	
1798827	Pingdingshan	CN	China	ASP	33.73847	113.30119	2,394,143.292	136.452	23.883	
1791388	Wenzhou	CN	China	ASP	27.99942	120.66682	4,711,338.224	268.518	46.999	
1799869	Nanning	CN	China	ASP	22.81667	108.31667	8,229,976.868	469.059	82.1	
2036892	Hohhot	CN	China	ASP	40.81056	111.65222	6,215,328.897	354.236	62.003	
1788852	Xining	CN	China	ASP	36.61667	101.76667	717,018.809	40.866	7.153	
1788572	Xinxiang	CN	China	ASP	35.30889	113.86722	3,404,964.93	194.063	33.967	
1804540	Langfang	CN	China	ASP	39.50972	116.69472	2,392,394.466	136.352	23.866	
1799397	Ningbo	CN	China	ASP	29.87819	121.54945	4,485,739.623	255.66	44.749	
1787093	Yantai	CN	China	ASP	37.53333	121.4	1,869,495.383	106.55	18.65	
1785286	Zibo	CN	China	ASP	36.79056	118.06333	334,025.835	19.037	3.332	
1799722	Nantong	CN	China	ASP	32.03028	120.87472	167,887.331	9.569	1.675	
1809498	Guilin	CN	China	ASP	25.28194	110.28639	2,252,488.357	128.378	22.47	
1784990	Zhanjiang	CN	China	ASP	21.28145	110.34271	17,488.264	0.997	0.174	
1795874	Shaoguan	CN	China	ASP	24.8	113.58333	1,920,211.348	109.441	19.156	
1787746	Yancheng	CN	China	ASP	33.38556	120.12528	204,612.685	11.662	2.041	
1811103	Foshan	CN	China	ASP	23.02677	113.13148	1,280,140.898	72.96	12.77	
1809078	Haikou	CN	China	ASP	20.04583	110.34167	3,114,659.754	177.517	31.071	
1793505	Taizhou	CN	China	ASP	32.49333	119.91063	264,072.781	15.051	2.634	
1790645	Xiamen	CN	China	ASP	24.47979	118.08187	4,153,462.614	236.722	41.434	
1787227	Yangzhou	CN	China	ASP	32.39722	119.43583	2,721,173.822	155.091	27.146	
1806299	Jiangmen	CN	China	ASP	22.58333	113.08333	2,455,352.215	139.94	24.494	
1791236	Wuhu	CN	China	ASP	31.33657	118.37548	17,488.264	0.997	0.174	
1790437	Zhuhai	CN	China	ASP	22.27694	113.56778	3,947,101.103	224.961	39.375	
1786657	Yinchuan	CN	China	ASP	38.46806	106.27306	2,264,730.141	129.076	22.592	
1788046	Xuchang	CN	China	ASP	34.01667	113.81667	2,665,211.379	151.901	26.588	
1788694	Xinpu	CN	China	ASP	34.59972	119.15944	1,717,347.489	97.878	17.132	
1812545	Dongguan	CN	China	ASP	23.04889	113.74472	2,492,077.569	142.033	24.86	
1812955	Dezhou	CN	China	ASP	37.44861	116.2925	760,739.468	43.358	7.589	
1817968	Anshun	CN	China	ASP	26.25	105.93333	3,013,227.825	171.736	30.059	
1795060	Shiqi	CN	China	ASP	22.51682	113.38521	2,569,025.929	146.419	25.628	
2033467	Yanji	CN	China	ASP	42.9075	129.50778	24,483.569	1.395	0.244	
1792621	Wusong	CN	China	ASP	30.95	117.78333	6,995.305	0.399	0.07	
1812101	Dongying	CN	China	ASP	37.45639	118.48556	876,162.008	49.936	8.74	
1799629	Nanyang	CN	China	ASP	32.99472	112.53278	2,808,615.14	160.074	28.018	
1808770	Hebi	CN	China	ASP	35.89917	114.1925	664,554.018	37.876	6.629	
1803834	Liaocheng	CN	China	ASP	36.44389	115.96472	1,033,556.381	58.907	10.311	
1795196	Tongchuan	CN	China	ASP	35.08056	109.08972	5,246.479	0.299	0.052	
1814082	Daliang	CN	China	ASP	22.85042	113.24701	237,840.385	13.555	2.373	
1796663	Sanming	CN	China	ASP	26.24861	117.61861	159,143.199	9.07	1.588	
1803331	Linxia	CN	China	ASP	35.60028	103.20639	94,436.624	5.382	0.942	
1791748	Wanxian	CN	China	ASP	30.80389	108.38972	3,497.653	0.199	0.035	
1797353	Quanzhou	CN	China	ASP	24.91389	118.58583	876,162.008	49.936	8.74	
1785453	Zaozhuang	CN	China	ASP	34.86472	117.55417	260,575.128	14.851	2.599	
1790396	Xianning	CN	China	ASP	29.88333	114.21667	302,546.961	17.243	3.018	
1812961	Deyang	CN	China	ASP	31.13019	104.38198	8,744.132	0.498	0.087	
1805528	Jinhua	CN	China	ASP	29.10778	119.65472	2,841,842.841	161.968	28.35	
2036597	Jagdaqi	CN	China	ASP	50.41667	124.11667	1,201,443.712	68.475	11.985	
1794035	Songjiang	CN	China	ASP	31.03595	121.2146	431,960.112	24.619	4.309	
1788081	Xuanzhou	CN	China	ASP	30.9525	118.75528	2,163,298.212	123.295	21.581	
1280957	Jiayuguan	CN	China	ASP	39.81667	98.3	6,995.305	0.399	0.07	
1795857	Shaowu	CN	China	ASP	27.34089	117.4831	2,460,598.694	140.239	24.546	
1784841	Zhaotong	CN	China	ASP	27.31667	103.71667	148,650.241	8.472	1.483	
1803886	Lianran	CN	China	ASP	24.92271	102.48496	4,660,622.26	265.627	46.493	
1805270	Jishou	CN	China	ASP	28.31667	109.71667	1,675,375.657	95.486	16.713	

%N/A	N/A	US	United States	NAN	N/A	N/A	245,203,319	187,762.197	178,421.277	
5128581	New York City	US	United States	NAN	40.71427	-74.00597	1,805,187.44	1,382.306	1,313.538	
5368361	Los Angeles	US	United States	NAN	34.05223	-118.24368	5,773,240.783	4,420.806	4,200.877	
4887398	Chicago	US	United States	NAN	41.85003	-87.65005	9,905,539.724	7,585.076	7,207.729	
5110302	Brooklyn	US	United States	NAN	40.6501	-73.94958	291,932.407	223.545	212.424	
4699066	Houston	US	United States	NAN	29.76328	-95.36327	9,466,973.691	7,249.248	6,888.608	
4560349	Philadelphia	US	United States	NAN	39.95234	-75.16379	2,688,176.882	2,058.447	1,956.042	
5125771	Manhattan	US	United States	NAN	40.78343	-73.96625	4,004,751.595	3,066.602	2,914.043	
5308655	Phoenix	US	United States	NAN	33.44838	-112.07404	2,200,181.769	1,684.769	1,600.954	
4726206	San Antonio	US	United States	NAN	29.42412	-98.49363	1,209,010.182	925.788	879.732	
5391811	San Diego	US	United States	NAN	32.71533	-117.15726	2,403,536.31	1,840.486	1,748.924	
4684888	Dallas	US	United States	NAN	32.78306	-96.80667	16,627,257.004	12,732.17	12,098.761	
5392171	San Jose	US	United States	NAN	37.33939	-121.89496	2,882,247.282	2,207.054	2,097.256	
4259418	Indianapolis	US	United States	NAN	39.76838	-86.15804	1,553,280.434	1,189.41	1,130.239	
4160021	Jacksonville	US	United States	NAN	30.33218	-81.65565	923,194.151	706.927	671.759	
5391959	San Francisco	US	United States	NAN	37.77493	-122.41942	2,423,299.972	1,855.62	1,763.305	
4671654	Austin	US	United States	NAN	30.26715	-97.74306	1,887,589.162	1,445.404	1,373.497	
4509177	Columbus	US	United States	NAN	39.96118	-82.99879	2,670,026.986	2,044.549	1,942.835	
4691930	Fort Worth	US	United States	NAN	32.72541	-97.32085	365,209.374	279.656	265.743	
4460243	Charlotte	US	United States	NAN	35.22709	-80.84313	912,336.09	698.613	663.858	
4990729	Detroit	US	United States	NAN	42.33143	-83.04575	718,783.689	550.402	523.02	
5520993	El Paso	US	United States	NAN	31.75872	-106.48693	217,659.288	166.671	158.379	
4641239	Memphis	US	United States	NAN	35.14953	-90.04898	521,087.294	399.018	379.167	
4645421	New South Memphis	US	United States	NAN	35.08676	-90.05676	62,837.29	48.117	45.723	
4347778	Baltimore	US	United States	NAN	39.29038	-76.61219	2,839,273.27	2,174.148	2,065.987	
4930956	Boston	US	United States	NAN	42.35843	-71.05977	165,401.136	126.654	120.354	
5809844	Seattle	US	United States	NAN	47.60621	-122.33207	3,003,797.792	2,300.131	2,185.702	
4140963	Washington, D. C.	US	United States	NAN	38.89511	-77.03637	2,974,451.144	2,277.659	2,164.348	
5419384	Denver	US	United States	NAN	39.73915	-104.9847	1,708,182.124	1,308.025	1,242.952	
5263045	Milwaukee	US	United States	NAN	43.0389	-87.90647	1,536,445.459	1,176.519	1,117.989	
5746545	Portland	US	United States	NAN	45.52345	-122.67621	1,866,789.501	1,429.477	1,358.362	
5506956	Las Vegas	US	United States	NAN	36.17497	-115.13722	153,287.923	117.379	111.539	
4544349	Oklahoma City	US	United States	NAN	35.46756	-97.51643	769,447.997	589.198	559.886	
4951305	South Boston	US	United States	NAN	42.33343	-71.04949	1,192,135.362	912.867	867.453	
5454711	Albuquerque	US	United States	NAN	35.08449	-106.65114	583,824.968	447.059	424.818	
4644585	Nashville	US	United States	NAN	36.16589	-86.78444	472,694.212	361.961	343.954	
5318313	Tucson	US	United States	NAN	32.22174	-110.92648	464,167.148	355.432	337.749	
5350937	Fresno	US	United States	NAN	36.74773	-119.77237	215,049.369	164.672	156.48	
5389489	Sacramento	US	United States	NAN	38.58157	-121.4944	612,573.925	469.073	445.737	
5367929	Long Beach	US	United States	NAN	33.76696	-118.18923	130,336.573	99.804	94.839	
4393217	Kansas City	US	United States	NAN	39.09973	-94.57857	993,044.353	760.415	722.585	
5304391	Mesa	US	United States	NAN	33.42227	-111.82264	106,408.994	81.482	77.428	
4791259	Virginia Beach	US	United States	NAN	36.85293	-75.97798	124,359.659	95.227	90.49	
4180439	Atlanta	US	United States	NAN	33.749	-84.38798	8,659,193.752	6,630.698	6,300.83	
5417598	Colorado Springs	US	United States	NAN	38.83388	-104.82136	160,241.067	122.703	116.599	
5074472	Omaha	US	United States	NAN	41.25861	-95.93779	907,753.789	695.104	660.524	
4487042	Raleigh	US	United States	NAN	35.7721	-78.63861	381,187.658	291.891	277.37	
4164138	Miami	US	United States	NAN	25.77427	-80.19366	924,608.687	708.011	672.788	
5150529	Cleveland	US	United States	NAN	41.4995	-81.69541	1,589,500.534	1,217.145	1,156.594	
4553433	Tulsa	US	United States	NAN	36.15398	-95.99278	717,269.537	549.243	521.918	
5378538	Oakland	US	United States	NAN	37.80437	-122.2708	281,413.038	215.489	204.769	
5037649	Minneapolis	US	United States	NAN	44.97997	-93.26384	1,862,286.893	1,426.029	1,355.086	
4281730	Wichita	US	United States	NAN	37.69224	-97.33754	553,063.784	423.504	402.435	
5856195	Honolulu	US	United States	NAN	21.30694	-157.85834	626,539.981	479.767	455.899	
4671240	Arlington	US	United States	NAN	32.73569	-97.10807	85,908.179	65.783	62.511	
5325738	Bakersfield	US	United States	NAN	35.37329	-119.01871	380,251.275	291.174	276.688	
4335045	New Orleans	US	United States	NAN	29.95465	-90.07507	405,175.006	310.259	294.824	
4498303	West Raleigh	US	United States	NAN	35.78682	-78.66389	710,435.932	544.01	516.946	
5323810	Anaheim	US	United States	NAN	33.83529	-117.9145	83,975.643	64.304	61.105	
4174757	Tampa	US	United States	NAN	27.94752	-82.45843	2,519,329.059	1,929.153	1,833.18	
5412347	Aurora	US	United States	NAN	39.72943	-104.83192	49,090.388	37.591	35.72	
5392900	Santa Ana	US	United States	NAN	33.74557	-117.86783	481,619.738	368.796	350.449	
4407066	Saint Louis	US	United States	NAN	38.62727	-90.19789	2,175,118.576	1,665.577	1,582.717	
5206379	Pittsburgh	US	United States	NAN	40.44062	-79.99589	2,040,458.702	1,562.463	1,484.732	
4683416	Corpus Christi	US	United States	NAN	27.80058	-97.39638	81,664.57	62.534	59.423	
5387877	Riverside	US	United States	NAN	33.95335	-117.39616	183,351.801	140.4	133.415	
4508722	Cincinnati	US	United States	NAN	39.162	-84.45689	1,085,925.598	831.538	790.17	
4297999	Lexington-Fayette	US	United States	NAN	38.0498	-84.45855	180,383.267	138.127	131.255	
5879400	Anchorage	US	United States	NAN	61.21806	-149.90028	477,615.205	365.729	347.535	
5399020	Stockton	US	United States	NAN	37.9577	-121.29078	334,587.651	256.207	243.461	
5174035	Toledo	US	United States	NAN	41.66394	-83.55521	439,183.647	336.301	319.57	
5045360	Saint Paul	US	United States	NAN	44.94441	-93.09327	621,180.682	475.663	452	
5101798	Newark	US	United States	NAN	40.73566	-74.17237	1,384,133.765	1,059.888	1,007.16	
4469146	Greensboro	US	United States	NAN	36.07264	-79.79198	406,330.543	311.144	295.665	
5110629	Buffalo	US	United States	NAN	42.88645	-78.87837	418,862.14	320.74	304.783	
4719457	Plano	US	United States	NAN	33.01984	-96.69889	748,110.414	572.859	544.36	
5072006	Lincoln	US	United States	NAN	40.8	-96.66696	564,200.767	432.032	410.539	
5505411	Henderson	US	United States	NAN	36.0397	-114.98194	71,185.047	54.509	51.798	
4920423	Fort Wayne	US	United States	NAN	41.1306	-85.12886	207,498.534	158.89	150.986	
5099836	Jersey City	US	United States	NAN	40.72816	-74.07764	1,112,024.79	851.523	809.161	
4171563	Saint Petersburg	US	United States	NAN	27.77086	-82.67927	311,895.3	238.831	226.949	
5336899	Chula Vista	US	United States	NAN	32.64005	-117.0842	136,413.103	104.457	99.26	
4299276	Louisville	US	United States	NAN	38.25424	-85.75941	572,648.139	438.5	416.685	
4776222	Norfolk	US	United States	NAN	36.84681	-76.28522	234,036.033	179.211	170.295	
4167147	Orlando	US	United States	NAN	28.53834	-81.37924	9,081,681.886	6,954.215	6,608.252	
5289282	Chandler	US	United States	NAN	33.30616	-111.84125	115,434.134	88.393	83.995	
4705349	Laredo	US	United States	NAN	27.50641	-99.50754	104,117.843	79.727	75.761	
5261457	Madison	US	United States	NAN	43.07305	-89.40123	599,763.406	459.263	436.416	
4499612	Winston-Salem	US	United States	NAN	36.09986	-80.24422	746,058.34	571.287	542.867	
5525577	Lubbock	US	United States	NAN	33.57786	-101.85517	266,789.522	204.292	194.128	
4315588	Baton Rouge	US	United States	NAN	30.45075	-91.15455	454,624.009	348.124	330.805	
4464368	Durham	US	United States	NAN	35.99403	-78.89862	673,657.987	515.847	490.185	
4693003	Garland	US	United States	NAN	32.91262	-96.63888	30,183.416	23.113	21.963	
5295985	Glendale	US	United States	NAN	33.53865	-112.18599	884,065.286	676.965	643.287	
4297983	Lexington	US	United States	NAN	37.98869	-84.47772	400,971.243	307.04	291.765	
5511077	Reno	US	United States	NAN	39.52963	-119.8138	699,697.41	535.787	509.132	
4158476	Hialeah	US	United States	NAN	25.8576	-80.27811	1,450,377.897	1,110.614	1,055.362	
5509952	Paradise	US	United States	NAN	36.09719	-115.14666	344,409.713	263.729	250.608	
4752186	Chesapeake	US	United States	NAN	36.81904	-76.27494	111,588.986	85.448	81.197	
5313457	Scottsdale	US	United States	NAN	33.50921	-111.89903	1,904,165.137	1,458.097	1,385.559	
4700168	Irving	US	United States	NAN	32.81402	-96.94889	1,251,346.657	958.207	910.538	
5350734	Fremont	US	United States	NAN	37.54827	-121.98857	1,858,561.283	1,423.176	1,352.375	
5359777	Irvine	US	United States	NAN	33.66946	-117.82311	961,287.016	736.097	699.477	
4049979	Birmingham	US	United States	NAN	33.52066	-86.80249	583,127.662	446.525	424.311	
5134086	Rochester	US	United States	NAN	43.15478	-77.61556	1,242,779.747	951.647	904.304	
5391710	San Bernardino	US	United States	NAN	34.10834	-117.28977	6,554.682	5.019	4.769	
5811696	Spokane	US	United States	NAN	47.65966	-117.42908	1,548,897.364	1,186.054	1,127.049	
5295903	Gilbert	US	United States	NAN	33.35283	-111.78903	39,905.863	30.558	29.037	
4744709	Arlington	US	United States	NAN	38.88101	-77.10428	10,477,470.634	8,023.027	7,623.892	
4076784	Montgomery	US	United States	NAN	32.36681	-86.29997	131,970.263	101.055	96.028	
4781708	Richmond	US	United States	NAN	37.55376	-77.46026	844,597.73	646.743	614.568	
4853828	Des Moines	US	United States	NAN	41.60054	-93.60911	971,527.463	743.938	706.928	
5377613	North Glendale	US	United States	NAN	34.16056	-118.26452	38,989.403	29.856	28.37	
5373900	Modesto	US	United States	NAN	37.6391	-120.99688	217,240.904	166.35	158.075	
4466033	Fayetteville	US	United States	NAN	35.05266	-78.87836	116,689.286	89.354	84.909	
4341513	Shreveport	US	United States	NAN	32.52515	-93.75018	397,345.249	304.263	289.127	
5145476	Akron	US	United States	NAN	41.08144	-81.51901	718,006.69	549.807	522.455	
5812944	Tacoma	US	United States	NAN	47.25288	-122.44429	447,571.25	342.724	325.674	
4883817	Aurora	US	United States	NAN	41.76058	-88.32007	140,078.943	107.264	101.928	
5380184	Oxnard	US	United States	NAN	34.1975	-119.17705	31,558.106	24.165	22.963	
5145215	Yonkers	US	United States	NAN	40.93121	-73.89875	602,652.248	461.475	438.518	
4076598	Mobile	US	United States	NAN	30.69436	-88.04305	297,172.169	227.557	216.236	
4119403	Little Rock	US	United States	NAN	34.74648	-92.28959	677,443.366	518.746	492.939	
5374732	Moreno Valley	US	United States	NAN	33.93752	-117.23059	7,969.219	6.102	5.799	
5352423	Glendale	US	United States	NAN	34.14251	-118.25508	47,257.467	36.187	34.387	
5516233	Amarillo	US	United States	NAN	35.222	-101.8313	415,714.298	318.329	302.493	
5358705	Huntington Beach	US	United States	NAN	33.6603	-117.99923	149,044.314	114.129	108.452	
4188985	Columbus	US	United States	NAN	32.46098	-84.98771	231,485.883	177.258	168.44	
5513343	Sunrise Manor	US	United States	NAN	36.21108	-115.07306	64,431.134	49.338	46.883	
4994358	Grand Rapids	US	United States	NAN	42.96336	-85.66809	1,273,560.855	975.218	926.702	
5380202	Oxnard Shores	US	United States	NAN	34.19084	-119.2415	305,081.618	233.613	221.991	
5780993	Salt Lake City	US	United States	NAN	40.76078	-111.89105	1,507,756.272	1,154.551	1,097.113	
4174715	Tallahassee	US	United States	NAN	30.43826	-84.28073	429,182.278	328.642	312.293	
4956184	Worcester	US	United States	NAN	42.26259	-71.80229	376,685.049	288.443	274.093	
4776024	Newport News	US	United States	NAN	36.97876	-76.428	145,597.627	111.49	105.944	
4068590	Huntsville	US	United States	NAN	34.73037	-86.5861	262,984.22	201.378	191.359	
4634946	Knoxville	US	United States	NAN	35.96064	-83.92074	1,076,621.535	824.413	783.4	
5512909	Spring Valley	US	United States	NAN	36.10803	-115.245	594,165.03	454.976	432.342	
5224151	Providence	US	United States	NAN	41.82399	-71.41283	667,362.304	511.027	485.604	
5393049	Santa Clarita	US	United States	NAN	34.39166	-118.54259	124,479.197	95.319	90.577	
4694482	Grand Prairie	US	United States	NAN	32.74596	-96.99778	84,613.18	64.792	61.568	
4676740	Brownsville	US	United States	NAN	25.90175	-97.49748	44,249.087	33.883	32.198	
4431410	Jackson	US	United States	NAN	32.29876	-90.18481	586,773.579	449.316	426.964	
4276873	Overland Park	US	United States	NAN	38.98223	-94.67079	1,270,672.013	973.005	924.6	
5115985	East New York	US	United States	NAN	40.66677	-73.88236	653,515.787	500.424	475.528	
5351515	Garden Grove	US	United States	NAN	33.77391	-117.94145	63,275.597	48.453	46.042	
5393287	Santa Rosa	US	United States	NAN	38.44047	-122.71443	514,313.458	393.831	374.238	
4612862	Chattanooga	US	United States	NAN	35.04563	-85.30968	152,769.924	116.982	111.162	
5357527	Hollywood	US	United States	NAN	34.09834	-118.32674	437,589.804	335.08	318.411	
4155966	Fort Lauderdale	US	United States	NAN	26.12231	-80.14338	618,510.993	473.619	450.057	
5385955	Rancho Cucamonga	US	United States	NAN	34.1064	-117.59311	30,502.185	23.357	22.195	
4169171	Port Saint Lucie	US	United States	NAN	27.29393	-80.35033	125,056.966	95.761	90.997	
5379439	Ontario	US	United States	NAN	34.06334	-117.65089	282,309.576	216.176	205.422	
5814616	Vancouver	US	United States	NAN	45.63873	-122.66149	239,136.333	183.116	174.007	
4409896	Springfield	US	United States	NAN	37.21533	-93.29824	427,189.973	327.117	310.843	
5317071	Tempe Junction	US	United States	NAN	33.41421	-111.94348	150,100.236	114.938	109.22	
5364940	Lancaster	US	United States	NAN	34.69804	-118.13674	18,847.202	14.432	13.714	
5725846	Eugene	US	United States	NAN	44.05207	-123.08675	760,163.857	582.089	553.13	
4168139	Pembroke Pines	US	United States	NAN	26.00315	-80.22394	90,550.248	69.338	65.889	
5750162	Salem	US	United States	NAN	44.9429	-123.0351	191,998.404	147.021	139.707	
4149962	Cape Coral	US	United States	NAN	26.56285	-81.94953	285,377.725	218.525	207.654	
5308480	Peoria	US	United States	NAN	33.5806	-112.23738	22,313.813	17.087	16.237	
4619947	East Chattanooga	US	United States	NAN	35.06535	-85.24912	120,414.896	92.207	87.619	
5231851	Sioux Falls	US	United States	NAN	43.54997	-96.70033	452,651.627	346.614	329.37	
4951788	Springfield	US	United States	NAN	42.10148	-72.58981	913,631.088	699.605	664.8	
5346111	Elk Grove	US	United States	NAN	38.4088	-121.37162	157,093.225	120.293	114.308	
4907959	Rockford	US	United States	NAN	42.27113	-89.094	55,465.763	42.472	40.359	
5380698	Palmdale	US	United States	NAN	34.57943	-118.11646	3,187.688	2.441	2.32	
5339631	Corona	US	United States	NAN	33.87529	-117.56644	22,313.813	17.087	16.237	
5391295	Salinas	US	United States	NAN	36.67774	-121.6555	119,797.281	91.734	87.17	
5384170	Pomona	US	United States	NAN	34.05529	-117.75228	298,128.475	228.289	216.932	
4717782	Pasadena	US	United States	NAN	29.69106	-95.2091	179,944.96	137.791	130.936	
4756955	East Hampton	US	United States	NAN	37.03737	-76.33161	15,141.516	11.594	11.018	
4898015	Joliet	US	United States	NAN	41.52503	-88.08173	220,069.977	168.517	160.133	
5102466	Paterson	US	United States	NAN	40.91677	-74.17181	2,251,583.231	1,724.129	1,638.356	
5586437	Boise	US	United States	NAN	43.6135	-116.20345	499,849.325	382.755	363.713	
4273837	Kansas City	US	United States	NAN	39.11417	-94.62746	640,765.037	490.66	466.25	
5403022	Torrance	US	United States	NAN	33.83585	-118.34063	283,684.266	217.229	206.422	
5140405	Syracuse	US	United States	NAN	43.04812	-76.14742	566,312.61	433.649	412.075	
5282804	Bridgeport	US	United States	NAN	41.16704	-73.20483	1,343,769.672	1,028.979	977.789	
5355933	Hayward	US	United States	NAN	37.66882	-122.0808	235,669.723	180.462	171.484	
5577147	Fort Collins	US	United States	NAN	40.58526	-105.08442	541,428.725	414.594	393.969	
5346827	Escondido	US	United States	NAN	33.11921	-117.08642	235,530.261	180.355	171.383	
5427946	Lakewood	US	United States	NAN	39.70471	-105.08137	181,379.42	138.89	131.98	
4333190	Metairie Terrace	US	United States	NAN	29.97854	-90.16396	238,060.488	182.293	173.224	
4903279	Naperville	US	United States	NAN	41.78586	-88.14729	2,390,128.099	1,830.219	1,739.168	
4509884	Dayton	US	United States	NAN	39.75895	-84.19161	677,881.673	519.082	493.258	
4158928	Hollywood	US	United States	NAN	26.0112	-80.14949	64,431.134	49.338	46.883	
5400075	Sunnyvale	US	United States	NAN	37.36883	-122.03635	1,105,669.338	846.656	804.536	
4744091	Alexandria	US	United States	NAN	38.80484	-77.04692	378,617.585	289.923	275.5	
4710826	Mesquite	US	United States	NAN	32.7668	-96.59916	127,786.423	97.851	92.983	
4333177	Metairie	US	United States	NAN	29.98409	-90.15285	16,077.899	12.312	11.699	
4762894	Hampton	US	United States	NAN	37.02987	-76.34522	16,376.745	12.54	11.916	
5381396	Pasadena	US	United States	NAN	34.14778	-118.14452	310,281.534	237.595	225.775	
5379513	Orange	US	United States	NAN	33.78779	-117.85311	438,087.88	335.462	318.773	
4221552	Savannah	US	United States	NAN	32.08354	-81.09983	47,775.467	36.584	34.764	
4459467	Cary	US	United States	NAN	35.79154	-78.78112	261,549.761	200.279	190.316	
5351247	Fullerton	US	United States	NAN	33.87029	-117.92534	125,535.119	96.127	91.345	
5014051	Warren	US	United States	NAN	42.47754	-83.0277	671,506.298	514.2	488.619	
4613868	Clarksville	US	United States	NAN	36.52977	-87.35945	216,045.521	165.435	157.205	
4710178	McKinney	US	United States	NAN	33.19762	-96.61527	190,304.945	145.724	138.475	
4709796	McAllen	US	United States	NAN	26.20341	-98.23001	288,485.72	220.905	209.916	
4839366	New Haven	US	United States	NAN	41.30815	-72.92816	183,013.109	140.141	133.169	
5011148	Sterling Heights	US	United States	NAN	42.58031	-83.0302	1,492,694.448	1,143.017	1,086.154	
5784607	West Valley City	US	United States	NAN	40.69161	-112.00105	60,625.832	46.424	44.114	
4575352	Columbia	US	United States	NAN	34.00071	-81.03481	345,505.481	264.568	251.406	
4703223	Killeen	US	United States	NAN	31.11712	-97.7278	56,382.223	43.174	41.026	
4280539	Topeka	US	United States	NAN	39.04833	-95.67804	221,145.821	169.34	160.916	
5402405	Thousand Oaks	US	United States	NAN	34.17056	-118.83759	149,303.314	114.328	108.64	
5344994	East Los Angeles	US	United States	NAN	34.0239	-118.17202	33,092.181	25.34	24.079	
4850751	Cedar Rapids	US	United States	NAN	42.00833	-91.64407	959,533.788	734.754	698.201	
4276614	Olathe	US	United States	NAN	38.8814	-94.81913	250,173.701	191.568	182.038	
5097598	Elizabeth	US	United States	NAN	40.66399	-74.2107	856,093.328	655.546	622.933	
4739526	Waco	US	United States	NAN	31.54933	-97.14667	520,947.832	398.911	379.066	
4835797	Hartford	US	United States	NAN	41.76371	-72.68509	420,077.445	321.67	305.668	
5406567	Visalia	US	United States	NAN	36.33023	-119.29206	48,432.927	37.087	35.242	
4156404	Gainesville	US	United States	NAN	29.65163	-82.32483	363,874.53	278.634	264.772	
5396003	Simi Valley	US	United States	NAN	34.26945	-118.78148	77,799.498	59.574	56.611	
4843564	Stamford	US	United States	NAN	41.05343	-73.53873	676,586.675	518.09	492.316	
5786882	Bellevue	US	United States	NAN	47.61038	-122.20068	940,387.74	720.093	684.27	
5339111	Concord	US	United States	NAN	37.97798	-122.03107	184,606.953	141.361	134.329	
4164601	Miramar	US	United States	NAN	25.98731	-80.23227	3,924.84	3.005	2.856	
4839745	North Stamford	US	United States	NAN	41.13815	-73.54346	217,758.903	166.747	158.451	
4151909	Coral Springs	US	United States	NAN	26.27119	-80.2706	721,971.376	552.843	525.34	
4330145	Lafayette	US	United States	NAN	30.22409	-92.01984	251,508.545	192.59	183.009	
4574324	Charleston	US	United States	NAN	32.77657	-79.93092	172,374.202	131.994	125.427	
4679195	Carrollton	US	United States	NAN	32.95373	-96.89028	3,696,542.058	2,830.593	2,689.775	
5388881	Roseville	US	United States	NAN	38.75212	-121.28801	716,512.461	548.663	521.368	
5441492	Thornton	US	United States	NAN	39.86804	-104.97192	182,315.803	139.607	132.661	
4672989	Beaumont	US	United States	NAN	30.08605	-94.10185	216,842.443	166.045	157.785	
5178127	Allentown	US	United States	NAN	40.60843	-75.49018	2,376,799.581	1,820.013	1,729.469	
5316428	Surprise	US	United States	NAN	33.63059	-112.33322	136,751.794	104.716	99.507	
4257227	Evansville	US	United States	NAN	37.97476	-87.55585	495,506.101	379.429	360.553	
4669635	Abilene	US	United States	NAN	32.44874	-99.73314	231,545.652	177.304	168.483	
4692559	Frisco	US	United States	NAN	33.15067	-96.82361	51,760.076	39.635	37.663	
4180386	Athens	US	United States	NAN	33.96095	-83.37794	357,738.231	273.935	260.307	
5393015	Santa Clara	US	United States	NAN	37.35411	-121.95524	1,094,333.124	837.976	796.287	
4250542	Springfield	US	United States	NAN	39.80172	-89.64371	310,938.994	238.099	226.254	
5405380	Vallejo	US	United States	NAN	38.10409	-122.25664	144,123.322	110.361	104.871	
5406222	Victorville	US	United States	NAN	34.53611	-117.29116	30,283.031	23.189	22.035	
4905687	Peoria	US	United States	NAN	40.69365	-89.58899	226,226.198	173.231	164.613	
4998830	Lansing	US	United States	NAN	42.73254	-84.55553	6,284,067.707	4,811.967	4,572.578	
4984247	Ann Arbor	US	United States	NAN	42.27756	-83.74088	941,622.969	721.039	685.168	
5345743	El Monte	US	United States	NAN	34.06862	-118.02757	146,314.857	112.039	106.465	
4685907	Denton	US	United States	NAN	33.21484	-97.13307	66,024.978	50.558	48.043	
4903976	North Peoria	US	United States	NAN	40.71754	-89.58426	308,488.459	236.222	224.47	
5327684	Berkeley	US	United States	NAN	37.87159	-122.27275	38,849.942	29.749	28.269	
5780026	Provo	US	United States	NAN	40.23384	-111.65853	718,385.228	550.097	522.73	
5343858	Downey	US	United States	NAN	33.94001	-118.13257	30,741.261	23.54	22.369	
5526337	Midland	US	United States	NAN	31.99735	-102.07791	126,929.732	97.195	92.36	
4543762	Norman	US	United States	NAN	35.22257	-97.43948	150,199.851	115.014	109.292	
4385018	East Independence	US	United States	NAN	39.09556	-94.35523	158,149.147	121.101	115.077	
4845193	Waterbury	US	United States	NAN	41.55815	-73.0515	144,143.245	110.376	104.885	
5339840	Costa Mesa	US	United States	NAN	33.64113	-117.91867	175,880.659	134.679	127.979	
5359488	Inglewood	US	United States	NAN	33.96168	-118.35313	1,174,105.004	899.06	854.333	
5089178	Manchester	US	United States	NAN	42.99564	-71.45479	1,393,776.52	1,067.272	1,014.176	
4644312	Murfreesboro	US	United States	NAN	35.84562	-86.39027	195,584.552	149.767	142.316	
4381982	Columbia	US	United States	NAN	38.95171	-92.33407	303,149.083	232.134	220.585	
5503766	Enterprise	US	United States	NAN	36.02525	-115.24194	53,493.381	40.962	38.924	
4890864	Elgin	US	United States	NAN	42.03725	-88.28119	936,144.131	716.844	681.182	
4151316	Clearwater	US	United States	NAN	27.96585	-82.8001	301,515.393	230.883	219.397	
4164167	Miami Gardens	US	United States	NAN	25.94204	-80.2456	77,221.73	59.132	56.19	
5043473	Rochester	US	United States	NAN	44.02163	-92.4699	473,610.673	362.663	344.621	
5435464	Pueblo	US	United States	NAN	38.25445	-104.60914	112,346.062	86.028	81.748	
4942618	Lowell	US	United States	NAN	42.63342	-71.31617	784,450.052	600.685	570.802	
4499379	Wilmington	US	United States	NAN	34.22573	-77.94471	33,769.565	25.859	24.572	
5412199	Arvada	US	United States	NAN	39.80276	-105.08748	375,310.359	287.39	273.093	
5443910	Westminster	US	United States	NAN	39.83665	-105.0372	184,547.184	141.315	134.285	
5407933	West Covina	US	United States	NAN	34.06862	-117.93895	212,120.681	162.429	154.349	
5729485	Gresham	US	United States	NAN	45.49818	-122.43148	112,385.908	86.058	81.777	
5059163	Fargo	US	United States	NAN	46.87719	-96.7898	420,157.138	321.731	305.726	
5377995	Norwalk	US	United States	NAN	33.90224	-118.08173	274,420.049	210.135	199.681	
5334223	Carlsbad	US	United States	NAN	33.15809	-117.35059	87,840.714	67.263	63.917	
5347335	Fairfield	US	United States	NAN	38.24936	-122.03997	7,311.758	5.599	5.32	
4931972	Cambridge	US	United States	NAN	42.3751	-71.10561	1,654,230.513	1,266.712	1,203.695	
5404794	Universal City	US	United States	NAN	34.1389	-118.35341	215,029.446	164.657	156.465	
4741752	Wichita Falls	US	United States	NAN	33.91371	-98.49339	126,172.656	96.616	91.809	
4471025	High Point	US	United States	NAN	35.95569	-80.00532	88,000.098	67.385	64.033	
5640350	Billings	US	United States	NAN	45.78329	-108.50069	404,816.391	309.984	294.563	
5254962	Green Bay	US	United States	NAN	44.51916	-88.01983	733,626.359	561.768	533.82	
5784549	West Jordan	US	United States	NAN	40.60967	-111.9391	383,080.347	293.34	278.747	
5387428	Richmond	US	United States	NAN	37.93576	-122.34775	42,097.398	32.236	30.632	
4148757	Brandon	US	United States	NAN	27.9378	-82.28592	159,065.607	121.803	115.743	
5375911	Murrieta	US	United States	NAN	33.55391	-117.21392	35,562.639	27.232	25.877	
5331835	Burbank	US	United States	NAN	34.18084	-118.30897	317,394.061	243.042	230.951	
4167499	Palm Bay	US	United States	NAN	28.03446	-80.58866	93,080.475	71.276	67.73	
5793933	Everett	US	United States	NAN	47.97898	-122.20208	279,799.272	214.254	203.595	
5097529	Edison	US	United States	NAN	40.51872	-74.4121	1,649,907.212	1,263.401	1,200.549	
4992982	Flint	US	United States	NAN	43.01253	-83.68746	282,568.575	216.374	205.61	
5324200	Antioch	US	United States	NAN	38.00492	-121.80579	99.615	0.076	0.072	
5188843	Erie	US	United States	NAN	42.12922	-80.08506	197,935.472	151.567	144.027	
4926563	South Bend	US	United States	NAN	41.68338	-86.25001	687,922.889	526.771	500.565	
5341430	Daly City	US	United States	NAN	37.70577	-122.46192	257,485.459	197.167	187.358	
5416541	Centennial	US	United States	NAN	39.57916	-104.87692	1,364,967.794	1,045.212	993.214	
5401395	Temecula	US	United States	NAN	33.49364	-117.14836	258,740.611	198.128	188.272	

%N/A	N/A	IN	India	ASS	N/A	N/A	121,000,000	18,901.309	271.535	
1275339	Mumbai	IN	India	ASS	19.07283	72.88261	35,656,211.166	5,569.827	80.016	
1277333	Bangalore	IN	India	ASS	12.97194	77.59369	9,107,579.279	1,422.687	20.438	
1275004	Calcutta	IN	India	ASS	22.56972	88.36972	5,422,222.35	847.001	12.168	
1264527	Chennai	IN	India	ASS	13.08784	80.27847	7,191,110.139	1,123.317	16.137	
1279233	Ahmadabad	IN	India	ASS	23.03333	72.61667	1,646,367.423	257.178	3.695	
1269843	Hyderabad	IN	India	ASS	17.37528	78.47444	8,209,560.685	1,282.409	18.423	
1255364	Surat	IN	India	ASS	21.16667	72.83333	1,005,223.915	157.025	2.256	
1267995	Kanpur	IN	India	ASS	26.46667	80.35	112,078.29	17.508	0.252	
1269515	Jaipur	IN	India	ASS	26.91962	75.78781	4,095,382.473	639.736	9.19	
1275841	Bhopal	IN	India	ASS	23.26667	77.4	198,399.457	30.992	0.445	
1258847	Rajkot	IN	India	ASS	22.3	70.78333	56,387.214	8.808	0.127	
6943660	Shivaji Nagar	IN	India	ASS	18.53017	73.85263	3,917,867.17	612.007	8.792	
1273865	Coimbatore	IN	India	ASS	10.9925	76.96139	1,013,577.576	158.33	2.275	
1274746	Chandigarh	IN	India	ASS	30.7343	76.7933	1,137,490.22	177.686	2.553	
1271476	Guwahati	IN	India	ASS	26.18617	91.75095	2,088.415	0.326	0.005	
1262321	Mysore	IN	India	ASS	12.29791	76.63925	1,131,224.974	176.708	2.539	
1254163	Thiruvananthapuram	IN	India	ASS	8.50694	76.95694	52,906.522	8.264	0.119	
1254388	Tiruchchirappalli	IN	India	ASS	10.805	78.68556	354,334.469	55.35	0.795	
1266049	Kota	IN	India	ASS	25.18333	75.83333	141,316.104	22.075	0.317	
1275817	Bhubaneshwar	IN	India	ASS	20.23333	85.83333	885,488.102	138.321	1.987	
1273874	Cochin	IN	India	ASS	9.93988	76.26022	1,673,516.822	261.419	3.756	
1253894	Ulhasnagar	IN	India	ASS	19.21667	73.15	3,123,573.204	487.931	7.01	
1279105	Akola	IN	India	ASS	20.73333	77.0	4,943,975.238	772.294	11.095	
1263780	Mangalore	IN	India	ASS	12.91723	74.85603	714,934.183	111.679	1.604	
1261481	New Delhi	IN	India	ASS	28.63576	77.22445	16,708,714.963	2,610.054	37.496	
7279746	Noida	IN	India	ASS	28.58	77.33	6,129,499.01	957.484	13.755	
1275716	Bihar Sharif	IN	India	ASS	25.18333	85.51667	1,021,931.238	159.635	2.293	
1259425	Puducherry	IN	India	ASS	11.93	79.83	970,416.993	151.588	2.178	
1254649	Thanjavur	IN	India	ASS	10.8	79.15	2,088.415	0.326	0.005	
1270351	Haridwar	IN	India	ASS	29.96667	78.16667	32,022.368	5.002	0.072	
1253286	Vellore	IN	India	ASS	12.9184	79.13255	74,486.814	11.636	0.167	
7284820	Jaigaon	IN	India	ASS	26.84766	89.37558	474,070.281	74.054	1.064	
1256287	Silchar	IN	India	ASS	24.81667	92.8	4,176.831	0.652	0.009	
7279599	Airoli	IN	India	ASS	19.15096	72.99625	3,789,777.696	591.998	8.505	

%N/A	N/A	JP	Japan	ASP	N/A	N/A	101,228,736	5,438.441	248.75	
1850147	Tokyo	JP	Japan	ASP	35.6895	139.69171	46,306,515.548	2,487.784	113.789	
1848354	Yokohama-shi	JP	Japan	ASP	35.44778	139.6425	1,364,520.152	73.308	3.353	
1853909	Osaka-shi	JP	Japan	ASP	34.69374	135.50218	12,813,568.074	688.4	31.487	
1856057	Nagoya-shi	JP	Japan	ASP	35.18147	136.9064	2,213,249.999	118.905	5.439	
2128295	Sapporo-shi	JP	Japan	ASP	43.06417	141.34694	1,307,764.508	70.259	3.214	
1859171	Kobe-shi	JP	Japan	ASP	34.6913	135.183	970,018.897	52.114	2.384	
1857910	Kyoto	JP	Japan	ASP	35.02107	135.75385	782,765.627	42.054	1.923	
1863967	Fukuoka-shi	JP	Japan	ASP	33.60639	130.41806	2,527,919.14	135.811	6.212	
1859642	Kawasaki	JP	Japan	ASP	35.52056	139.71722	331,655.478	17.818	0.815	
1862415	Hiroshima-shi	JP	Japan	ASP	34.39627	132.45937	730,485.864	39.245	1.795	
1848254	Yono	JP	Japan	ASP	35.88333	139.63333	526,062.82	28.262	1.293	
2111149	Sendai-shi	JP	Japan	ASP	38.26889	140.87193	652,414.752	35.051	1.603	
1859307	Kitakyushu	JP	Japan	ASP	33.83333	130.83333	272,845.33	14.658	0.67	
2113015	Chiba-shi	JP	Japan	ASP	35.60472	140.12334	570,711.572	30.661	1.402	
1853195	Sakai	JP	Japan	ASP	34.58333	135.46667	13,537.707	0.727	0.033	
1851717	Shizuoka-shi	JP	Japan	ASP	34.97694	138.38306	583,075.277	31.325	1.433	
1855503	Nerima	JP	Japan	ASP	35.73333	139.65	77,447.424	4.161	0.19	
1858421	Kumamoto-shi	JP	Japan	ASP	32.78972	130.74167	326,996.158	17.568	0.804	
1853295	Sagamihara	JP	Japan	ASP	35.55306	139.35445	21,168.718	1.137	0.052	
1854383	Okayama-shi	JP	Japan	ASP	34.66167	133.935	613,746.071	32.973	1.508	
1863289	Hamamatsu	JP	Japan	ASP	34.7	137.73334	139,963.014	7.519	0.344	
1863440	Hachioji	JP	Japan	ASP	35.65583	139.32388	302,782.373	16.267	0.744	
1863905	Funabashi	JP	Japan	ASP	35.69306	139.98334	58,186.459	3.126	0.143	
1860827	Kagoshima-shi	JP	Japan	ASP	31.56018	130.55814	352,494.008	18.937	0.866	
1855431	Niigata-shi	JP	Japan	ASP	37.90222	139.0236	382,247.613	20.536	0.939	
1862627	Himeji	JP	Japan	ASP	34.81667	134.7	102,651.773	5.515	0.252	
1857553	Matsudo	JP	Japan	ASP	35.78333	139.9	59,103.648	3.175	0.145	
1855207	Nishinomiya	JP	Japan	ASP	34.71667	135.33333	178,338.194	9.581	0.438	
1859730	Kawaguchi	JP	Japan	ASP	35.805	139.72057	58,700.085	3.154	0.144	
1860243	Kanazawa-shi	JP	Japan	ASP	36.59444	136.62556	701,062.447	37.664	1.723	
1861968	Ichikawa	JP	Japan	ASP	35.71972	139.92471	93,626.635	5.03	0.23	
1849053	Utsunomiya-shi	JP	Japan	ASP	36.56583	139.8836	79,795.427	4.287	0.196	
1854487	Oita-shi	JP	Japan	ASP	33.23806	131.6125	620,863.456	33.355	1.526	
1926099	Matsuyama-shi	JP	Japan	ASP	33.83916	132.76575	80,309.053	4.315	0.197	
1865387	Amagasaki	JP	Japan	ASP	34.71667	135.41667	78,291.238	4.206	0.192	
1858311	Kurashiki	JP	Japan	ASP	34.58333	133.76666	107,494.53	5.775	0.264	
1848313	Yokosuka	JP	Japan	ASP	35.28361	139.66722	55,324.83	2.972	0.136	
1856177	Nagasaki-shi	JP	Japan	ASP	32.74472	129.87361	264,920.819	14.233	0.651	
1862540	Hirakata	JP	Japan	ASP	34.81352	135.64914	66,184.345	3.556	0.163	
1857871	Machida	JP	Japan	ASP	35.54028	139.45084	26,708.538	1.435	0.066	
1863641	Gifu-shi	JP	Japan	ASP	35.42291	136.76039	284,071.722	15.262	0.698	
1864092	Fujisawa	JP	Japan	ASP	35.34194	139.47	29,533.48	1.587	0.073	
1849837	Toyonaka	JP	Japan	ASP	34.78244	135.46931	10,676.078	0.574	0.026	
1863917	Fukuyama	JP	Japan	ASP	34.48333	133.36667	207,321.361	11.138	0.509	
1849846	Toyohashi	JP	Japan	ASP	34.76667	137.38333	80,492.491	4.324	0.198	
1852383	Shimminatocho	JP	Japan	ASP	34.18333	135.2	146.75	0.008	0	
1855612	Nara-shi	JP	Japan	ASP	34.68505	135.80486	66,037.595	3.548	0.162	
1849814	Toyota	JP	Japan	ASP	35.08333	137.15	158,673.666	8.525	0.39	
1856215	Nagano-shi	JP	Japan	ASP	36.65139	138.1811	148,584.589	7.983	0.365	
1852140	Shinagawa-ku	JP	Japan	ASP	35.60902	139.73016	1,466,951.8	78.811	3.605	
2130629	Asahikawa	JP	Japan	ASP	43.76778	142.37029	44,538.689	2.393	0.109	
1850910	Takatsuki	JP	Japan	ASP	34.84833	135.61678	94,433.761	5.073	0.232	
1854376	Okazaki	JP	Japan	ASP	34.95	137.16667	31,184.42	1.675	0.077	
1926004	Wakayama-shi	JP	Japan	ASP	34.22611	135.1675	97,405.453	5.233	0.239	
2112141	Koriyama	JP	Japan	ASP	37.4	140.38333	128,846.686	6.922	0.317	
1859924	Kashiwa	JP	Japan	ASP	35.85444	139.96889	30,854.232	1.658	0.076	
1859146	Kochi-shi	JP	Japan	ASP	33.55972	133.53111	307,441.693	16.517	0.755	
1851100	Takamatsu-shi	JP	Japan	ASP	34.34028	134.04333	526,723.196	28.298	1.294	
2113719	Akita-shi	JP	Japan	ASP	39.71806	140.10333	99,459.956	5.343	0.244	
1849876	Toyama-shi	JP	Japan	ASP	36.69528	137.2114	795,753.021	42.751	1.955	
2113126	Akita	JP	Japan	ASP	39.71667	140.11667	2,861.629	0.154	0.007	
1858729	Koshigaya	JP	Japan	ASP	35.88333	139.78333	52,573.263	2.824	0.129	
1856717	Miyazaki-shi	JP	Japan	ASP	31.91111	131.42389	235,277.276	12.64	0.578	
1856035	Naha-shi	JP	Japan	ASP	26.2125	127.68111	618,295.328	33.217	1.519	
1859891	Kasugai	JP	Japan	ASP	35.24762	136.97229	26,928.664	1.447	0.066	
2130658	Aomori-shi	JP	Japan	ASP	40.82444	140.74	303,772.937	16.32	0.746	
1853574	Otsu-shi	JP	Japan	ASP	35.00444	135.86833	332,609.354	17.869	0.817	
1847966	Akashi	JP	Japan	ASP	34.63333	134.98334	46,042.879	2.474	0.113	
1848373	Yokkaichi	JP	Japan	ASP	34.96667	136.61667	158,453.541	8.513	0.389	
2111834	Morioka-shi	JP	Japan	ASP	39.70361	141.1525	355,795.887	19.115	0.874	
2112923	Fukushima-shi	JP	Japan	ASP	37.75	140.46777	1,174.002	0.063	0.003	
2112664	Ichihara	JP	Japan	ASP	35.51667	140.08333	24,030.347	1.291	0.059	
1857843	Maebashi-shi	JP	Japan	ASP	36.39111	139.06084	297,059.115	15.959	0.73	
2130188	Hakodate	JP	Japan	ASP	41.77583	140.73666	65,340.532	3.51	0.161	
1862033	Ibaraki	JP	Japan	ASP	34.81641	135.56828	23,846.909	1.281	0.059	
1848522	Yao	JP	Japan	ASP	34.61667	135.6	54,884.579	2.949	0.135	
1860704	Kakogawa	JP	Japan	ASP	34.76667	134.85	298,233.117	16.022	0.733	
1850158	Tokushima-shi	JP	Japan	ASP	34.06583	134.55943	366,948.903	19.714	0.902	
1862462	Hiratsuka	JP	Japan	ASP	35.32306	139.34222	61,965.277	3.329	0.152	
2110556	Yamagata-shi	JP	Japan	ASP	38.24056	140.36333	534,794.458	28.731	1.314	
1863985	Fukui-shi	JP	Japan	ASP	36.06443	136.22256	141,026.953	7.577	0.347	
2111901	Mito-shi	JP	Japan	ASP	36.34139	140.44667	227,719.64	12.234	0.56	
1852225	Shimonoseki	JP	Japan	ASP	33.95	130.95	62,405.527	3.353	0.153	
1851002	Takasaki	JP	Japan	ASP	36.33333	139.01666	223,940.822	12.031	0.55	
1864154	Fuchu	JP	Japan	ASP	35.66667	139.48334	117,106.669	6.291	0.288	
1864134	Fuji	JP	Japan	ASP	35.16667	138.68333	46,116.254	2.478	0.113	
2130203	Hachinohe	JP	Japan	ASP	40.5	141.5	8,254.699	0.443	0.02	
1858088	Kurume	JP	Japan	ASP	33.31667	130.51666	229,077.08	12.307	0.563	
1852899	Sasebo	JP	Japan	ASP	33.15917	129.72278	39,072.244	2.099	0.096	
1851604	Soka	JP	Japan	ASP	35.82028	139.80444	105,550.089	5.671	0.259	
1847963	Atsugi	JP	Japan	ASP	35.43889	139.35973	214,695.559	11.534	0.528	
1851012	Takarazuka	JP	Japan	ASP	34.79936	135.35696	30,157.168	1.62	0.074	
1865714	Ageo	JP	Japan	ASP	35.96972	139.58861	78,437.988	4.214	0.193	
1864518	Chofu	JP	Japan	ASP	35.65556	139.55222	128,186.31	6.887	0.315	
1857519	Matsumoto	JP	Japan	ASP	36.23333	137.96667	404,920.521	21.754	0.995	
1859884	Kasukabe	JP	Japan	ASP	35.97639	139.75362	183.438	0.01	0	
1859383	Kishiwada	JP	Japan	ASP	34.46667	135.36667	171,147.434	9.195	0.421	
1854902	Numazu	JP	Japan	ASP	35.1	138.86667	24,654.035	1.325	0.061	
1854747	Odawara	JP	Japan	ASP	35.25556	139.15971	2,127.878	0.114	0.005	
1858296	Kure	JP	Japan	ASP	34.23333	132.56667	105,366.652	5.661	0.259	
1856199	Nagaoka	JP	Japan	ASP	37.45	138.85	212,237.493	11.402	0.522	
1861310	Itami	JP	Japan	ASP	34.78427	135.40126	99,570.018	5.349	0.245	
1849372	Uji	JP	Japan	ASP	34.88333	135.8	7,814.449	0.42	0.019	
1851348	Suzuka	JP	Japan	ASP	34.88333	136.58333	45,822.753	2.462	0.113	
1859100	Kofu-shi	JP	Japan	ASP	35.66389	138.56833	558,678.054	30.015	1.373	
1859116	Kodaira	JP	Japan	ASP	35.72639	139.48389	52,683.326	2.83	0.129	
2112708	Hitachi	JP	Japan	ASP	36.6	140.65	112,960.975	6.069	0.278	
2129376	Kushiro	JP	Japan	ASP	42.975	144.37473	403.563	0.022	0.001	
1856942	Mitaka-shi	JP	Japan	ASP	35.68351	139.55963	164,030.049	8.812	0.403	
2111220	Sakura	JP	Japan	ASP	35.71667	140.23334	713,682.965	38.342	1.754	
1865294	Anjo	JP	Japan	ASP	34.95828	137.08054	51,435.949	2.763	0.126	
2110683	Tsukuba	JP	Japan	ASP	36.2	140.1	654,285.817	35.151	1.608	
2130057	Hirosaki	JP	Japan	ASP	40.59306	140.4725	137,651.698	7.395	0.338	
2127733	Tomakomai	JP	Japan	ASP	42.63694	141.60333	57,929.646	3.112	0.142	
1863431	Hadano	JP	Japan	ASP	35.37111	139.22362	183.438	0.01	0	
1849498	Ube	JP	Japan	ASP	33.94306	131.25111	50,995.698	2.74	0.125	
1851307	Tachikawa	JP	Japan	ASP	35.69278	139.41806	242,101.161	13.007	0.595	
1862599	Hino	JP	Japan	ASP	35.67306	139.40028	272,955.393	14.664	0.671	
1851032	Takaoka	JP	Japan	ASP	36.75	137.01666	501,812.348	26.96	1.233	
1860672	Kamakura	JP	Japan	ASP	35.30889	139.55028	366.876	0.02	0.001	
1853303	Saga-shi	JP	Japan	ASP	33.24932	130.2988	136,881.26	7.354	0.336	
1907146	Sayama	JP	Japan	ASP	35.85295	139.41212	252,043.488	13.541	0.619	
1859675	Kawanishi	JP	Japan	ASP	34.81667	135.41667	11,042.953	0.593	0.027	
1853483	Oyama	JP	Japan	ASP	36.3	139.8	211,723.867	11.375	0.52	
1865005	Ashikaga	JP	Japan	ASP	36.33333	139.45	162,489.171	8.73	0.399	
1857550	Matsue-shi	JP	Japan	ASP	35.47222	133.05057	279,669.215	15.025	0.687	
6822096	Hitachi-Naka	JP	Japan	ASP	36.39659	140.53479	3,118.442	0.168	0.008	
2111687	Narashino	JP	Japan	ASP	35.68333	140.03333	118,500.796	6.366	0.291	
1856184	Nagareyama	JP	Japan	ASP	35.8563	139.90266	83,244.057	4.472	0.205	
1858428	Kumagaya	JP	Japan	ASP	36.13333	139.38333	108,411.719	5.824	0.266	
1849892	Tottori	JP	Japan	ASP	35.5	134.23334	95,094.137	5.109	0.234	
1858926	Komaki	JP	Japan	ASP	35.28333	136.91667	22,526.157	1.21	0.055	
1854162	Ome	JP	Japan	ASP	35.78389	139.24306	142,898.018	7.677	0.351	
1848689	Yamaguchi-shi	JP	Japan	ASP	34.18583	131.47139	655,423.131	35.212	1.611	
2128574	Otaru	JP	Japan	ASP	43.18944	141.00221	114,648.603	6.159	0.282	
1849186	Urayasu	JP	Japan	ASP	35.67056	139.88861	1,457,596.474	78.308	3.582	
1848277	Yonago	JP	Japan	ASP	35.43333	133.33333	53,013.514	2.848	0.13	
1860034	Kariya	JP	Japan	ASP	34.98333	136.98334	237,625.28	12.766	0.584	
1856367	Musashino	JP	Japan	ASP	35.70611	139.55943	80,675.929	4.334	0.198	
1848004	Zama	JP	Japan	ASP	35.48889	139.38861	100,010.269	5.373	0.246	
1852663	Seto	JP	Japan	ASP	35.23333	137.1	23,039.783	1.238	0.057	
2130404	Ebetsu	JP	Japan	ASP	43.10806	141.55057	68,825.849	3.698	0.169	
1850034	Tondabayashi	JP	Japan	ASP	34.5	135.6	7,080.698	0.38	0.017	
1853008	Sanda	JP	Japan	ASP	34.88333	135.23334	97,001.89	5.211	0.238	
1860735	Kakamigahara	JP	Japan	ASP	35.41667	136.86667	16,252.586	0.873	0.04	
1854083	Omuta	JP	Japan	ASP	33.03333	130.45	103,899.15	5.582	0.255	
2113164	Abiko	JP	Japan	ASP	35.86667	140.01666	39,439.119	2.119	0.097	
1856775	Miyakonojo	JP	Japan	ASP	31.73333	131.06667	130,534.313	7.013	0.321	
1857568	Matsubara	JP	Japan	ASP	34.56667	135.55	23,333.284	1.254	0.057	
1861436	Isesaki	JP	Japan	ASP	36.31667	139.2	58,443.272	3.14	0.144	
1864416	Daito	JP	Japan	ASP	34.7	135.61667	294,821.174	15.839	0.724	
1857046	Mino	JP	Japan	ASP	34.82691	135.47057	27,185.477	1.461	0.067	
1858067	Kusatsu	JP	Japan	ASP	35.01667	135.96667	109,879.221	5.903	0.27	
1849429	Ueda	JP	Japan	ASP	36.4	138.26666	10,272.515	0.552	0.025	
1894616	Okinawa	JP	Japan	ASP	26.33583	127.80139	946,171.987	50.832	2.325	
1864750	Beppu	JP	Japan	ASP	33.27361	131.49194	11,960.142	0.643	0.029	
1857496	Matsuzaka	JP	Japan	ASP	34.56667	136.53333	235,240.589	12.638	0.578	
1859951	Kashihara-shi	JP	Japan	ASP	34.50896	135.7929	168,175.742	9.035	0.413	
1855425	Niihama	JP	Japan	ASP	33.95933	133.31673	80,198.99	4.309	0.197	
1859393	Kisarazu	JP	Japan	ASP	35.37472	139.9225	86,032.311	4.622	0.211	
1855095	Nobeoka	JP	Japan	ASP	32.58333	131.66667	197,525.784	10.612	0.485	
1863209	Handa	JP	Japan	ASP	34.88333	136.93333	16,839.587	0.905	0.041	
1859088	Koganei	JP	Japan	ASP	35.69139	139.50111	39,989.433	2.148	0.098	
1856977	Mishima	JP	Japan	ASP	35.11667	138.91667	59,874.086	3.217	0.147	
2129537	Kitami	JP	Japan	ASP	43.80306	143.89082	2,751.566	0.148	0.007	
1857968	Kuwana	JP	Japan	ASP	35.06667	136.7	45,676.003	2.454	0.112	
1859405	Kiryu	JP	Japan	ASP	36.4	139.33333	32,651.922	1.754	0.08	
1861864	Iida	JP	Japan	ASP	35.51965	137.82074	95,204.2	5.115	0.234	
1864031	Fukaya	JP	Japan	ASP	36.2	139.28333	77,043.861	4.139	0.189	
1861449	Isehara	JP	Japan	ASP	35.39056	139.30779	80,198.99	4.309	0.197	
1855189	Nishio	JP	Japan	ASP	34.86667	137.05	3,558.693	0.191	0.009	
1861602	Inazawa	JP	Japan	ASP	35.25	136.78333	74,659.17	4.011	0.183	
1850152	Tokuyama	JP	Japan	ASP	34.05	131.81667	233,993.212	12.571	0.575	
2111684	Narita	JP	Japan	ASP	35.78333	140.31667	1,458,293.537	78.346	3.583	
1853140	Sakata	JP	Japan	ASP	38.91667	139.855	84,821.622	4.557	0.208	
1858836	Konan	JP	Japan	ASP	35.33165	136.87042	149,024.84	8.006	0.366	
1864572	Chikushino-shi	JP	Japan	ASP	33.49631	130.5156	128,920.061	6.926	0.317	

%N/A	N/A	BR	Brazil	SAE	N/A	N/A	81,798,000	10,243.148	6,405.482	
3448439	Sao Paulo	BR	Brazil	SAE	-23.5475	-46.63611	26,656,202.858	3,338.021	2,087.408	
3451190	Rio de Janeiro	BR	Brazil	SAE	-22.90278	-43.2075	9,791,776.608	1,226.174	766.78	
3450554	Salvador	BR	Brazil	SAE	-12.97111	-38.51083	1,182,949.987	148.135	92.635	
3399415	Fortaleza	BR	Brazil	SAE	-3.71722	-38.54306	1,450,032.845	181.58	113.55	
3470127	Belo Horizonte	BR	Brazil	SAE	-19.92083	-43.93778	3,759,344.414	470.764	294.389	
3469058	Brasilia	BR	Brazil	SAE	-15.77972	-47.92972	3,699,512.087	463.271	289.703	
3464975	Curitiba	BR	Brazil	SAE	-25.42778	-49.27306	3,212,203.012	402.248	251.543	
3663517	Manaus	BR	Brazil	SAE	-3.10194	-60.025	665,724.749	83.365	52.132	
3390760	Recife	BR	Brazil	SAE	-8.05389	-34.88111	2,276,692.137	285.099	178.284	
3405870	Belem	BR	Brazil	SAE	-1.45583	-48.50444	280,779.415	35.161	21.987	
3452925	Porto Alegre	BR	Brazil	SAE	-30.03306	-51.23	2,952,509.086	369.728	231.207	
3462377	Goiania	BR	Brazil	SAE	-16.67861	-49.25389	1,949,596.734	244.138	152.67	
3461786	Guarulhos	BR	Brazil	SAE	-23.46278	-46.53333	2,162.614	0.271	0.169	
3467865	Campinas	BR	Brazil	SAE	-22.90556	-47.06083	424,413.044	53.147	33.235	
3395981	Maceio	BR	Brazil	SAE	-9.66583	-35.73528	1,100,770.646	137.844	86.2	
3388368	Sao Luis	BR	Brazil	SAE	-2.52972	-44.30278	200,222.035	25.073	15.679	
3394023	Natal	BR	Brazil	SAE	-5.795	-35.20944	230,138.198	28.819	18.022	
3386496	Teresina	BR	Brazil	SAE	-5.08917	-42.80194	361,156.577	45.226	28.282	
3467747	Campo Grande	BR	Brazil	SAE	-20.44278	-54.64639	349,802.853	43.804	27.393	
3455775	Osasco	BR	Brazil	SAE	-23.5325	-46.79167	24,689.846	3.092	1.933	
3449701	Santo Andre	BR	Brazil	SAE	-23.66389	-46.53833	387,107.948	48.476	30.314	
3397277	Joao Pessoa	BR	Brazil	SAE	-7.115	-34.86306	349,081.981	43.714	27.336	
3448636	Sao Jose dos Campos	BR	Brazil	SAE	-23.17944	-45.88694	407,833.001	51.071	31.937	
3445831	Uberlandia	BR	Brazil	SAE	-18.91861	-48.27722	2,663,439.65	333.529	208.57	
3447399	Sorocaba	BR	Brazil	SAE	-23.50167	-47.45806	14,237.21	1.783	1.115	
3451328	Ribeirao Preto	BR	Brazil	SAE	-21.1775	-47.81028	312,858.193	39.178	24.499	
3465038	Cuiaba	BR	Brazil	SAE	-15.59611	-56.09667	790,075.068	98.937	61.87	
3471872	Aracaju	BR	Brazil	SAE	-10.91111	-37.07167	555,431.423	69.554	43.495	
3463478	Feira de Santana	BR	Brazil	SAE	-12.26667	-38.96667	290,330.961	36.357	22.735	
3458449	Londrina	BR	Brazil	SAE	-23.31028	-51.16278	173,730.01	21.755	13.605	
3459712	Joinville	BR	Brazil	SAE	-26.30444	-48.84556	182,380.467	22.839	14.282	
3456283	Niteroi	BR	Brazil	SAE	-22.88333	-43.10361	933,168.043	116.856	73.075	
3463237	Florianopolis	BR	Brazil	SAE	-27.59667	-48.54917	2,642,534.379	330.911	206.933	
3445026	Vila Velha	BR	Brazil	SAE	-20.32972	-40.2925	1,261.525	0.158	0.099	
3457381	Maua	BR	Brazil	SAE	-23.66778	-46.46139	120,385.526	15.075	9.427	
3466537	Caxias do Sul	BR	Brazil	SAE	-29.16806	-51.17944	957,317.235	119.88	74.966	
3448639	Sao Jose do Rio Preto	BR	Brazil	SAE	-20.81972	-49.37944	313,579.064	39.268	24.556	
3403642	Campina Grande	BR	Brazil	SAE	-7.23056	-35.88111	162,196.068	20.311	12.701	
3396016	Macapa	BR	Brazil	SAE	0.03889	-51.06639	9,371.328	1.174	0.734	
3470279	Bauru	BR	Brazil	SAE	-22.31472	-49.06056	297,900.111	37.305	23.328	
3467467	Canoas	BR	Brazil	SAE	-29.91778	-51.18361	180.218	0.023	0.014	
3454244	Pelotas	BR	Brazil	SAE	-31.77194	-52.3425	7,208.714	0.903	0.565	
3444924	Vitoria	BR	Brazil	SAE	-20.31944	-40.33778	165,259.771	20.695	12.941	
3457671	Maringa	BR	Brazil	SAE	-23.42528	-51.93861	870,992.884	109.07	68.206	
3662762	Porto Velho	BR	Brazil	SAE	-8.76194	-63.90389	166,701.514	20.875	13.054	
3463011	Franca	BR	Brazil	SAE	-20.53861	-47.40083	564,802.751	70.727	44.229	
3469968	Blumenau	BR	Brazil	SAE	-26.91944	-49.06611	542,455.738	67.929	42.479	
3463030	Foz do Iguacu	BR	Brazil	SAE	-25.54778	-54.58806	63,076.249	7.899	4.939	
3453186	Ponta Grossa	BR	Brazil	SAE	-25.095	-50.16194	513,440.663	64.296	40.207	
3662574	Rio Branco	BR	Brazil	SAE	-9.97472	-67.81	1,441.743	0.181	0.113	
3466779	Cascavel	BR	Brazil	SAE	-24.95583	-53.45528	883,427.916	110.627	69.18	
3456068	Novo Hamburgo	BR	Brazil	SAE	-29.67833	-51.13056	57,489.495	7.199	4.502	
3470353	Barueri	BR	Brazil	SAE	-23.51056	-46.87611	358,633.528	44.91	28.084	
3462315	Governador Valadares	BR	Brazil	SAE	-18.85111	-41.94944	154,266.482	19.318	12.08	
3452465	Praia Grande	BR	Brazil	SAE	-24.00583	-46.40278	33,880.956	4.243	2.653	
3450083	Santa Maria	BR	Brazil	SAE	-29.68417	-53.80694	1,038,955.923	130.103	81.359	
3450144	Santa Luzia	BR	Brazil	SAE	-19.76972	-43.85139	133,361.211	16.7	10.443	
3402655	Caruaru	BR	Brazil	SAE	-8.28333	-35.97611	7,028.496	0.88	0.55	
3452324	Presidente Prudente	BR	Brazil	SAE	-22.12556	-51.38889	476,315.786	59.647	37.3	
3449319	Sao Carlos	BR	Brazil	SAE	-22.0175	-47.89083	33,340.303	4.175	2.611	
3394682	Mossoro	BR	Brazil	SAE	-5.1875	-37.34417	192,112.231	24.057	15.044	
3474574	Palmas	BR	Brazil	SAE	-10.21278	-48.36028	179,496.982	22.477	14.056	
3464688	Divinopolis	BR	Brazil	SAE	-20.13889	-44.88389	275,733.315	34.529	21.592	
3454857	Passo Fundo	BR	Brazil	SAE	-28.26278	-52.40667	22,707.449	2.844	1.778	
3465284	Cotia	BR	Brazil	SAE	-23.60389	-46.91917	3,964.793	0.496	0.31	
3471859	Aracatuba	BR	Brazil	SAE	-21.20889	-50.43278	13,696.557	1.715	1.073	
3471766	Araraquara	BR	Brazil	SAE	-21.79444	-48.17556	8,109.803	1.016	0.635	
3458930	Lages	BR	Brazil	SAE	-27.81611	-50.32611	819,991.231	102.683	64.212	
3464460	Dourados	BR	Brazil	SAE	-22.22111	-54.80556	901.089	0.113	0.071	
3466296	Chapeco	BR	Brazil	SAE	-27.09639	-52.61833	428,197.619	53.621	33.532	
3460845	Itajai	BR	Brazil	SAE	-26.90778	-48.66194	139,668.836	17.49	10.937	
3461879	Guarapuava	BR	Brazil	SAE	-25.39528	-51.45806	46,856.642	5.868	3.669	
3460102	Jaragua do Sul	BR	Brazil	SAE	-26.48611	-49.06667	1,802.179	0.226	0.141	
3457000	Mogi Guacu	BR	Brazil	SAE	-22.37222	-46.94222	285,104.643	35.702	22.326	
3459943	Jequie	BR	Brazil	SAE	-13.8575	-40.08361	23,968.974	3.002	1.877	
3454783	Patos de Minas	BR	Brazil	SAE	-18.57889	-46.51806	52,263.177	6.545	4.093	
3469092	Braganca Paulista	BR	Brazil	SAE	-22.95194	-46.54194	259,513.708	32.498	20.322	
3470858	Barbacena	BR	Brazil	SAE	-21.22583	-43.77361	152,644.522	19.115	11.953	
3452525	Pouso Alegre	BR	Brazil	SAE	-22.23	-45.93639	17,481.132	2.189	1.369	
3469136	Botucatu	BR	Brazil	SAE	-22.88583	-48.445	164,899.336	20.65	12.913	
3465644	Conselheiro Lafaiete	BR	Brazil	SAE	-20.66028	-43.78611	300,963.815	37.688	23.568	
3471758	Araras	BR	Brazil	SAE	-22.35694	-47.38417	149,400.6	18.709	11.699	
3473964	Guaiba	BR	Brazil	SAE	-30.11389	-51.325	51,362.088	6.432	4.022	

%N/A	N/A	DE	Germany	EUW	N/A	N/A	67,364,898	4,679.191	19,928.422	
2950159	Berlin	DE	Germany	EUW	52.52437	13.41053	47,008.771	3.265	13.907	
2911298	Hamburg	DE	Germany	EUW	53.55	10.0	2,583,740.261	179.468	764.343	
2867714	Muenchen	DE	Germany	EUW	48.13743	11.57549	3,038,148.54	211.031	898.769	
2886242	Koeln	DE	Germany	EUW	50.93333	6.95	2,921,984.906	202.962	864.405	
2925533	Frankfurt am Main	DE	Germany	EUW	50.11667	8.68333	13,367,912.634	928.54	3,954.603	
2928810	Essen	DE	Germany	EUW	51.45	7.01667	417,675.295	29.012	123.56	
2825297	Stuttgart	DE	Germany	EUW	48.78232	9.17702	1,665,238.477	115.668	492.624	
2935517	Dortmund	DE	Germany	EUW	51.51667	7.45	657,532.235	45.672	194.516	
2934246	Dusseldorf	DE	Germany	EUW	51.22172	6.77616	2,289,728.743	159.045	677.366	
2944388	Bremen	DE	Germany	EUW	53.07516	8.80777	390,007.444	27.09	115.375	
2910831	Hannover	DE	Germany	EUW	52.37052	9.73322	893,048.542	62.031	264.189	
2879139	Leipzig	DE	Germany	EUW	51.33962	12.37129	53,327.79	3.704	15.776	
2934691	Duisburg	DE	Germany	EUW	51.43333	6.75	338,244.645	23.495	100.062	
2861650	Nuremberg	DE	Germany	EUW	49.44778	11.06833	10,916,989.869	758.298	3,229.551	
2935022	Dresden	DE	Germany	EUW	51.05089	13.73832	1,357,968.833	94.325	401.725	
2911285	Wandsbek	DE	Germany	EUW	53.56667	10.1	98,712.514	6.857	29.202	
2947416	Bochum	DE	Germany	EUW	51.48333	7.21667	140,317.639	9.747	41.51	
2805753	Wuppertal	DE	Germany	EUW	51.26667	7.18333	188,094.141	13.065	55.644	
2855598	Berlin Pankow	DE	Germany	EUW	52.56926	13.40186	88,023.334	6.114	26.04	
2949186	Bielefeld	DE	Germany	EUW	52.03333	8.53333	626,468.65	43.515	185.327	
6545310	Berlin Mitte	DE	Germany	EUW	52.52003	13.40489	5,411,028.477	375.852	1,600.734	
7290251	Berlin Wilmersdorf	DE	Germany	EUW	52.50097	13.29097	137,660.108	9.562	40.724	
2946447	Bonn	DE	Germany	EUW	50.73333	7.1	599,037.024	41.609	177.212	
2873891	Mannheim	DE	Germany	EUW	49.48833	8.46472	315,891.856	21.942	93.45	
7290245	Berlin Steglitz Zehlendorf	DE	Germany	EUW	52.43485	13.24183	1,712.631	0.119	0.507	
2911287	Marienthal	DE	Germany	EUW	53.56667	10.08333	42,077.575	2.923	12.448	
2892794	Karlsruhe	DE	Germany	EUW	49.00472	8.38583	3,955,971.177	274.783	1,170.287	
2809346	Wiesbaden	DE	Germany	EUW	50.08333	8.25	207,316.949	14.4	61.33	
2867543	Muenster	DE	Germany	EUW	51.96236	7.62571	361,512.806	25.111	106.946	
2921466	Gelsenkirchen	DE	Germany	EUW	51.51667	7.05	132,404.102	9.197	39.169	
3247449	Aachen	DE	Germany	EUW	50.77664	6.08342	376,188.283	26.13	111.287	
2869894	Monchengladbach	DE	Germany	EUW	51.2	6.43333	44,174.071	3.068	13.068	
2954172	Augsburg	DE	Germany	EUW	48.36667	10.88333	297,761.589	20.683	88.086	
2911293	Eimsbuettel	DE	Germany	EUW	53.56667	9.98333	66,231.579	4.6	19.593	
2911296	Altona	DE	Germany	EUW	53.55	9.93333	222,789.685	15.475	65.907	
2940132	Chemnitz	DE	Germany	EUW	50.83333	12.91667	397,005.609	27.576	117.445	
2945024	Braunschweig	DE	Germany	EUW	52.26667	10.53333	324,779.821	22.559	96.079	
2848756	Berlin Reinickendorf	DE	Germany	EUW	52.56667	13.33333	163,113.35	11.33	48.253	
7289614	Halle Neustadt	DE	Germany	EUW	51.47924	11.91605	47,244.996	3.282	13.976	
2884509	Krefeld	DE	Germany	EUW	51.33333	6.56667	154,373.025	10.723	45.668	
2911522	Halle	DE	Germany	EUW	51.5	12.0	169,520.952	11.775	50.149	
2891122	Kiel	DE	Germany	EUW	54.32133	10.13489	611,291.195	42.461	180.837	
2874545	Magdeburg	DE	Germany	EUW	52.16667	11.66667	39,715.325	2.759	11.749	
2864072	Neue Neustadt	DE	Germany	EUW	52.15	11.63333	153,457.653	10.659	45.397	
2860410	Oberhausen	DE	Germany	EUW	51.46667	6.85	155,229.341	10.782	45.921	
2925177	Freiburg	DE	Germany	EUW	47.9959	7.85222	294,011.517	20.422	86.977	
2875601	Luebeck	DE	Germany	EUW	53.86893	10.68729	112,531.675	7.816	33.29	
2929670	Erfurt	DE	Germany	EUW	50.98333	11.03333	1,166,213.204	81.006	344.998	
2910685	Harburg	DE	Germany	EUW	53.46667	9.98333	22,589.014	1.569	6.682	
2912621	Hagen	DE	Germany	EUW	51.35	7.46667	101,045.236	7.019	29.892	
2844588	Rostock	DE	Germany	EUW	54.0887	12.14049	437,222.912	30.37	129.343	
2892518	Kassel	DE	Germany	EUW	51.31667	9.5	213,783.608	14.849	63.243	
2911240	Hamm	DE	Germany	EUW	51.68033	7.82089	4,429.218	0.308	1.31	
2874225	Mainz	DE	Germany	EUW	50.0	8.27111	198,576.625	13.793	58.745	
2842647	Saarbrucken	DE	Germany	EUW	49.23333	7.0	259,138.804	18	76.661	
2856883	Osnabruck	DE	Germany	EUW	52.26667	8.05	202,356.225	14.056	59.863	
2831580	Solingen	DE	Germany	EUW	51.18333	7.08333	51,467.518	3.575	15.226	
2875376	Ludwigshafen am Rhein	DE	Germany	EUW	49.48111	8.43528	402,409.256	27.951	119.044	
2857458	Oldenburg	DE	Germany	EUW	53.16667	8.2	293,804.82	20.408	86.916	
2864118	Neuss	DE	Germany	EUW	51.2	6.68333	156,705.747	10.885	46.358	
2852458	Potsdam	DE	Germany	EUW	52.39886	13.06566	260,054.176	18.063	76.931	
2907911	Heidelberg	DE	Germany	EUW	49.40768	8.69079	226,716.926	15.748	67.069	
2855745	Paderborn	DE	Germany	EUW	51.71905	8.75439	363,550.246	25.252	107.548	
2938913	Darmstadt	DE	Germany	EUW	49.87056	8.64944	81,438.562	5.657	24.092	
2805615	Wuerzburg	DE	Germany	EUW	49.78778	9.93611	351,798.053	24.436	104.072	
2849483	Regensburg	DE	Germany	EUW	49.015	12.09556	1,130,307.007	78.512	334.376	
2806654	Wolfsburg	DE	Germany	EUW	52.43333	10.8	8,710.796	0.605	2.577	
2918632	Gottingen	DE	Germany	EUW	51.53333	9.93333	56,634.939	3.934	16.754	
2907669	Heilbronn	DE	Germany	EUW	49.14028	9.22	526,043.505	36.539	155.618	
2895992	Ingolstadt	DE	Germany	EUW	48.76667	11.43333	93,426.98	6.489	27.638	
2820256	Ulm	DE	Germany	EUW	48.39841	9.99155	993,680.384	69.021	293.958	
2945756	Bottrop	DE	Germany	EUW	51.51667	6.91667	84,539.015	5.872	25.009	
7290243	Bergedorf	DE	Germany	EUW	53.48462	10.22904	95,995.927	6.668	28.398	
2853969	Pforzheim	DE	Germany	EUW	48.88333	8.7	157,178.197	10.918	46.498	
2857807	Offenbach	DE	Germany	EUW	50.1	8.76667	41,575.597	2.888	12.299	
2944368	Bremerhaven	DE	Germany	EUW	53.55	8.58333	74,765.207	5.193	22.118	
2848273	Remscheid	DE	Germany	EUW	51.18333	7.2	48,219.424	3.349	14.265	
7290254	Berlin Schoeneberg	DE	Germany	EUW	52.47457	13.34839	74,322.285	5.162	21.987	
2847736	Reutlingen	DE	Germany	EUW	48.49144	9.20427	182,040.876	12.645	53.853	
2923544	Furth	DE	Germany	EUW	49.47593	10.98856	124,342.925	8.637	36.784	
6947483	Koeln-Nippes	DE	Germany	EUW	50.963	6.9541	142,916.114	9.927	42.279	
2870221	Moers	DE	Germany	EUW	51.45	6.65	132,315.518	9.191	39.143	
2886946	Koblenz	DE	Germany	EUW	50.35	7.6	201,588.493	14.002	59.636	
2832495	Siegen	DE	Germany	EUW	50.86667	8.03333	425,943.169	29.586	126.006	
2895044	Jena	DE	Germany	EUW	50.93333	11.58333	115,395.903	8.015	34.137	
2921232	Gera	DE	Germany	EUW	50.88029	12.08187	3,100.453	0.215	0.917	
2904789	Hildesheim	DE	Germany	EUW	52.15077	9.95112	37,353.075	2.595	11.05	
2929567	Erlangen	DE	Germany	EUW	49.58972	11.00389	514,114.144	35.711	152.089	
2846032	Koeln Rodenkirchen	DE	Germany	EUW	50.88333	6.98333	18,720.83	1.3	5.538	
2807363	Witten	DE	Germany	EUW	51.43333	7.33333	13,169.543	0.915	3.896	
2821164	Trier	DE	Germany	EUW	49.75565	6.63935	400,991.906	27.853	118.625	

%N/A	N/A	RU	Russia (Russian Fed.)	EUE	N/A	N/A	61,472,011	4,537.727	12,565.562	
524901	Moscow	RU	Russia (Russian Fed.)	EUE	55.75222	37.61556	30,015,392.667	2,215.67	6,135.48	
498817	Saint Petersburg	RU	Russia (Russian Fed.)	EUE	59.89444	30.26417	6,484,912.253	478.702	1,325.588	
1496747	Novosibirsk	RU	Russia (Russian Fed.)	EUE	55.0415	82.9346	1,061,408.072	78.351	216.964	
1486209	Yekaterinburg	RU	Russia (Russian Fed.)	EUE	56.8575	60.6125	1,728,105.959	127.565	353.244	
520555	Nizhniy Novgorod	RU	Russia (Russian Fed.)	EUE	56.32867	44.00205	978,725.921	72.247	200.062	
499099	Samara	RU	Russia (Russian Fed.)	EUE	53.20006	50.15	760,879.38	56.166	155.532	
1496153	Omsk	RU	Russia (Russian Fed.)	EUE	55.0	73.4	219,015.327	16.167	44.769	
551487	Kazan	RU	Russia (Russian Fed.)	EUE	55.78874	49.12214	708,246.328	52.281	144.773	
501175	Rostov-na-Donu	RU	Russia (Russian Fed.)	EUE	47.23135	39.72328	521,617.671	38.505	106.624	
1508291	Chelyabinsk	RU	Russia (Russian Fed.)	EUE	55.15444	61.42972	669,714.108	49.437	136.897	
479561	Ufa	RU	Russia (Russian Fed.)	EUE	54.78517	56.04562	185,723.791	13.71	37.964	
472757	Volgograd	RU	Russia (Russian Fed.)	EUE	48.71939	44.50184	307,277.486	22.683	62.811	
511196	Perm'	RU	Russia (Russian Fed.)	EUE	58.01741	56.28552	915,159.07	67.555	187.069	
1502026	Krasnoyarsk	RU	Russia (Russian Fed.)	EUE	56.00972	92.79167	770,078.853	56.846	157.413	
498677	Saratov	RU	Russia (Russian Fed.)	EUE	51.54056	46.00861	191,416.908	14.13	39.128	
472045	Voronezh	RU	Russia (Russian Fed.)	EUE	51.67204	39.1843	440,217.414	32.496	89.985	
482283	Tol'yatti	RU	Russia (Russian Fed.)	EUE	53.5303	49.3461	61,832.525	4.564	12.639	
542420	Krasnodar	RU	Russia (Russian Fed.)	EUE	45.0488	38.9725	378,950.431	27.973	77.462	
479123	Ul'yanovsk	RU	Russia (Russian Fed.)	EUE	54.32824	48.38657	130,074.519	9.602	26.589	
554840	Izhevsk	RU	Russia (Russian Fed.)	EUE	56.84976	53.20448	346,412.95	25.571	70.811	
468902	Yaroslavl'	RU	Russia (Russian Fed.)	EUE	57.62987	39.87368	525,048.622	38.758	107.326	
1510853	Barnaul	RU	Russia (Russian Fed.)	EUE	53.36056	83.76361	161,028.484	11.887	32.916	
2013348	Vladivostok	RU	Russia (Russian Fed.)	EUE	43.10562	131.87354	346,488.355	25.577	70.826	
2023469	Irkutsk	RU	Russia (Russian Fed.)	EUE	52.29778	104.29639	484,631.264	35.774	99.064	
2022890	Khabarovsk	RU	Russia (Russian Fed.)	EUE	48.48083	135.09277	176,901.345	13.058	36.161	
515003	Orenburg	RU	Russia (Russian Fed.)	EUE	51.7727	55.0988	326,920.623	24.133	66.826	
1496990	Novokuznetsk	RU	Russia (Russian Fed.)	EUE	53.7557	87.1099	206,573.417	15.249	42.226	
500096	Ryazan'	RU	Russia (Russian Fed.)	EUE	54.6269	39.6916	279,302.039	20.617	57.092	
1488754	Tyumen'	RU	Russia (Russian Fed.)	EUE	57.15222	65.52722	486,893.43	35.941	99.526	
535121	Lipetsk	RU	Russia (Russian Fed.)	EUE	52.60311	39.57076	93,502.842	6.902	19.113	
511565	Penza	RU	Russia (Russian Fed.)	EUE	53.20066	45.00464	113,636.116	8.388	23.228	
580497	Astrakhan'	RU	Russia (Russian Fed.)	EUE	46.34968	48.04076	249,856.184	18.444	51.073	
1489425	Tomsk	RU	Russia (Russian Fed.)	EUE	56.49417	84.97417	612,594.428	45.22	125.221	
1503901	Kemerovo	RU	Russia (Russian Fed.)	EUE	55.33333	86.08333	365,867.573	27.008	74.787	
480562	Tula	RU	Russia (Russian Fed.)	EUE	54.20213	37.64429	23,715.035	1.751	4.848	
548408	Kirov	RU	Russia (Russian Fed.)	EUE	58.59665	49.66007	136,144.663	10.05	27.829	
569696	Cheboksary	RU	Russia (Russian Fed.)	EUE	56.13222	47.25194	109,715.029	8.099	22.427	
554234	Kaliningrad	RU	Russia (Russian Fed.)	EUE	54.70649	20.51095	371,673.798	27.436	75.974	
571476	Bryansk	RU	Russia (Russian Fed.)	EUE	53.25209	34.37167	30,727.749	2.268	6.281	
555312	Ivanovo	RU	Russia (Russian Fed.)	EUE	56.99719	40.97139	140,103.452	10.342	28.639	
532288	Magnitogorsk	RU	Russia (Russian Fed.)	EUE	53.41861	59.04722	189,003.931	13.952	38.635	
538560	Kursk	RU	Russia (Russian Fed.)	EUE	51.73733	36.18735	289,896.514	21.4	59.258	
480060	Tver'	RU	Russia (Russian Fed.)	EUE	56.86049	35.87603	386,717.199	28.547	79.049	
520494	Nizhniy Tagil	RU	Russia (Russian Fed.)	EUE	57.91944	59.965	64,961.854	4.795	13.279	
487846	Stavropol'	RU	Russia (Russian Fed.)	EUE	45.0428	41.9734	328,654.95	24.261	67.181	
2014407	Ulan-Ude	RU	Russia (Russian Fed.)	EUE	51.82605	107.60979	85,434.452	6.307	17.464	
581049	Arkhangel'sk	RU	Russia (Russian Fed.)	EUE	64.5401	40.5433	150,660.225	11.121	30.797	
578072	Belgorod	RU	Russia (Russian Fed.)	EUE	50.61074	36.58015	415,936.837	30.704	85.022	
1501321	Kurgan	RU	Russia (Russian Fed.)	EUE	55.45	65.33333	72,351.595	5.341	14.789	
491422	Sochi	RU	Russia (Russian Fed.)	EUE	43.59917	39.72569	148,134.14	10.935	30.28	
515012	Orel	RU	Russia (Russian Fed.)	EUE	52.96508	36.0785	205,593.145	15.176	42.026	
472231	Volzhskiy	RU	Russia (Russian Fed.)	EUE	48.78583	44.77973	640.947	0.047	0.131	
491687	Smolensk	RU	Russia (Russian Fed.)	EUE	54.7818	32.0401	3,958.79	0.292	0.809	
524305	Murmansk	RU	Russia (Russian Fed.)	EUE	68.97917	33.09251	26,165.715	1.931	5.349	
473249	Vladikavkaz	RU	Russia (Russian Fed.)	EUE	43.03667	44.66778	24,733.01	1.826	5.056	
569223	Cherepovets	RU	Russia (Russian Fed.)	EUE	59.13333	37.9	31,180.182	2.302	6.374	
473247	Vladimir	RU	Russia (Russian Fed.)	EUE	56.13655	40.39658	129,772.897	9.58	26.527	
498698	Saransk	RU	Russia (Russian Fed.)	EUE	54.1838	45.1749	126,266.54	9.321	25.81	
1490624	Surgut	RU	Russia (Russian Fed.)	EUE	61.25	73.41667	434,825.92	32.098	88.883	
472459	Vologda	RU	Russia (Russian Fed.)	EUE	59.2187	39.8886	198,618.134	14.662	40.6	
484646	Tambov	RU	Russia (Russian Fed.)	EUE	52.73169	41.44326	94,030.681	6.941	19.221	
466806	Yoshkar-Ola	RU	Russia (Russian Fed.)	EUE	56.63877	47.89078	61,832.525	4.564	12.639	
484907	Taganrog	RU	Russia (Russian Fed.)	EUE	47.23617	38.89688	61,304.686	4.525	12.531	
543878	Kostroma	RU	Russia (Russian Fed.)	EUE	57.76647	40.92686	263.919	0.019	0.054	
523523	Nal'chik	RU	Russia (Russian Fed.)	EUE	43.49806	43.61889	79,364.308	5.858	16.223	
487495	Sterlitamak	RU	Russia (Russian Fed.)	EUE	53.62462	55.95015	45,469.527	3.356	9.294	
509820	Petrozavodsk	RU	Russia (Russian Fed.)	EUE	61.78491	34.34691	44,489.256	3.284	9.094	
514734	Orsk	RU	Russia (Russian Fed.)	EUE	51.20487	58.56685	37.703	0.003	0.008	
2027667	Angarsk	RU	Russia (Russian Fed.)	EUE	52.53667	103.88639	184,102.572	13.59	37.633	
518255	Novorossiysk	RU	Russia (Russian Fed.)	EUE	44.72439	37.76752	61,681.714	4.553	12.608	
2013159	Yakutsk	RU	Russia (Russian Fed.)	EUE	62.03389	129.73306	86,188.507	6.362	17.618	
485239	Syktyvkar	RU	Russia (Russian Fed.)	EUE	61.67642	50.80994	256,152.545	18.909	52.36	
487928	Staryy Oskol	RU	Russia (Russian Fed.)	EUE	51.29667	37.84167	60,701.442	4.481	12.408	
496015	Shakhty	RU	Russia (Russian Fed.)	EUE	47.70911	40.21443	85,736.074	6.329	17.525	
2026609	Blagoveshchensk	RU	Russia (Russian Fed.)	EUE	50.26667	127.53333	184,781.222	13.64	37.771	
463829	Zelenograd	RU	Russia (Russian Fed.)	EUE	55.9825	37.18139	174,676.883	12.894	35.706	
1510018	Biysk	RU	Russia (Russian Fed.)	EUE	52.53639	85.20722	95,387.98	7.041	19.498	
519336	Velikiy Novgorod	RU	Russia (Russian Fed.)	EUE	58.51667	31.28333	238,620.762	17.614	48.777	
504341	Pskov	RU	Russia (Russian Fed.)	EUE	57.8136	28.3496	264,409.449	19.518	54.048	
579492	Balakovo	RU	Russia (Russian Fed.)	EUE	52.02782	47.8007	61,417.794	4.534	12.554	
580922	Armavir	RU	Russia (Russian Fed.)	EUE	44.9892	41.1234	60,776.848	4.486	12.423	
2122104	Petropavlovsk-Kamchatskiy	RU	Russia (Russian Fed.)	EUE	53.0452	158.6483	14,666.373	1.083	2.998	
1504826	Kamensk-Ural'skiy	RU	Russia (Russian Fed.)	EUE	56.4185	61.9329	60,249.009	4.447	12.316	
508101	Podol'sk	RU	Russia (Russian Fed.)	EUE	55.42418	37.55472	190,738.258	14.08	38.989	
2119441	Yuzhno-Sakhalinsk	RU	Russia (Russian Fed.)	EUE	46.95812	142.73366	150.811	0.011	0.031	
472761	Volgodonsk	RU	Russia (Russian Fed.)	EUE	47.51361	42.15139	3,317.843	0.245	0.678	
1512236	Abakan	RU	Russia (Russian Fed.)	EUE	53.71556	91.42917	199,447.595	14.723	40.769	
523812	Mytishchi	RU	Russia (Russian Fed.)	EUE	55.91163	37.73076	32,537.481	2.402	6.651	
528293	Maykop	RU	Russia (Russian Fed.)	EUE	44.60778	40.10583	67,487.939	4.982	13.795	
2014006	Ussuriysk	RU	Russia (Russian Fed.)	EUE	43.8059	131.9752	9,312.581	0.687	1.904	
532615	Lyubertsy	RU	Russia (Russian Fed.)	EUE	55.67719	37.89322	307,616.811	22.708	62.88	
579464	Balashikha	RU	Russia (Russian Fed.)	EUE	55.80945	37.95806	288,576.917	21.302	58.988	
546230	Kolomna	RU	Russia (Russian Fed.)	EUE	55.07944	38.77833	39,964.925	2.95	8.169	
2019528	Nakhodka	RU	Russia (Russian Fed.)	EUE	42.83333	132.89471	50,521.697	3.729	10.327	
563523	Elektrostal'	RU	Russia (Russian Fed.)	EUE	55.78959	38.44671	63,227.527	4.667	12.924	
503550	Pyatigorsk	RU	Russia (Russian Fed.)	EUE	44.04861	43.05944	150,811.036	11.133	30.827	
550280	Khimki	RU	Russia (Russian Fed.)	EUE	55.89704	37.42969	174,676.883	12.894	35.706	
554233	Korolev	RU	Russia (Russian Fed.)	EUE	55.91417	37.82556	188.514	0.014	0.039	
516215	Odintsovo	RU	Russia (Russian Fed.)	EUE	55.67798	37.27773	292,347.193	21.58	59.759	
510808	Pervoural'sk	RU	Russia (Russian Fed.)	EUE	56.90528	59.94361	19,605.435	1.447	4.008	
496527	Serpukhov	RU	Russia (Russian Fed.)	EUE	54.91578	37.41114	119,517.746	8.823	24.431	
524294	Murom	RU	Russia (Russian Fed.)	EUE	55.575	42.0426	1,168.786	0.086	0.239	
1512165	Achinsk	RU	Russia (Russian Fed.)	EUE	56.2694	90.4993	106,925.025	7.893	21.857	
520068	Noginsk	RU	Russia (Russian Fed.)	EUE	55.86647	38.4438	322,094.67	23.776	65.84	
1489530	Tobol'sk	RU	Russia (Russian Fed.)	EUE	58.2	68.26667	61,606.308	4.548	12.593	
1538637	Seversk	RU	Russia (Russian Fed.)	EUE	56.60056	84.88639	377.028	0.028	0.077	
580724	Arzamas	RU	Russia (Russian Fed.)	EUE	55.39485	43.83992	62,699.688	4.628	12.817	
496638	Sergiyev Posad	RU	Russia (Russian Fed.)	EUE	56.3	38.13333	35,440.593	2.616	7.244	
1500665	Leninsk-Kuznetskiy	RU	Russia (Russian Fed.)	EUE	54.6567	86.1737	63,378.338	4.678	12.955	
516436	Obninsk	RU	Russia (Russian Fed.)	EUE	55.09681	36.61006	207,327.472	15.304	42.38	
563514	Elista	RU	Russia (Russian Fed.)	EUE	46.30778	44.25583	56,780.355	4.191	11.607	
503977	Pushkino	RU	Russia (Russian Fed.)	EUE	56.01722	37.86667	82,719.853	6.106	16.909	
2027456	Artem	RU	Russia (Russian Fed.)	EUE	43.3675	132.19861	37,174.92	2.744	7.599	
479411	Ukhta	RU	Russia (Russian Fed.)	EUE	63.56705	53.68348	147,907.924	10.918	30.234	
1504682	Kansk	RU	Russia (Russian Fed.)	EUE	56.20167	95.7175	96,292.847	7.108	19.683	
2013952	Ust'-Ilimsk	RU	Russia (Russian Fed.)	EUE	58.00056	102.66194	157,258.208	11.608	32.145	
463355	Zheleznodorozhnyy	RU	Russia (Russian Fed.)	EUE	55.744	38.01684	255,360.787	18.85	52.199	
1538634	Ozersk	RU	Russia (Russian Fed.)	EUE	55.75556	60.70278	61,116.172	4.511	12.493	

%N/A	N/A	ID	Indonesia	ASP	N/A	N/A	55,000,000	2,711.408	48.111	
1642911	Jakarta	ID	Indonesia	ASP	-6.21462	106.84513	37,811,555.844	1,864.047	33.075	
1625822	Surabaya	ID	Indonesia	ASP	-7.24917	112.75083	3,750,530.6	184.895	3.281	
1214520	Medan	ID	Indonesia	ASP	3.58333	98.66667	3,433.294	0.169	0.003	
1650357	Bandung	ID	Indonesia	ASP	-6.90389	107.61861	2,664,236.311	131.342	2.331	
1649378	Bekasi	ID	Indonesia	ASP	-6.2349	106.9896	33,646.283	1.659	0.029	
1625084	Tangerang	ID	Indonesia	ASP	-6.17806	106.63	1,151,526.88	56.768	1.007	
1627896	Semarang	ID	Indonesia	ASP	-6.9932	110.4203	87,892.332	4.333	0.077	
1645524	Depok	ID	Indonesia	ASP	-6.4	106.81861	606,319.758	29.891	0.53	
1636722	Malang	ID	Indonesia	ASP	-7.9797	112.6304	164,111.463	8.09	0.144	
1621177	Yogyakarta	ID	Indonesia	ASP	-7.78278	110.36083	1,363,017.803	67.195	1.192	
1645528	Denpasar	ID	Indonesia	ASP	-8.65	115.21667	877,550.001	43.262	0.768	
1646494	Cileungsi	ID	Indonesia	ASP	-6.39472	106.95917	509,500.861	25.118	0.446	
1632937	Pamulang	ID	Indonesia	ASP	-6.34278	106.73833	295,949.961	14.59	0.259	
1629131	Salatiga	ID	Indonesia	ASP	-7.33194	110.49278	3,433.294	0.169	0.003	
1635283	Metro	ID	Indonesia	ASP	-5.11306	105.30667	496,454.343	24.474	0.434	
1651112	Astanajapura	ID	Indonesia	ASP	-6.8017	108.6311	5,180,840.97	255.407	4.532	

%N/A	N/A	GB	United Kingdom	EUW	N/A	N/A	52,731,209	13,372.34	7,224.706	
2643741	City of London	GB	United Kingdom	EUW	51.51279	-0.09184	9,536,292.26	2,418.35	1,306.568	
2643743	London	GB	United Kingdom	EUW	51.50853	-0.12574	7,024,253.771	1,781.311	962.393	
2655603	Birmingham	GB	United Kingdom	EUW	52.48142	-1.89983	155,749.492	39.497	21.339	
2648579	Glasgow	GB	United Kingdom	EUW	55.86515	-4.25763	560,235.821	142.073	76.758	
2644210	Liverpool	GB	United Kingdom	EUW	53.41058	-2.97794	43,129.567	10.937	5.909	
2644688	Leeds	GB	United Kingdom	EUW	53.79648	-1.54785	177,555.801	45.027	24.327	
2638077	Sheffield	GB	United Kingdom	EUW	53.38297	-1.4659	379,988.736	96.363	52.062	
2650225	Edinburgh	GB	United Kingdom	EUW	55.95206	-3.19648	641,250.399	162.618	87.858	
2654675	Bristol	GB	United Kingdom	EUW	51.45523	-2.59665	197,705.934	50.137	27.088	
2643123	Manchester	GB	United Kingdom	EUW	53.48095	-2.23743	3,887,112.591	985.75	532.574	
2646003	Islington	GB	United Kingdom	EUW	51.53622	-0.10304	3,478,658.341	882.168	476.611	
2652221	Coventry	GB	United Kingdom	EUW	52.40656	-1.51217	46,441.918	11.777	6.363	
2645425	Hull	GB	United Kingdom	EUW	53.7446	-0.33525	29,914.668	7.586	4.099	
2653822	Cardiff	GB	United Kingdom	EUW	51.48	-3.18	88,432.864	22.426	12.116	
2654993	Bradford	GB	United Kingdom	EUW	53.79391	-1.75206	387,372.517	98.236	53.074	
2655984	Belfast	GB	United Kingdom	EUW	54.58333	-5.93333	119,865.692	30.397	16.423	
2636841	Stoke-on-Trent	GB	United Kingdom	EUW	53.00415	-2.18538	580,282.444	147.156	79.505	
2633691	Wolverhampton	GB	United Kingdom	EUW	52.58547	-2.12296	175,934.129	44.616	24.105	
2640194	Plymouth	GB	United Kingdom	EUW	50.37153	-4.14305	39,023.632	9.896	5.347	
2641170	Nottingham	GB	United Kingdom	EUW	52.9536	-1.15047	104,753.092	26.565	14.352	
2637487	Southampton	GB	United Kingdom	EUW	50.90395	-1.40428	274,131.527	69.518	37.559	
2639577	Reading	GB	United Kingdom	EUW	51.45625	-0.97113	841,233.575	213.332	115.257	
2651347	Derby	GB	United Kingdom	EUW	52.92277	-1.47663	654,499.802	165.977	89.673	
7535661	London Borough of Harrow	GB	United Kingdom	EUW	51.56667	-0.33333	4,741,285.036	1,202.363	649.604	
2641430	Northampton	GB	United Kingdom	EUW	52.25	-0.88333	99,025.485	25.112	13.567	
2639996	Portsmouth	GB	United Kingdom	EUW	50.79899	-1.09125	380,299.268	96.442	52.105	
2643339	Luton	GB	United Kingdom	EUW	51.87967	-0.41748	27,326.894	6.93	3.744	
2641673	Newcastle upon Tyne	GB	United Kingdom	EUW	54.97328	-1.61396	74,217.359	18.821	10.169	
2639912	Preston	GB	United Kingdom	EUW	53.76667	-2.71667	74,286.366	18.839	10.178	
2636503	Sutton	GB	United Kingdom	EUW	51.35	-0.2	1,976,024.233	501.109	270.735	
2642465	Milton Keynes	GB	United Kingdom	EUW	52.04172	-0.75583	8,004.848	2.03	1.097	
2657832	Aberdeen	GB	United Kingdom	EUW	57.14369	-2.09814	35,573.267	9.021	4.874	
2636531	Sunderland	GB	United Kingdom	EUW	54.90465	-1.38222	77,184.673	19.574	10.575	
2641181	Norwich	GB	United Kingdom	EUW	52.62783	1.29834	26,740.331	6.781	3.664	
2636432	Swansea	GB	United Kingdom	EUW	51.62079	-3.94323	3,519.373	0.892	0.482	
2655095	Bournemouth	GB	United Kingdom	EUW	50.72048	-1.8795	34,779.683	8.82	4.765	
2637433	Southend-on-Sea	GB	United Kingdom	EUW	51.53782	0.71433	151,988.593	38.543	20.824	
2636389	Swindon	GB	United Kingdom	EUW	51.55797	-1.78116	107,030.333	27.142	14.664	
2640729	Oxford	GB	United Kingdom	EUW	51.75222	-1.25596	508,963.392	129.07	69.733	
2650752	Dundee	GB	United Kingdom	EUW	56.5	-2.96667	58,863.233	14.927	8.065	
2640101	Poole	GB	United Kingdom	EUW	50.71667	-2.0	15,837.177	4.016	2.17	
2646458	Huddersfield	GB	United Kingdom	EUW	53.64904	-1.78416	53,584.174	13.589	7.342	
2633352	York	GB	United Kingdom	EUW	53.95763	-1.08271	267,644.84	67.873	36.67	
2646057	Ipswich	GB	United Kingdom	EUW	52.05917	1.15545	42,508.501	10.78	5.824	
2655459	Blackpool	GB	United Kingdom	EUW	53.81667	-3.05	102,889.895	26.092	14.097	
2642607	Middlesbrough	GB	United Kingdom	EUW	54.57623	-1.23483	40,127.749	10.176	5.498	
2640354	Peterborough	GB	United Kingdom	EUW	52.57364	-0.24777	62,589.627	15.872	8.575	
2636882	Stockport	GB	United Kingdom	EUW	53.40979	-2.15761	14,560.542	3.692	1.995	
2654710	Brighton	GB	United Kingdom	EUW	50.82838	-0.13947	5,175.548	1.312	0.709	
3345439	Telford	GB	United Kingdom	EUW	52.67659	-2.44926	268,300.409	68.039	36.76	
2634491	West Bromwich	GB	United Kingdom	EUW	52.51868	-1.9945	940,914.63	238.611	128.915	
2637627	Slough	GB	United Kingdom	EUW	51.50949	-0.59541	1,765,103.4	447.62	241.837	
2648404	Gloucester	GB	United Kingdom	EUW	51.86568	-2.2431	5,309,629.216	1,346.492	727.473	
2653941	Cambridge	GB	United Kingdom	EUW	52.2	0.11667	271,198.716	68.774	37.157	
2634677	Watford	GB	United Kingdom	EUW	51.65531	-0.39602	1,037,317.837	263.058	142.123	
2639093	Rotherham	GB	United Kingdom	EUW	53.43012	-1.35678	85,051.506	21.569	11.653	
2649808	Exeter	GB	United Kingdom	EUW	50.7236	-3.52751	56,413.473	14.306	7.729	
7290614	Bassetlaw District	GB	United Kingdom	EUW	53.34914	-0.9785	55,136.838	13.982	7.554	
6947756	Mendip	GB	United Kingdom	EUW	51.2372	-2.6266	6,624.701	1.68	0.908	
6690871	Dagenham	GB	United Kingdom	EUW	51.54062	0.14801	1,501,909.531	380.876	205.777	
2652053	Crawley	GB	United Kingdom	EUW	51.11303	-0.18312	56,482.481	14.324	7.739	
2636486	Sutton Coldfield	GB	United Kingdom	EUW	52.56667	-1.81667	3,070.825	0.779	0.421	
2641022	Oldham	GB	United Kingdom	EUW	53.54051	-2.1183	188,493.459	47.801	25.825	
2633709	Woking	GB	United Kingdom	EUW	51.31903	-0.55893	633,694.099	160.701	86.822	
2653266	Chelmsford	GB	United Kingdom	EUW	51.73575	0.46958	29,638.638	7.516	4.061	
2638785	Saint Helens	GB	United Kingdom	EUW	53.45	-2.73333	9,937.052	2.52	1.361	
2648657	Gillingham	GB	United Kingdom	EUW	51.38914	0.54863	71,560.577	18.147	9.805	
2633563	Worcester	GB	United Kingdom	EUW	52.18935	-2.22001	112,205.881	28.455	15.373	
6690870	Becontree	GB	United Kingdom	EUW	51.5529	0.129	1,914,676.738	485.551	262.33	

%N/A	N/A	FR	France	EUW	N/A	N/A	50,290,226	2,925.308	11,409.948	
2988507	Paris	FR	France	EUW	48.85341	2.3488	17,421,383.532	1,013.376	3,952.599	
2995469	Marseille	FR	France	EUW	43.29695	5.38107	629,278.469	36.604	142.772	
2996944	Lyon	FR	France	EUW	45.74846	4.84671	998,508.932	58.082	226.544	
2972315	Toulouse	FR	France	EUW	43.60426	1.44367	367,031.105	21.35	83.273	
2990440	Nice	FR	France	EUW	43.70313	7.26608	1,139,320.267	66.273	258.491	
2990969	Nantes	FR	France	EUW	47.21725	-1.55336	459,404.178	26.723	104.231	
2973783	Strasbourg	FR	France	EUW	48.58342	7.74296	1,193,361.656	69.416	270.752	
2992166	Montpellier	FR	France	EUW	43.61092	3.87723	480,612.281	27.957	109.042	
3031582	Bordeaux	FR	France	EUW	44.84044	-0.5805	1,278,979.556	74.396	290.177	
2998324	Lille	FR	France	EUW	50.63297	3.05858	18,732,934.545	1,089.667	4,250.166	
2983990	Rennes	FR	France	EUW	48.11198	-1.67429	99,809.001	5.806	22.645	
2984114	Reims	FR	France	EUW	49.25	4.03333	826,592.38	48.082	187.539	
2980291	Saint-Etienne	FR	France	EUW	45.43333	4.4	261.828	0.015	0.059	
2972328	Toulon	FR	France	EUW	43.11667	5.93333	13,143.788	0.765	2.982	
3037656	Angers	FR	France	EUW	47.46667	-0.55	210,195.87	12.227	47.69	
3014728	Grenoble	FR	France	EUW	45.16667	5.71667	71,007.872	4.13	16.11	
3021372	Dijon	FR	France	EUW	47.31667	5.01667	4,712.912	0.274	1.069	
3038354	Aix-en-Provence	FR	France	EUW	43.5283	5.44973	104,888.472	6.101	23.797	
3030300	Brest	FR	France	EUW	48.4	-4.48333	77,658.315	4.517	17.619	
3037854	Amiens	FR	France	EUW	49.9	2.3	170,973.97	9.945	38.791	
2972191	Tours	FR	France	EUW	47.38333	0.68333	313,094.447	18.212	71.036	
2998286	Limoges	FR	France	EUW	45.83153	1.2578	175,110.86	10.186	39.73	
3024635	Clermont-Ferrand	FR	France	EUW	45.77966	3.08628	164,166.431	9.549	37.246	
2989317	Orleans	FR	France	EUW	47.90289	1.90389	134,317.989	7.813	30.474	
2994160	Metz	FR	France	EUW	49.11911	6.17269	693,164.608	40.32	157.267	
2982652	Rouen	FR	France	EUW	49.44313	1.09932	813,291.495	47.308	184.521	
2991214	Mulhouse	FR	France	EUW	47.75	7.33333	139,764.02	8.13	31.71	
2987914	Perpignan	FR	France	EUW	42.69764	2.89541	41,264.162	2.4	9.362	
3029241	Caen	FR	France	EUW	49.18585	-0.35912	41,892.55	2.437	9.505	
3031137	Boulogne-Billancourt	FR	France	EUW	48.83333	2.25	1,005,997.226	58.517	228.243	
2990999	Nancy	FR	France	EUW	48.68333	6.2	322,991.562	18.788	73.281	
3037044	Argenteuil	FR	France	EUW	48.95	2.25	2,165,111.722	125.941	491.225	

%N/A	N/A	NG	Nigeria	AFR	N/A	N/A	45,039,711	1,895.485	100.294	
2332459	Lagos	NG	Nigeria	AFR	6.45306	3.39583	39,197,781.853	1,649.629	87.285	
2335727	Kaduna	NG	Nigeria	AFR	10.52224	7.43828	5,286,663.258	222.488	11.772	
2352778	Abuja	NG	Nigeria	AFR	9.05735	7.48976	555,265.889	23.368	1.236	

%N/A	N/A	MX	Mexico	NAS	N/A	N/A	42,000,000	2,721.241	909.155	
3530597	Mexico City	MX	Mexico	NAS	19.42847	-99.12766	14,049,614.067	910.295	304.126	
4005539	Guadalajara	MX	Mexico	NAS	20.66667	-103.33333	769,967.392	49.887	16.667	
3521081	Puebla de Zaragoza	MX	Mexico	NAS	19.05	-98.2	130,267.883	8.44	2.82	
4013708	Ciudad Juarez	MX	Mexico	NAS	31.73333	-106.48333	102,530.235	6.643	2.219	
3981609	Tijuana	MX	Mexico	NAS	32.53333	-117.01667	602,798.531	39.056	13.049	
3995465	Monterrey	MX	Mexico	NAS	25.66667	-100.31667	4,066,042.019	263.445	88.016	
3998655	Leon	MX	Mexico	NAS	21.11667	-101.66667	266,231.89	17.25	5.763	
3979770	Zapopan	MX	Mexico	NAS	20.71667	-103.4	260,288.108	16.864	5.634	
3522790	Naucalpan de Juarez	MX	Mexico	NAS	19.47851	-99.23963	454,451.645	29.445	9.837	
4005492	Guadalupe	MX	Mexico	NAS	25.68333	-100.25	906,922.029	58.761	19.632	
3523349	Merida	MX	Mexico	NAS	20.96667	-89.61667	594,378.173	38.511	12.866	
4014338	Chihuahua	MX	Mexico	NAS	28.63333	-106.08333	526,024.683	34.082	11.387	
3985606	San Luis Potosi	MX	Mexico	NAS	22.15	-100.98333	428,695.257	27.776	9.28	
4019233	Aguascalientes	MX	Mexico	NAS	21.88333	-102.3	841,292.773	54.509	18.211	
3533462	Acapulco de Juarez	MX	Mexico	NAS	16.86336	-99.8901	735,047.674	47.625	15.911	
3988086	Saltillo	MX	Mexico	NAS	25.41667	-101.0	1,135,757.626	73.587	24.585	
3991164	Queretaro	MX	Mexico	NAS	20.6	-100.38333	776,406.489	50.305	16.807	
3996069	Mexicali	MX	Mexico	NAS	32.65194	-115.46833	931,935.444	60.381	20.173	
3995402	Morelia	MX	Mexico	NAS	19.70078	-101.18443	426,218.682	27.615	9.226	
4012176	Culiacan	MX	Mexico	NAS	24.79944	-107.38972	178,065.794	11.537	3.855	
3531673	Cancun	MX	Mexico	NAS	21.17429	-86.84656	316,754.035	20.523	6.857	
3981254	Torreon	MX	Mexico	NAS	25.55	-103.43333	564,411.607	36.569	12.218	
3985241	San Nicolas de los Garza	MX	Mexico	NAS	25.75	-100.3	837,330.251	54.252	18.125	
3515302	Toluca	MX	Mexico	NAS	19.28833	-99.66722	198,621.373	12.869	4.299	
3520339	Reynosa	MX	Mexico	NAS	26.08333	-98.28333	227,101.994	14.714	4.916	
3981461	Tlaquepaque	MX	Mexico	NAS	20.65	-103.31667	851,942.048	55.199	18.442	
3515001	Tuxtla Gutierrez	MX	Mexico	NAS	16.75	-93.11667	559,210.798	36.232	12.105	
3526617	Jalapa Enriquez	MX	Mexico	NAS	19.53333	-96.91667	118,627.977	7.686	2.568	
3981369	Tonala	MX	Mexico	NAS	20.61667	-103.23333	25,013.415	1.621	0.541	
3514670	Villahermosa	MX	Mexico	NAS	17.98333	-92.91667	619,639.245	40.147	13.413	
4018390	Apodaca	MX	Mexico	NAS	25.76667	-100.2	1,733.603	0.112	0.038	
3522551	Nuevo Laredo	MX	Mexico	NAS	27.47629	-99.51639	480,208.032	31.113	10.395	
4004330	Irapuato	MX	Mexico	NAS	20.68333	-101.35	61,666.735	3.995	1.335	
3522210	Pachuca de Soto	MX	Mexico	NAS	20.11697	-98.73329	402,195.897	26.059	8.706	
4014875	Celaya	MX	Mexico	NAS	20.51667	-100.81667	46,311.966	3.001	1.002	
3981941	Tepic	MX	Mexico	NAS	21.5	-104.9	65,876.914	4.268	1.426	
3530580	Ciudad Victoria	MX	Mexico	NAS	23.73333	-99.13333	229,083.254	14.843	4.959	
3522507	Oaxaca de Juarez	MX	Mexico	NAS	17.05	-96.71667	42,349.445	2.744	0.917	
4013704	Ciudad Obregon	MX	Mexico	NAS	27.48333	-109.93333	423,742.106	27.455	9.173	
3980760	Uruapan del Progreso	MX	Mexico	NAS	19.41667	-102.06667	212,985.512	13.8	4.61	
3530517	Coatzacoalcos	MX	Mexico	NAS	18.15	-94.41667	19,317.291	1.252	0.418	
3997479	Los Mochis	MX	Mexico	NAS	25.76667	-108.96667	513,146.489	33.248	11.108	
3531732	Campeche	MX	Mexico	NAS	19.85	-90.53333	41,606.472	2.696	0.901	
3516266	Tapachula	MX	Mexico	NAS	14.9	-92.28333	22,536.839	1.46	0.488	
3530594	Ciudad Madero	MX	Mexico	NAS	22.26667	-97.83333	147,356.255	9.547	3.19	
4004886	Heroica Nogales	MX	Mexico	NAS	31.30862	-110.94217	572,831.964	37.115	12.4	
4000900	La Paz	MX	Mexico	NAS	24.16667	-110.3	620,629.876	40.212	13.435	
3530757	Cholula	MX	Mexico	NAS	19.06406	-98.30352	5,943.782	0.385	0.129	
4013728	Ciudad Acuna	MX	Mexico	NAS	29.32322	-100.95217	1,238.288	0.08	0.027	
3985604	San Luis Rio Colorado	MX	Mexico	NAS	32.46306	-114.77667	68,601.147	4.445	1.485	
3531023	Chetumal	MX	Mexico	NAS	18.5	-88.3	228,340.282	14.795	4.943	
4005937	Garza Garcia	MX	Mexico	NAS	25.66667	-100.4	3,203,203.038	207.54	69.338	
3519537	San Cristobal de Las Casas	MX	Mexico	NAS	16.75	-92.63333	381,640.319	24.727	8.261	
4013516	Colima	MX	Mexico	NAS	19.23333	-103.71667	1,733.603	0.112	0.038	
3827414	Huixquilucan	MX	Mexico	NAS	19.36028	-99.35139	343,748.71	22.272	7.441	
3522307	Orizaba	MX	Mexico	NAS	18.85	-97.1	101,539.605	6.579	2.198	
3979844	Zacatecas	MX	Mexico	NAS	22.77559	-102.57218	703,595.162	45.587	15.23	
3996426	Matamoros	MX	Mexico	NAS	25.53333	-103.25	52,255.748	3.386	1.131	
3516271	Tantoyuca	MX	Mexico	NAS	21.35	-98.23333	502,992.529	32.59	10.888	

%N/A	N/A	KR	Korea, (South) Republic of	ASP	N/A	N/A	40,329,660	1,561.115	96.701	
1835848	Seoul	KR	Korea, (South) Republic of	ASP	37.56826	126.97783	27,683,707.182	1,071.605	66.379	
1838524	Busan	KR	Korea, (South) Republic of	ASP	35.10278	129.04028	386,494.159	14.961	0.927	
1843564	Incheon	KR	Korea, (South) Republic of	ASP	37.45361	126.73167	21,510.806	0.833	0.052	
1835329	Daegu	KR	Korea, (South) Republic of	ASP	35.87028	128.59111	84,942.672	3.288	0.204	
1835235	Daejeon	KR	Korea, (South) Republic of	ASP	36.32139	127.41972	1,096,750.964	42.454	2.63	
1841811	Gwangju	KR	Korea, (South) Republic of	ASP	35.15472	126.91556	429,915.973	16.642	1.031	
1835553	Suigen	KR	Korea, (South) Republic of	ASP	37.29111	127.00889	862,933.503	33.403	2.069	
1842485	Goyang	KR	Korea, (South) Republic of	ASP	37.65639	126.835	20,510.304	0.794	0.049	
1897000	Seongnam	KR	Korea, (South) Republic of	ASP	37.43861	127.13778	3,930,774.663	152.156	9.425	
1845457	Jeonju	KR	Korea, (South) Republic of	ASP	35.82194	127.14889	223,712.384	8.66	0.536	
1846918	Ansan	KR	Korea, (South) Republic of	ASP	37.32361	126.82194	238,419.773	9.229	0.572	
1845604	Cheongju	KR	Korea, (South) Republic of	ASP	36.63722	127.48972	114,557.549	4.434	0.275	
1846898	Anyang	KR	Korea, (South) Republic of	ASP	37.3925	126.92694	810,907.367	31.389	1.944	
1846326	Changwon	KR	Korea, (South) Republic of	ASP	35.22806	128.6811	138,669.662	5.368	0.332	
1839071	Hoko	KR	Korea, (South) Republic of	ASP	36.03222	129.365	154,377.553	5.976	0.37	
1843847	Hwaseong	KR	Korea, (South) Republic of	ASP	37.20682	126.8169	300.151	0.012	0.001	
1846266	Jeju	KR	Korea, (South) Republic of	ASP	33.50972	126.52194	42,121.16	1.63	0.101	
1845759	Tenan	KR	Korea, (South) Republic of	ASP	36.8065	127.1522	1,366,686.568	52.903	3.277	
1841245	Masan	KR	Korea, (South) Republic of	ASP	35.20806	128.5725	26,413.269	1.022	0.063	
1846052	Chinju	KR	Korea, (South) Republic of	ASP	35.19278	128.08472	17,208.645	0.666	0.041	
1842225	Kumi	KR	Korea, (South) Republic of	ASP	36.1136	128.336	342,472.044	13.257	0.821	
1843491	Iksan	KR	Korea, (South) Republic of	ASP	35.94389	126.95444	78,639.505	3.044	0.189	
1842025	Kunsan	KR	Korea, (South) Republic of	ASP	35.97861	126.71139	112,656.594	4.361	0.27	
1833105	Wonju	KR	Korea, (South) Republic of	ASP	37.35139	127.94528	277,839.575	10.755	0.666	
1845136	Chuncheon	KR	Korea, (South) Republic of	ASP	37.87472	127.73417	302,551.99	11.711	0.725	
1843702	Ich'on	KR	Korea, (South) Republic of	ASP	37.27917	127.4425	63,131.715	2.444	0.151	
1832847	Yangju	KR	Korea, (South) Republic of	ASP	37.83311	127.06169	46,923.573	1.816	0.113	
1839652	Osan	KR	Korea, (South) Republic of	ASP	37.15222	127.07056	174,087.455	6.739	0.417	
1841603	Kyonju	KR	Korea, (South) Republic of	ASP	35.84278	129.21167	600.302	0.023	0.001	
1842944	Gimcheon	KR	Korea, (South) Republic of	ASP	36.12176	128.11981	1,058,331.663	40.967	2.538	
1841598	Keizan	KR	Korea, (South) Republic of	ASP	35.82333	128.73778	60,830.559	2.355	0.146	
1846986	Andong	KR	Korea, (South) Republic of	ASP	36.56556	128.725	160,680.72	6.22	0.385	

%N/A	N/A	IR	Iran, Islamic Republic of	ASC	N/A	N/A	36,500,000	1,258.147	47.678	
112931	Tehran	IR	Iran, Islamic Republic of	ASC	35.69439	51.42151	22,799,661.621	785.899	29.782	
124665	Mashhad	IR	Iran, Islamic Republic of	ASC	36.297	59.6062	417,328.584	14.385	0.545	
418863	Esfahan	IR	Iran, Islamic Republic of	ASC	32.65722	51.67761	1,933,232.413	66.638	2.525	
128747	Karaj	IR	Iran, Islamic Republic of	ASC	35.8355	51.0103	812,555.654	28.009	1.061	
113646	Tabriz	IR	Iran, Islamic Republic of	ASC	38.08	46.2919	218,414.96	7.529	0.285	
115019	Shiraz	IR	Iran, Islamic Republic of	ASC	29.6036	52.5388	70,204.809	2.42	0.092	
119208	Qom	IR	Iran, Islamic Republic of	ASC	34.6401	50.8764	334,122.885	11.517	0.436	
144448	Ahvaz	IR	Iran, Islamic Republic of	ASC	31.3203	48.6693	770,952.805	26.575	1.007	
143127	Arak	IR	Iran, Islamic Republic of	ASC	34.09174	49.68916	358,824.577	12.369	0.469	
111453	Zanjan	IR	Iran, Islamic Republic of	ASC	36.6736	48.4787	5,200.356	0.179	0.007	
132892	Gorgan	IR	Iran, Islamic Republic of	ASC	36.83866	54.43475	205,414.069	7.081	0.268	
118063	Sabzevar	IR	Iran, Islamic Republic of	ASC	36.2126	57.68191	26,001.781	0.896	0.034	
118994	Rafsanjan	IR	Iran, Islamic Republic of	ASC	30.4067	55.9939	1,199,982.191	41.363	1.567	
121380	Parsabad	IR	Iran, Islamic Republic of	ASC	39.6482	47.9174	4,573,713.268	157.655	5.974	
417594	Shahreza	IR	Iran, Islamic Republic of	ASC	32.03389	51.87944	2,774,390.027	95.633	3.624	

%N/A	N/A	TR	Turkey	ASC	N/A	N/A	36,455,000	1,264.351	101.862	
745044	Istanbul	TR	Turkey	ASC	41.01384	28.94966	15,398,730.11	534.066	43.027	
323786	Ankara	TR	Turkey	ASC	39.91987	32.85427	3,803,741.083	131.923	10.628	
311046	Izmir	TR	Turkey	ASC	38.41273	27.13838	3,422,675.221	118.707	9.564	
750269	Bursa	TR	Turkey	ASC	40.19167	29.06111	2,831,376.497	98.199	7.911	
325363	Adana	TR	Turkey	ASC	37.00167	35.32889	276,601.082	9.593	0.773	
306571	Konya	TR	Turkey	ASC	37.87135	32.48464	32,081.314	1.113	0.09	
6955677	Cankaya	TR	Turkey	ASC	39.9179	32.86268	360,614.024	12.507	1.008	
323777	Antalya	TR	Turkey	ASC	36.90812	30.69556	367,331.049	12.74	1.026	
751324	Bagcilar	TR	Turkey	ASC	41.03903	28.85671	78,298.458	2.716	0.219	
316541	Diyarbakir	TR	Turkey	ASC	37.91583	40.21889	1,804.574	0.063	0.005	
308464	Kayseri	TR	Turkey	ASC	38.73222	35.48528	437,508.924	15.174	1.222	
7627067	Bahcelievler	TR	Turkey	ASC	41.00231	28.8598	85,115.737	2.952	0.238	
738377	Umraniye	TR	Turkey	ASC	41.01643	29.12476	198,001.862	6.867	0.553	
304531	Mercin	TR	Turkey	ASC	36.79526	34.61792	401.016	0.014	0.001	
747340	Esenler	TR	Turkey	ASC	41.0435	28.87619	754,813.173	26.179	2.109	
315202	Eskisehir	TR	Turkey	ASC	39.77667	30.52056	28,973.437	1.005	0.081	
7701384	Karabaglar	TR	Turkey	ASC	38.37396	27.1352	290,335.895	10.07	0.811	
298333	Sanliurfa	TR	Turkey	ASC	37.16708	38.79392	87,321.327	3.029	0.244	
741763	Maltepe	TR	Turkey	ASC	40.93567	29.15507	1,036,025.944	35.932	2.895	
315368	Erzurum	TR	Turkey	ASC	39.90861	41.27694	1,403.558	0.049	0.004	
740264	Samsun	TR	Turkey	ASC	41.28667	36.33	48,322.48	1.676	0.135	
310859	Kahramanmaras	TR	Turkey	ASC	37.5847	36.9264	409,638.282	14.207	1.145	
298117	Van	TR	Turkey	ASC	38.49239	43.38311	1,018,982.746	35.341	2.847	
739549	Sisli	TR	Turkey	ASC	41.06046	28.98717	693,156.897	24.04	1.937	
317109	Denizli	TR	Turkey	ASC	37.77417	29.0875	1,194,126.671	41.415	3.337	
442301	Batikent	TR	Turkey	ASC	39.96833	32.73083	144,666.677	5.017	0.404	
737071	Zeytinburnu	TR	Turkey	ASC	40.99441	28.90417	146,671.759	5.087	0.41	
752850	Adapazari	TR	Turkey	ASC	40.78056	30.40333	295,950.125	10.264	0.827	
747014	Gebze	TR	Turkey	ASC	40.80276	29.43068	211,335.658	7.33	0.591	
738648	Trabzon	TR	Turkey	ASC	41.005	39.72694	8,822.361	0.306	0.025	
304827	Manisa	TR	Turkey	ASC	38.61202	27.42646	288,130.304	9.993	0.805	
7628420	Sancaktepe	TR	Turkey	ASC	41.00244	29.23187	7,218.296	0.25	0.02	
322165	Balikesir	TR	Turkey	ASC	39.64917	27.88611	182,061.459	6.314	0.509	
325330	Adiyaman	TR	Turkey	ASC	37.76441	38.27629	300.762	0.01	0.001	
307654	Kirikkale	TR	Turkey	ASC	39.84528	33.50639	10,626.935	0.369	0.03	
748893	Corlu	TR	Turkey	ASC	41.15917	27.8	48,723.496	1.69	0.136	
745028	Izmit	TR	Turkey	ASC	40.76694	29.91694	54,738.743	1.898	0.153	
305268	Kutahya	TR	Turkey	ASC	39.42417	29.98333	153,689.546	5.33	0.429	
748879	Corum	TR	Turkey	ASC	40.54889	34.95333	122,610.773	4.252	0.343	
322830	Aydin	TR	Turkey	ASC	37.84501	27.83963	60,252.718	2.09	0.168	
323779	Antioch	TR	Turkey	ASC	36.20655	36.15722	12,632.018	0.438	0.035	
324496	Aksaray	TR	Turkey	ASC	38.37255	34.02537	739,975.566	25.664	2.068	
325303	Afyonkarahisar	TR	Turkey	ASC	38.75667	30.54333	53,836.456	1.867	0.15	
745169	Inegeul	TR	Turkey	ASC	40.07806	29.51333	58,648.653	2.034	0.164	
738743	Tokat	TR	Turkey	ASC	40.31389	36.55444	98,549.787	3.418	0.275	
747712	Edirne	TR	Turkey	ASC	41.67719	26.55597	299,158.256	10.376	0.836	
738927	Tekirdag	TR	Turkey	ASC	40.97801	27.50852	75,691.851	2.625	0.211	
303873	Nazilli	TR	Turkey	ASC	37.91631	28.32225	6,616.771	0.229	0.018	
741100	Ordu	TR	Turkey	ASC	40.98472	37.87889	156,897.678	5.442	0.438	
300822	Siirt	TR	Turkey	ASC	37.93262	41.94025	101,657.665	3.526	0.284	
315373	Erzincan	TR	Turkey	ASC	39.75222	39.49278	81,205.827	2.816	0.227	
738618	Turhal	TR	Turkey	ASC	40.3875	36.08111	167,725.121	5.817	0.469	
737022	Zonguldak	TR	Turkey	ASC	41.45139	31.79305	9,223.378	0.32	0.026	

%N/A	N/A	IT	Italy	EUW	N/A	N/A	35,800,000	1,469.091	1,557.654	
3169070	Roma	IT	Italy	EUW	41.89474	12.4839	4,683,380.367	192.187	203.773	
3173435	Milan	IT	Italy	EUW	45.46427	9.18951	12,991,641.182	533.126	565.265	
3172394	Napoli	IT	Italy	EUW	40.83333	14.25	1,013,299.354	41.582	44.089	
3165524	Torino	IT	Italy	EUW	45.07049	7.68682	2,374,086.056	97.423	103.296	
2523920	Palermo	IT	Italy	EUW	38.11582	13.35976	90,945.33	3.732	3.957	
3176219	Genova	IT	Italy	EUW	44.40632	8.93386	1,097,554.232	45.039	47.754	
3176959	Florence	IT	Italy	EUW	43.76667	11.25	1,347,213.727	55.284	58.617	
3181928	Bologna	IT	Italy	EUW	44.49381	11.33875	1,289,592.61	52.92	56.11	
3182351	Bari	IT	Italy	EUW	41.11773	16.85118	421,466.459	17.295	18.338	
2525068	Catania	IT	Italy	EUW	37.50213	15.08719	621,475.759	25.503	27.04	
3164603	Venice	IT	Italy	EUW	45.43861	12.32667	279,910.582	11.486	12.179	
3164527	Verona	IT	Italy	EUW	45.43419	10.99779	301,742.583	12.382	13.129	
2524170	Messina	IT	Italy	EUW	38.19327	15.54969	63,223.17	2.594	2.751	
3165185	Trieste	IT	Italy	EUW	45.64861	13.78	397,777.778	16.323	17.307	
3171728	Padova	IT	Italy	EUW	45.41519	11.88181	1,096,113.704	44.98	47.692	
3165926	Taranto	IT	Italy	EUW	40.47611	17.22972	24,649.033	1.011	1.072	
3181554	Brescia	IT	Italy	EUW	45.52478	10.22727	206,539.693	8.476	8.987	
2523630	Reggio di Calabria	IT	Italy	EUW	38.11047	15.66129	43,311.873	1.777	1.884	
3173529	Mestre	IT	Italy	EUW	45.49028	12.2425	336,091.171	13.792	14.623	
3173331	Modena	IT	Italy	EUW	44.64783	10.92539	104,294.222	4.28	4.538	
3169921	Prato	IT	Italy	EUW	43.88425	11.09092	125,550.012	5.152	5.463	
2525473	Cagliari	IT	Italy	EUW	39.20738	9.13462	218,928.233	8.984	9.526	
3171457	Parma	IT	Italy	EUW	44.80266	10.32898	174,495.949	7.161	7.592	
3174659	Livorno	IT	Italy	EUW	43.54264	10.316	825,998.712	33.896	35.939	
3176885	Foggia	IT	Italy	EUW	41.46093	15.54925	24,296.904	0.997	1.057	
3171180	Perugia	IT	Italy	EUW	43.1122	12.38878	1,454,004.864	59.667	63.264	
3168673	Salerno	IT	Italy	EUW	40.67797	14.76599	182,178.765	7.476	7.927	
3169561	Ravenna	IT	Italy	EUW	44.4175	12.20111	157,177.603	6.45	6.839	
3177090	Ferrara	IT	Italy	EUW	44.82678	11.62071	102,309.494	4.198	4.451	
3169361	Rimini	IT	Italy	EUW	44.06333	12.58083	292,139.063	11.988	12.711	
2523083	Siracusa	IT	Italy	EUW	37.08515	15.273	181,442.495	7.446	7.895	
3167096	Sassari	IT	Italy	EUW	40.72722	8.56028	39,854.606	1.635	1.734	
3172629	Monza	IT	Italy	EUW	45.58248	9.27485	759,766.44	31.178	33.057	
3171168	Pescara	IT	Italy	EUW	42.46024	14.21021	33,420.248	1.371	1.454	
3182164	Bergamo	IT	Italy	EUW	45.69798	9.66895	496,405.923	20.371	21.599	
3176746	Forli	IT	Italy	EUW	44.22361	12.05278	135,089.508	5.544	5.878	
3175058	Latina	IT	Italy	EUW	41.46614	12.9043	394,576.605	16.192	17.168	
3164419	Vicenza	IT	Italy	EUW	45.55729	11.5409	119,243.7	4.893	5.188	
3165771	Terni	IT	Italy	EUW	42.56713	12.64987	272,291.79	11.174	11.847	
3165243	Trento	IT	Italy	EUW	46.06787	11.12108	431,390.096	17.703	18.77	
3172189	Novara	IT	Italy	EUW	45.44056	8.61684	505,881.396	20.759	22.011	
3183089	Ancona	IT	Italy	EUW	43.59816	13.51008	89,248.708	3.662	3.883	

%N/A	N/A	PH	Philippines	ASP	N/A	N/A	33,600,000	1,119.107	404.244	
1701668	Manila	PH	Philippines	ASP	14.6042	120.9822	5,272,806.698	175.62	63.437	
1715348	Davao	PH	Philippines	ASP	7.07306	125.61278	86,639.971	2.886	1.042	
1717512	Cebu City	PH	Philippines	ASP	10.31672	123.89071	2,290,353.112	76.284	27.555	
1701966	Mandaluyong City	PH	Philippines	ASP	14.5832	121.0409	19,471,568.984	648.535	234.264	
1684269	Tagum	PH	Philippines	ASP	7.44778	125.80778	255,842.738	8.521	3.078	
1705357	Lucena	PH	Philippines	ASP	13.93139	121.61722	294,575.901	9.811	3.544	
1697175	Olongapo	PH	Philippines	ASP	14.82917	120.28278	1,361,776.483	45.356	16.384	
1695743	Panalanoy	PH	Philippines	ASP	11.25111	125.00639	1,745,030.943	58.121	20.995	
1706889	Legaspi	PH	Philippines	ASP	13.13722	123.73444	946,923.917	31.539	11.393	
1699054	Muricay	PH	Philippines	ASP	7.8275	123.4782	1,452,493.629	48.378	17.475	
1700360	Mati	PH	Philippines	ASP	6.95508	126.21655	95,813.615	3.191	1.153	
1680197	Urdaneta	PH	Philippines	ASP	15.97611	120.57111	326,174.008	10.864	3.924	

%N/A	N/A	VN	Viet Nam	ASP	N/A	N/A	30,858,742	900.889	19.079	
1566083	Thanh pho Ho Chi Minh	VN	Viet Nam	ASP	10.75	106.66667	1,597,034.375	46.624	0.987	
1581130	Ha Noi	VN	Viet Nam	ASP	21.0245	105.84117	25,251,002.984	737.176	15.612	
1572151	Nha Trang	VN	Viet Nam	ASP	12.25	109.18333	2,060,355.53	60.15	1.274	
1566319	Thai Nguyen	VN	Viet Nam	ASP	21.59278	105.84417	1,950,349.111	56.938	1.206	

%N/A	N/A	ES	Spain	EUW	N/A	N/A	30,654,678	3,838.096	3,947.232	
3117735	Madrid	ES	Spain	EUW	40.4165	-3.70256	15,748,517.846	1,971.782	2,027.849	
2509954	Valencia	ES	Spain	EUW	39.46975	-0.37739	1,641,415.554	205.512	211.356	
2510911	Sevilla	ES	Spain	EUW	37.38241	-5.97613	109,689.85	13.734	14.124	
3104324	Zaragoza	ES	Spain	EUW	41.65606	-0.87734	356,960.674	44.693	45.964	
2514256	Malaga	ES	Spain	EUW	36.72016	-4.42034	49,335.285	6.177	6.353	
2513416	Murcia	ES	Spain	EUW	37.98704	-1.13004	168,626.997	21.113	21.713	
2512989	Palma	ES	Spain	EUW	39.56939	2.65024	229,530.24	28.738	29.555	
2515270	Las Palmas de Gran Canaria	ES	Spain	EUW	28.09973	-15.41343	14,082.732	1.763	1.813	
3128026	Bilbao	ES	Spain	EUW	43.26271	-2.92528	282,111.869	35.322	36.326	
2521978	Alicante	ES	Spain	EUW	38.34517	-0.48149	76,403.393	9.566	9.838	
2519240	Cordoba	ES	Spain	EUW	37.88333	-4.76667	2,514.774	0.315	0.324	
3106672	Valladolid	ES	Spain	EUW	41.65518	-4.72372	50,752.702	6.354	6.535	
3105976	Vigo	ES	Spain	EUW	42.23282	-8.72264	171,233.217	21.439	22.049	
3120619	L'Hospitalet de Llobregat	ES	Spain	EUW	41.35967	2.10028	148,005.854	18.531	19.058	
3119841	A Coruna	ES	Spain	EUW	43.37135	-8.396	161,219.846	20.185	20.759	
2517117	Granada	ES	Spain	EUW	37.18817	-3.60667	196,975.353	24.662	25.363	
2518559	Elche	ES	Spain	EUW	38.26218	-0.70107	228,798.669	28.647	29.461	
3114711	Oviedo	ES	Spain	EUW	43.36029	-5.84476	143,113.476	17.918	18.428	
2511174	Santa Cruz de Tenerife	ES	Spain	EUW	28.46824	-16.25462	33,332.18	4.173	4.292	
3108286	Terrassa	ES	Spain	EUW	41.56667	2.01667	761,427.706	95.334	98.045	
3111199	Sabadell	ES	Spain	EUW	41.54329	2.10942	103,151.438	12.915	13.282	
3116025	Mostoles	ES	Spain	EUW	40.32234	-3.86496	75,534.653	9.457	9.726	
3114472	Pamplona	ES	Spain	EUW	42.81687	-1.64323	108,226.709	13.55	13.936	
2521886	Almeria	ES	Spain	EUW	36.83814	-2.45974	61,771.983	7.734	7.954	
3110044	San Sebastian	ES	Spain	EUW	43.31283	-1.97499	75,991.884	9.515	9.785	
3109718	Santander	ES	Spain	EUW	43.46472	-3.80444	110,101.358	13.785	14.177	
2519752	Castello de la Plana	ES	Spain	EUW	39.98333	-0.03333	213,892.921	26.78	27.542	
3127461	Burgos	ES	Spain	EUW	42.35	-3.7	170,410.2	21.336	21.943	
2522258	Albacete	ES	Spain	EUW	38.98333	-1.85	48,512.268	6.074	6.247	
3121437	Getafe	ES	Spain	EUW	40.30571	-3.73295	7,224.259	0.905	0.93	
3111108	Salamanca	ES	Spain	EUW	40.96667	-5.65	72,334.032	9.057	9.314	
3118150	Logrono	ES	Spain	EUW	42.46667	-2.45	475,383.646	59.52	61.213	
2511401	La Laguna	ES	Spain	EUW	28.4853	-16.32014	413,017.262	51.712	53.182	
2516548	Huelva	ES	Spain	EUW	37.25833	-6.95083	80,792.816	10.116	10.403	
2521420	Badajoz	ES	Spain	EUW	38.87789	-6.97061	152,806.785	19.132	19.676	
3108288	Tarragona	ES	Spain	EUW	41.11667	1.25	72,334.032	9.057	9.314	
3118514	Lleida	ES	Spain	EUW	41.61667	0.61667	73,202.772	9.165	9.426	
3118532	Leon	ES	Spain	EUW	42.6	-5.56667	62,732.169	7.854	8.078	
3117164	Mataro	ES	Spain	EUW	41.54211	2.4445	141,513.166	17.718	18.222	
2522013	Algeciras	ES	Spain	EUW	36.13326	-5.45051	283,072.055	35.442	36.45	
3114256	Parla	ES	Spain	EUW	40.23604	-3.76752	144,302.278	18.067	18.581	
6544106	Ciutat Vella	ES	Spain	EUW	41.38022	2.17319	6,773,611.127	848.085	872.2	
3130583	Alcobendas	ES	Spain	EUW	40.54746	-3.64197	234,742.68	29.391	30.227	
3114965	Ourense	ES	Spain	EUW	42.33333	-7.85	119,154.543	14.919	15.343	
3111933	Reus	ES	Spain	EUW	41.15612	1.10687	6,812.75	0.853	0.877	

%N/A	N/A	PK	Pakistan	ASS	N/A	N/A	29,128,970	845.995	26.681	
1174872	Karachi	PK	Pakistan	ASS	24.9056	67.0822	9,304,024.825	270.217	8.522	
1172451	Lahore	PK	Pakistan	ASS	31.54972	74.34361	7,271,510.676	211.187	6.66	
1166993	Rawalpindi	PK	Pakistan	ASS	33.6007	73.0679	7,725,046.891	224.359	7.076	
1169825	Multan	PK	Pakistan	ASS	30.19556	71.47528	1,866.404	0.054	0.002	
1168197	Peshawar	PK	Pakistan	ASS	34.008	71.57849	558,054.849	16.208	0.511	
1176615	Islamabad	PK	Pakistan	ASS	33.72148	73.04329	4,268,466.354	123.969	3.91	

%N/A	N/A	AR	Argentina	SAE	N/A	N/A	28,000,000	1,136.065	680.964	
3435910	Buenos Aires	AR	Argentina	SAE	-34.61315	-58.37723	18,339,163.23	744.088	446.011	
3860259	Cordoba	AR	Argentina	SAE	-31.4135	-64.18105	1,392,712.997	56.508	33.871	
3838583	Rosario	AR	Argentina	SAE	-32.94682	-60.63932	830,131.669	33.682	20.189	
3844421	Mendoza	AR	Argentina	SAE	-32.89084	-68.82717	708,630.158	28.752	17.234	
3836873	San Miguel de Tucuman	AR	Argentina	SAE	-26.82414	-65.2226	5,557.884	0.226	0.135	
3432043	La Plata	AR	Argentina	SAE	-34.92145	-57.95453	307,381.84	12.472	7.476	
3430863	Mar del Plata	AR	Argentina	SAE	-38.00228	-57.55754	330,694.074	13.417	8.043	
3429652	Quilmes	AR	Argentina	SAE	-34.72418	-58.25265	1,035,001.434	41.994	25.171	
3836277	Santa Fe de la Vera Cruz	AR	Argentina	SAE	-31.63333	-60.7	210,582.034	8.544	5.121	
3429577	Resistencia	AR	Argentina	SAE	-27.46056	-58.98389	498,511.281	20.226	12.124	
3835869	Santiago del Estero	AR	Argentina	SAE	-27.79511	-64.26149	154.386	0.006	0.004	
3435217	Corrientes	AR	Argentina	SAE	-27.4806	-58.8341	343,816.855	13.95	8.362	
3430545	Moron	AR	Argentina	SAE	-34.65344	-58.61975	1,260,867.647	51.158	30.664	
3865086	Bahia Blanca	AR	Argentina	SAE	-38.7196	-62.27243	271,564.368	11.018	6.604	
3843123	Neuquen	AR	Argentina	SAE	-38.95161	-68.0591	409,585.144	16.618	9.961	
3433899	Formosa	AR	Argentina	SAE	-26.17753	-58.17814	115,634.856	4.692	2.812	
3837056	San Luis	AR	Argentina	SAE	-33.29501	-66.33563	461,767.495	18.736	11.23	
3838874	Rio Cuarto	AR	Argentina	SAE	-33.13067	-64.34992	447,100.858	18.141	10.874	
3435261	Concordia	AR	Argentina	SAE	-31.39296	-58.02089	78,736.684	3.195	1.915	
3860443	Comodoro Rivadavia	AR	Argentina	SAE	-45.86667	-67.5	404,181.646	16.399	9.83	
3836846	San Nicolas de los Arroyos	AR	Argentina	SAE	-33.33578	-60.22523	325,908.118	13.223	7.926	
3835994	Santa Rosa	AR	Argentina	SAE	-36.61667	-64.28333	222,315.344	9.02	5.407	

%N/A	N/A	CA	Canada	NAN	N/A	N/A	27,757,540	3,079.111	4,886.774	
6167865	Toronto	CA	Canada	NAN	43.70011	-79.4163	3,831,040.952	424.973	674.463	
6077243	Montreal	CA	Canada	NAN	45.50884	-73.58781	5,566,937.462	617.534	980.071	
6173331	Vancouver	CA	Canada	NAN	49.24966	-123.11934	2,403,795.229	266.65	423.193	
5913490	Calgary	CA	Canada	NAN	51.05011	-114.08529	1,827,714.118	202.746	321.773	
6094817	Ottawa	CA	Canada	NAN	45.41117	-75.69812	888,486.674	98.559	156.42	
5946768	Edmonton	CA	Canada	NAN	53.55014	-113.46871	836,925.188	92.839	147.342	
6075357	Mississauga	CA	Canada	NAN	43.5789	-79.6583	395,215.812	43.841	69.579	
6091104	North York	CA	Canada	NAN	43.76681	-79.4163	568,120.165	63.021	100.019	
6183235	Winnipeg	CA	Canada	NAN	49.8844	-97.14704	417,662.396	46.331	73.53	
6325494	Quebec	CA	Canada	NAN	46.81228	-71.21454	704,297.475	78.127	123.993	
5969785	Hamilton	CA	Canada	NAN	43.23341	-79.94964	49,160.891	5.453	8.655	
5907364	Brampton	CA	Canada	NAN	43.68341	-79.76633	115,064.39	12.764	20.257	
5992996	Kitchener	CA	Canada	NAN	43.42537	-80.5112	715,089.891	79.324	125.893	
6159905	Surrey	CA	Canada	NAN	49.10635	-122.82509	64,344.138	7.138	11.328	
6050610	Laval	CA	Canada	NAN	45.56995	-73.692	578,399.634	64.161	101.828	
6324729	Halifax	CA	Canada	NAN	44.64533	-63.57239	303,788.045	33.699	53.483	
5950267	Etobicoke	CA	Canada	NAN	43.65421	-79.56711	468,259.54	51.943	82.438	
6058560	London	CA	Canada	NAN	42.98339	-81.23304	342,628.432	38.007	60.32	
7281931	Okanagan	CA	Canada	NAN	50.36386	-119.34997	114,695.068	12.723	20.192	
6174041	Victoria	CA	Canada	NAN	48.43294	-123.3693	454,492.029	50.416	80.014	
6182962	Windsor	CA	Canada	NAN	42.30008	-83.01654	205,240.565	22.767	36.133	
6066513	Markham	CA	Canada	NAN	43.86682	-79.2663	360,150.719	39.951	63.405	
6094578	Oshawa	CA	Canada	NAN	43.90012	-78.84957	177,808.131	19.724	31.303	
5959974	Gatineau	CA	Canada	NAN	45.47723	-75.70164	111,740.49	12.395	19.672	
6173577	Vaughan	CA	Canada	NAN	43.8361	-79.49827	319,956.151	35.492	56.329	
6059891	Longueuil	CA	Canada	NAN	45.53121	-73.51806	354,610.886	39.337	62.43	
5911606	Burnaby	CA	Canada	NAN	49.26636	-122.95263	673,192.337	74.676	118.517	
7602078	Ladner	CA	Canada	NAN	49.08938	-123.08241	32,602.945	3.617	5.74	
6141256	Saskatoon	CA	Canada	NAN	52.11679	-106.63452	275,268.162	30.535	48.462	
6122091	Richmond Hill	CA	Canada	NAN	43.87111	-79.43725	196,725.636	21.823	34.634	
5894171	Barrie	CA	Canada	NAN	44.40011	-79.66634	141,819.733	15.732	24.968	
6122085	Richmond	CA	Canada	NAN	49.17003	-123.13683	327,527.256	36.332	57.662	
6119109	Regina	CA	Canada	NAN	50.45008	-104.6178	284,172.931	31.523	50.029	
6092122	Oakville	CA	Canada	NAN	43.45011	-79.68292	59,768.646	6.63	10.522	
5911592	Burlington	CA	Canada	NAN	43.38621	-79.83713	154,828.082	17.175	27.258	
5964700	Greater Sudbury	CA	Canada	NAN	46.49	-80.99001	224,855.679	24.943	39.586	
5881791	Abbotsford	CA	Canada	NAN	49.05798	-122.25257	182,999.16	20.3	32.217	
6137270	Saguenay	CA	Canada	NAN	48.41675	-71.06573	89,417.013	9.919	15.742	
6155721	St. Catharines	CA	Canada	NAN	43.16681	-79.24958	172,678.656	19.155	30.4	
6146143	Sherbrooke	CA	Canada	NAN	45.40008	-71.89908	164,512.532	18.249	28.963	
6325521	Levis	CA	Canada	NAN	46.80326	-71.17793	186,425.65	20.68	32.821	
5990579	Kelowna	CA	Canada	NAN	49.88307	-119.48568	990,994.108	109.93	174.467	
5913695	Cambridge	CA	Canada	NAN	43.3601	-80.31269	17,296.591	1.919	3.045	
6169141	Trois-Rivieres	CA	Canada	NAN	46.35006	-72.54912	257,314.998	28.544	45.301	
5967629	Guelph	CA	Canada	NAN	43.5501	-80.24967	291,969.734	32.388	51.402	
5927689	Coquitlam	CA	Canada	NAN	49.28297	-122.75262	34,429.038	3.819	6.061	
5992500	Kingston	CA	Canada	NAN	44.22976	-76.48098	205,589.37	22.806	36.194	
5920450	Chatham-Kent	CA	Canada	NAN	42.40009	-82.1831	111,884.115	12.411	19.697	
6354908	Sydney	CA	Canada	NAN	46.1351	-60.1831	143,358.575	15.903	25.239	
5935277	Dartmouth	CA	Canada	NAN	44.67134	-63.57719	362,284.581	40.188	63.781	

%N/A	N/A	CO	Colombia	SAW	N/A	N/A	25,000,000	1,118.454	338.827	
3688689	Bogota	CO	Colombia	SAW	4.60971	-74.08175	10,059,891.551	450.061	136.343	
3687925	Cali	CO	Colombia	SAW	3.43722	-76.5225	1,047,268.768	46.853	14.194	
3674962	Medellin	CO	Colombia	SAW	6.25184	-75.56359	2,894,017.512	129.473	39.223	
3689147	Barranquilla	CO	Colombia	SAW	10.96389	-74.79639	6,666.963	0.298	0.09	
3687238	Cartagena	CO	Colombia	SAW	10.39972	-75.51444	57,224.766	2.56	0.776	
3685533	Cucuta	CO	Colombia	SAW	7.89391	-72.50782	72,781.012	3.256	0.986	
3688465	Bucaramanga	CO	Colombia	SAW	7.12539	-73.1198	1,377,839.015	61.642	18.674	
3672486	Pereira	CO	Colombia	SAW	4.81333	-75.69611	2,194,541.98	98.18	29.743	
3665900	Villavicencio	CO	Colombia	SAW	4.142	-73.62664	4,876,883.417	218.183	66.097	
3680450	Itagui	CO	Colombia	SAW	6.17194	-75.61139	2,222.321	0.099	0.03	
3671916	Popayan	CO	Colombia	SAW	2.43823	-76.61316	1,099,493.311	49.189	14.902	
3682385	Floridablanca	CO	Colombia	SAW	7.06222	-73.08644	1,311,169.385	58.659	17.77	

%N/A	N/A	PL	Poland	EUE	N/A	N/A	23,852,486	868.795	1,071.525	
756135	Warsaw	PL	Poland	EUE	52.22977	21.01178	6,955,647.293	253.35	312.469	
3093133	Lodz	PL	Poland	EUE	51.75	19.46667	1,194,568.446	43.511	53.664	
3094802	Krakow	PL	Poland	EUE	50.08333	19.91667	1,746,691.879	63.621	78.467	
3081368	Wroclaw	PL	Poland	EUE	51.1	17.03333	1,616,653.811	58.884	72.625	
3088171	Poznan	PL	Poland	EUE	52.40692	16.92993	1,651,559.863	60.156	74.193	
3099434	Gdansk	PL	Poland	EUE	54.35205	18.64637	1,504,468.193	54.798	67.585	
3083829	Szczecin	PL	Poland	EUE	53.42894	14.55302	480,922.034	17.517	21.604	
3102014	Bydgoszcz	PL	Poland	EUE	53.1235	18.00762	360,174.881	13.119	16.18	
765876	Lublin	PL	Poland	EUE	51.25	22.56667	876,784.446	31.936	39.388	
3096472	Katowice	PL	Poland	EUE	50.25842	19.02754	718,925.735	26.186	32.296	
776069	Bialystok	PL	Poland	EUE	53.13333	23.15	334,889.702	12.198	15.044	
3099424	Gdynia	PL	Poland	EUE	54.51889	18.53188	383,845.005	13.981	17.243	
3100946	Czestochowa	PL	Poland	EUE	50.79646	19.12409	207,109.24	7.544	9.304	
3085128	Sosnowiec	PL	Poland	EUE	50.28682	19.10385	161,800.837	5.893	7.269	
760778	Radom	PL	Poland	EUE	51.40253	21.14714	208,047.014	7.578	9.346	
3083271	Torun	PL	Poland	EUE	53.01375	18.59814	356,545.347	12.987	16.017	
769250	Kielce	PL	Poland	EUE	50.87033	20.62752	231,838.701	8.444	10.415	
3099230	Gliwice	PL	Poland	EUE	50.29761	18.67658	329,558.28	12.004	14.805	
3080985	Zabrze	PL	Poland	EUE	50.32492	18.78576	116,145.111	4.23	5.218	
3101950	Bytom	PL	Poland	EUE	50.34802	18.93282	168,504.189	6.138	7.57	
3103402	Bielsko-Biala	PL	Poland	EUE	49.82245	19.04686	542,363.632	19.755	24.365	
763166	Olsztyn	PL	Poland	EUE	53.77995	20.49416	296,354.115	10.794	13.313	
759734	Rzeszow	PL	Poland	EUE	50.04132	21.99901	685,304.781	24.961	30.786	
3086800	Ruda Slaska	PL	Poland	EUE	50.2584	18.85632	28,706.32	1.046	1.29	
3086586	Rybnik	PL	Poland	EUE	50.09713	18.54179	75,525.581	2.751	3.393	
3100796	Dabrowa Gornicza	PL	Poland	EUE	50.31818	19.2374	247,746.136	9.024	11.13	
3082914	Tychy	PL	Poland	EUE	50.13717	18.96641	82,350.496	3	3.699	
3090048	Opole	PL	Poland	EUE	50.66667	17.95	307,920.001	11.216	13.833	
3099759	Elblag	PL	Poland	EUE	54.1522	19.40884	61,267.935	2.232	2.752	
3088825	Plock	PL	Poland	EUE	52.54682	19.70638	64,498.048	2.349	2.897	
3082707	Walbrzych	PL	Poland	EUE	50.77141	16.28432	500,441.637	18.228	22.481	
3098722	Gorzow Wielkopolski	PL	Poland	EUE	52.73679	15.22878	98,466.325	3.587	4.423	
3081741	Wloclawek	PL	Poland	EUE	52.64817	19.0678	38,830.812	1.414	1.744	
3080165	Zielona Gora	PL	Poland	EUE	51.93548	15.50643	160,481.007	5.845	7.209	
757026	Tarnow	PL	Poland	EUE	50.01381	20.98698	234,478.363	8.541	10.533	
3101619	Chorzow	PL	Poland	EUE	50.30582	18.9742	93,082.804	3.39	4.182	
3096880	Kalisz	PL	Poland	EUE	51.76109	18.09102	99,543.029	3.626	4.472	
3095049	Koszalin	PL	Poland	EUE	54.19438	16.17222	406,056.368	14.79	18.241	
3093692	Legnica	PL	Poland	EUE	51.21006	16.1619	224,388.604	8.173	10.08	

%N/A	N/A	EG	Egypt	AFR	N/A	N/A	21,691,776	455.964	24.218	
360630	Cairo	EG	Egypt	AFR	30.06263	31.24967	16,050,182.023	337.377	17.919	
361058	Alexandria	EG	Egypt	AFR	31.21564	29.95527	5,349,494.59	112.447	5.972	
352951	Mallawi	EG	Egypt	AFR	27.7314	30.84165	292,099.387	6.14	0.326	

%N/A	N/A	AU	Australia	OCE	N/A	N/A	19,554,832	1,583.217	1,290.751	
2147714	Sydney	AU	Australia	OCE	-33.86785	151.20732	7,075,163.942	572.826	467.009	
2158177	Melbourne	AU	Australia	OCE	-37.814	144.96332	4,943,897.628	400.273	326.331	
2063523	Perth	AU	Australia	OCE	-31.95224	115.8614	1,755,645.021	142.142	115.884	
2078025	Adelaide	AU	Australia	OCE	-34.92866	138.59863	1,204,900.353	97.552	79.532	
2174003	Brisbane	AU	Australia	OCE	-27.46794	153.02809	2,189,198.344	177.244	144.502	
2165087	Gold Coast	AU	Australia	OCE	-28.00029	153.43088	349,973.487	28.335	23.101	
2155472	Newcastle	AU	Australia	OCE	-32.92715	151.77647	123,476.424	9.997	8.15	
2172517	Canberra	AU	Australia	OCE	-35.28346	149.12807	1,174,568.016	95.096	77.529	
2171507	Wollongong	AU	Australia	OCE	-34.424	150.89345	80,183.552	6.492	5.293	
7281838	Logan City	AU	Australia	OCE	-27.63917	153.10944	60,118.145	4.867	3.968	
7280463	North Shore	AU	Australia	OCE	-31.40237	152.90186	25,803.957	2.089	1.703	
2165798	Geelong	AU	Australia	OCE	-38.14711	144.36069	266,276.537	21.559	17.576	
2165796	Geelong West	AU	Australia	OCE	-38.13333	144.35	16,552.009	1.34	1.093	
7302259	City of Parramatta	AU	Australia	OCE	-33.81667	151.0	199,209.671	16.129	13.149	
2178174	Albury	AU	Australia	OCE	-36.07494	146.92393	89,864.915	7.276	5.932	

%N/A	N/A	TH	Thailand	ASP	N/A	N/A	18,310,000	324.927	14.684	
1609350	Bangkok	TH	Thailand	ASP	13.75398	100.50144	16,375,727.684	290.601	13.133	
1606590	Samut Prakan	TH	Thailand	ASP	13.59934	100.59675	74,512.307	1.322	0.06	
1608133	Mueang Nonthaburi	TH	Thailand	ASP	13.86075	100.51477	63,316.802	1.124	0.051	
1153671	Chiang Mai	TH	Thailand	ASP	18.79038	98.98468	501,061.056	8.892	0.402	
1610780	Hat Yai	TH	Thailand	ASP	7.00836	100.47668	135,527.81	2.405	0.109	
1608048	Pak Kret	TH	Thailand	ASP	13.91301	100.49883	21,022.671	0.373	0.017	
1152473	Lampang	TH	Thailand	ASP	18.29232	99.49277	101,816.9	1.807	0.082	
1609776	Khon Kaen	TH	Thailand	ASP	16.44671	102.833	435.381	0.008	0	
1613769	Ban Rangsit	TH	Thailand	ASP	14.02775	100.75603	134,968.035	2.395	0.108	
1605245	Ubon Ratchathani	TH	Thailand	ASP	15.23844	104.84866	376,355.567	6.679	0.302	
1609899	Khlong Luang	TH	Thailand	ASP	14.06467	100.64578	462,125.577	8.201	0.371	
1608534	Nakhon Pathom	TH	Thailand	ASP	13.8196	100.04427	60,642.32	1.076	0.049	
1607708	Phitsanulok	TH	Thailand	ASP	16.82481	100.25858	2,487.89	0.044	0.002	

%N/A	N/A	MY	Malaysia	ASP	N/A	N/A	17,723,000	313.151	12.707	
1735161	Kuala Lumpur	MY	Malaysia	ASP	3.1412	101.68653	9,627,179.278	170.105	6.903	
1732752	Johor Bahru	MY	Malaysia	ASP	1.4655	103.7578	280,781.146	4.961	0.201	
1734634	Ipoh	MY	Malaysia	ASP	4.5841	101.0829	357,766.075	6.321	0.257	
1735158	Petaling Jaya	MY	Malaysia	ASP	3.10726	101.60671	4,117,838.339	72.759	2.952	
1732903	Shah Alam	MY	Malaysia	ASP	3.08507	101.53281	1,639,137.457	28.962	1.175	
1733432	Kota Kinabalu	MY	Malaysia	ASP	5.9749	116.0724	175,568.409	3.102	0.126	
1735227	Kuantan	MY	Malaysia	ASP	3.8077	103.326	276,290.358	4.882	0.198	
1735106	George Town	MY	Malaysia	ASP	5.41123	100.33543	304,945.86	5.388	0.219	
1736376	Kota Bharu	MY	Malaysia	ASP	6.13328	102.2386	88,532.669	1.564	0.063	
1738050	Miri	MY	Malaysia	ASP	4.4148	114.0089	296,391.978	5.237	0.213	
1735902	Sibu	MY	Malaysia	ASP	2.3	111.81667	10,692.351	0.189	0.008	
1735150	Rawang	MY	Malaysia	ASP	3.3213	101.5767	547,876.081	9.681	0.393	

%N/A	N/A	TW	Taiwan	ASP	N/A	N/A	16,147,000	258.916	25.389	
1668341	Taipei	TW	Taiwan	ASP	25.04776	121.53185	9,144,233.014	146.627	14.378	
1673820	Kaohsiung	TW	Taiwan	ASP	22.61626	120.31333	494,061.575	7.922	0.777	
1668399	Taichung	TW	Taiwan	ASP	24.1469	120.6839	2,968,529.897	47.6	4.668	
1668355	Tainan	TW	Taiwan	ASP	22.99083	120.21333	710,238.476	11.389	1.117	
1670029	Banqiao	TW	Taiwan	ASP	25.01427	121.46719	372,876.032	5.979	0.586	
1675151	Hsinchu	TW	Taiwan	ASP	24.80361	120.96861	435,216.192	6.979	0.684	
6696918	Taoyuan City	TW	Taiwan	ASP	24.99368	121.29696	914,400.003	14.662	1.438	
1678228	Keelung	TW	Taiwan	ASP	25.12825	121.7419	84,107.626	1.349	0.132	
1674504	Hualian	TW	Taiwan	ASP	23.97694	121.60444	222,633.918	3.57	0.35	
6949678	Taitung City	TW	Taiwan	ASP	22.7583	121.1444	86,703.746	1.39	0.136	
1671566	Nantou	TW	Taiwan	ASP	23.91566	120.66387	246,831.086	3.958	0.388	
1665196	Douliu	TW	Taiwan	ASP	23.70944	120.54333	467,168.436	7.491	0.735	

%N/A	N/A	MA	Morocco	AFR	N/A	N/A	15,656,192	230.567	13.791	
2553604	Casablanca	MA	Morocco	AFR	33.59278	-7.61916	6,355,646.431	93.599	5.598	
2538475	Rabat	MA	Morocco	AFR	34.01325	-6.83255	4,208,024.865	61.971	3.707	
2542997	Marrakech	MA	Morocco	AFR	31.63148	-8.00828	3,426,138.753	50.456	3.018	
2561668	Agadir	MA	Morocco	AFR	30.42018	-9.59815	115,948.99	1.708	0.102	
2542715	Meknes	MA	Morocco	AFR	33.89352	-5.54727	1,550,432.961	22.833	1.366	

%N/A	N/A	UA	Ukraine	EUE	N/A	N/A	15,300,000	434.951	425.134	
703448	Kiev	UA	Ukraine	EUE	50.45466	30.5238	7,074,624.513	201.119	196.579	
706483	Kharkiv	UA	Ukraine	EUE	49.98081	36.25272	944,773.413	26.858	26.252	
709930	Dnipropetrovsk	UA	Ukraine	EUE	48.45	34.98333	435,481.782	12.38	12.101	
709717	Donets'k	UA	Ukraine	EUE	48.023	37.80224	693,394.169	19.712	19.267	
698740	Odessa	UA	Ukraine	EUE	46.47747	30.73262	828,608.234	23.556	23.024	
687700	Zaporizhzhya	UA	Ukraine	EUE	47.82289	35.19031	803,613.452	22.845	22.33	
702550	L'viv	UA	Ukraine	EUE	49.83826	24.02324	780,527.229	22.189	21.688	
703845	Kryvyy Rih	UA	Ukraine	EUE	47.90966	33.38044	6,826.769	0.194	0.19	
700569	Mykolayiv	UA	Ukraine	EUE	46.96591	31.9974	232,330.356	6.605	6.456	
701822	Mariupol'	UA	Ukraine	EUE	47.06667	37.5	61,000.482	1.734	1.695	
702658	Luhans'k	UA	Ukraine	EUE	48.56705	39.31706	387,914.619	11.028	10.779	
706369	Khmel'nyts'kyy	UA	Ukraine	EUE	49.42161	26.99653	96,015.199	2.73	2.668	
694423	Sevastopol'	UA	Ukraine	EUE	44.58883	33.5224	208,510.072	5.928	5.794	
702320	Makiyivka	UA	Ukraine	EUE	48.04782	37.92576	73.406	0.002	0.002	
693805	Simferopol'	UA	Ukraine	EUE	44.95719	34.11079	305,296.035	8.679	8.483	
689558	Vinnytsya	UA	Ukraine	EUE	49.23278	28.48097	244,625.881	6.954	6.797	
706448	Kherson	UA	Ukraine	EUE	46.65581	32.6178	297,294.769	8.452	8.261	
696643	Poltava	UA	Ukraine	EUE	49.59373	34.54073	7,891.157	0.224	0.219	
710735	Chernihiv	UA	Ukraine	EUE	51.50551	31.28488	266,097.17	7.565	7.394	
710791	Cherkasy	UA	Ukraine	EUE	49.42854	32.06207	6,386.332	0.182	0.177	
692194	Sumy	UA	Ukraine	EUE	50.9216	34.80029	123,358.977	3.507	3.428	
686967	Zhytomyr	UA	Ukraine	EUE	50.26487	28.67669	207,372.277	5.895	5.762	
707753	Horlivka	UA	Ukraine	EUE	48.34698	38.05419	89,371.946	2.541	2.483	
695594	Rivne	UA	Ukraine	EUE	50.62308	26.22743	184,139.241	5.235	5.117	
705812	Kirovohrad	UA	Ukraine	EUE	48.5132	32.2597	26,866.638	0.764	0.747	
709932	Dniprodzerzhyns'k	UA	Ukraine	EUE	48.51134	34.6021	152,134.175	4.325	4.227	
710719	Chernivtsi	UA	Ukraine	EUE	48.29149	25.94034	101,594.064	2.888	2.823	
691650	Ternopil'	UA	Ukraine	EUE	49.55589	25.60556	77,700.374	2.209	2.159	
704147	Kremenchuk	UA	Ukraine	EUE	49.09725	33.41972	48,411.333	1.376	1.345	
702569	Luts'k	UA	Ukraine	EUE	50.75932	25.34244	32,885.94	0.935	0.914	
707471	Ivano-Frankivs'k	UA	Ukraine	EUE	48.9215	24.70972	42,465.438	1.207	1.18	
704508	Kramators'k	UA	Ukraine	EUE	48.72305	37.55629	59,275.438	1.685	1.647	
706524	Kerch	UA	Ukraine	EUE	45.3607	36.4706	54,834.368	1.559	1.524	
690548	Uzhhorod	UA	Ukraine	EUE	48.61667	22.3	254,535.706	7.236	7.073	
702972	Lisichansk	UA	Ukraine	EUE	48.90485	38.44207	27,820.918	0.791	0.773	
688148	Yenakiyeve	UA	Ukraine	EUE	48.23331	38.21137	77,149.828	2.193	2.144	
706950	Kamieniec Podolski	UA	Ukraine	EUE	48.6845	26.58559	58,798.299	1.672	1.634	

%N/A	N/A	NL	Netherlands	EUW	N/A	N/A	15,071,191	340.064	1,838.303	
2759794	Amsterdam	NL	Netherlands	EUW	52.37403	4.88969	11,132,034.301	251.182	1,357.826	
2747891	Rotterdam	NL	Netherlands	EUW	51.9225	4.47917	928,950.097	20.961	113.308	
2747373	Den Haag	NL	Netherlands	EUW	52.07667	4.29861	125,466.67	2.831	15.304	
2745912	Utrecht	NL	Netherlands	EUW	52.09083	5.12222	42,014.509	0.948	5.125	
2756253	Eindhoven	NL	Netherlands	EUW	51.44083	5.47778	163,955.935	3.699	19.998	
2746301	Tilburg	NL	Netherlands	EUW	51.55551	5.0913	134,007.377	3.024	16.346	
2755251	Groningen	NL	Netherlands	EUW	53.21917	6.56667	170,333.423	3.843	20.776	
2759879	Almere Stad	NL	Netherlands	EUW	52.37025	5.21413	345,057.378	7.786	42.088	
2758401	Breda	NL	Netherlands	EUW	51.58656	4.77596	51,853.147	1.17	6.325	
2750053	Nijmegen	NL	Netherlands	EUW	51.8425	5.85278	11,985.833	0.27	1.462	
2756071	Enschede	NL	Netherlands	EUW	52.21833	6.89583	286,810.719	6.472	34.984	
2755003	Haarlem	NL	Netherlands	EUW	52.38084	4.63683	485,346.101	10.951	59.2	
2759661	Arnhem	NL	Netherlands	EUW	51.98	5.91111	16,889.128	0.381	2.06	
2744114	Zaanstad	NL	Netherlands	EUW	52.45313	4.81356	197,141.308	4.448	24.046	
2759821	Amersfoort	NL	Netherlands	EUW	52.155	5.3875	46,020.47	1.038	5.613	
2759706	Apeldoorn	NL	Netherlands	EUW	52.21	5.96944	3,461.15	0.078	0.422	
2747351	's-Hertogenbosch	NL	Netherlands	EUW	51.69917	5.30417	47,302.377	1.067	5.77	
2753801	Hoofddorp	NL	Netherlands	EUW	52.3025	4.68889	468,328.782	10.567	57.124	
2751283	Maastricht	NL	Netherlands	EUW	50.84833	5.68889	7,066.514	0.159	0.862	
2751773	Leiden	NL	Netherlands	EUW	52.15833	4.49306	38,553.36	0.87	4.703	
2756669	Dordrecht	NL	Netherlands	EUW	51.81	4.67361	17,498.034	0.395	2.134	
2743856	Zoetermeer	NL	Netherlands	EUW	52.0575	4.49306	26,423.313	0.596	3.223	
2743477	Zwolle	NL	Netherlands	EUW	52.5125	6.09444	324,691.077	7.326	39.604	

%N/A	N/A	SA	Saudi Arabia	ASC	N/A	N/A	13,000,000	166.022	1.912	
108410	Riyadh	SA	Saudi Arabia	ASC	24.68773	46.72185	6,598,703.888	84.271	0.97	
105343	Jeddah	SA	Saudi Arabia	ASC	21.51694	39.21917	3,932,203.39	50.218	0.578	
110336	Ad Dammam	SA	Saudi Arabia	ASC	26.43442	50.10326	1,517,946.162	19.386	0.223	
107968	Ta'if	SA	Saudi Arabia	ASC	21.27028	40.41583	109,172.483	1.394	0.016	
107304	Buraydah	SA	Saudi Arabia	ASC	26.32599	43.97497	408,773.679	5.22	0.06	
106281	Hayil	SA	Saudi Arabia	ASC	27.52188	41.69073	159,521.436	2.037	0.023	
110690	Abha	SA	Saudi Arabia	ASC	18.21639	42.50528	273,678.963	3.495	0.04	

%N/A	N/A	VE	Venezuela	SAW	N/A	N/A	10,976,342	224.945	112.558	
3646738	Caracas	VE	Venezuela	SAW	10.48801	-66.87919	5,469,962.519	112.099	56.092	
3633009	Maracaibo	VE	Venezuela	SAW	10.63167	-71.64056	257,616.284	5.279	2.642	
3648559	Barcelona	VE	Venezuela	SAW	10.13333	-64.7	674.388	0.014	0.007	
3648439	Baruta	VE	Venezuela	SAW	10.43398	-66.87662	302,125.904	6.192	3.098	
3646382	Carupano	VE	Venezuela	SAW	10.66781	-63.25849	4,945,962.904	101.361	50.719	

%N/A	N/A	KE	Kenya	AFR	N/A	N/A	10,492,785	102.704	1.127	
184745	Nairobi	KE	Kenya	AFR	-1.28333	36.81667	10,263,580.902	100.461	1.102	
186301	Mombasa	KE	Kenya	AFR	-4.05466	39.66359	229,204.098	2.243	0.025	

%N/A	N/A	CL	Chile	SAW	N/A	N/A	10,000,000	148.493	76.223	
3871336	Santiago	CL	Chile	SAW	-33.45694	-70.64827	8,780,340.443	130.382	66.926	
3868626	Valparaiso	CL	Chile	SAW	-33.03932	-71.62725	367,762.951	5.461	2.803	
3872348	San Bernardo	CL	Chile	SAW	-33.6	-70.71667	18,650.835	0.277	0.142	
3893894	Concepcion	CL	Chile	SAW	-36.82699	-73.04977	607,334.244	9.018	4.629	
3899361	Arica	CL	Chile	SAW	-18.475	-70.30417	9,194.074	0.137	0.07	
3884373	La Serena	CL	Chile	SAW	-29.90778	-71.25417	215,404.014	3.199	1.642	
3874787	Punta Arenas	CL	Chile	SAW	-53.15	-70.91667	1,313.439	0.02	0.01	

%N/A	N/A	PE	Peru	SAW	N/A	N/A	9,973,244	176.197	76.572	
3936456	Lima	PE	Peru	SAW	-12.04318	-77.02824	9,782,800.145	172.833	75.11	
3947322	Arequipa	PE	Peru	SAW	-16.39889	-71.535	190,443.855	3.365	1.462	

%N/A	N/A	RO	Romania	EUE	N/A	N/A	8,578,484	110.784	282.447	
683506	Bucharest	RO	Romania	EUE	44.43225	26.10626	4,720,601.104	60.963	155.426	
675810	Iasi	RO	Romania	EUE	47.16667	27.6	271,133.619	3.501	8.927	
681290	Cluj-Napoca	RO	Romania	EUE	46.76667	23.6	341,024.236	4.404	11.228	
665087	Timisoara	RO	Romania	EUE	45.74944	21.22722	438,300.001	5.66	14.431	
680332	Craiova	RO	Romania	EUE	44.31667	23.8	148,072.465	1.912	4.875	
680963	Constanta	RO	Romania	EUE	44.18333	28.65	224,499.738	2.899	7.392	
677697	Galati	RO	Romania	EUE	45.45	28.05	49,885.008	0.644	1.642	
683844	Brasov	RO	Romania	EUE	45.64861	25.60613	300,290.546	3.878	9.887	
670474	Ploiesti	RO	Romania	EUE	44.95	26.01667	146,025.46	1.886	4.808	
683902	Braila	RO	Romania	EUE	45.26667	27.98333	82,499.482	1.065	2.716	
671768	Oradea	RO	Romania	EUE	47.06667	21.93333	56,008.823	0.723	1.844	
685948	Bacau	RO	Romania	EUE	46.56667	26.9	222,246.311	2.87	7.317	
686254	Arad	RO	Romania	EUE	46.18333	21.31667	12,385.243	0.16	0.408	
670609	Pitesti	RO	Romania	EUE	44.85	24.86667	27,849.596	0.36	0.917	
667268	Sibiu	RO	Romania	EUE	45.8	24.15	260,950.197	3.37	8.592	
665004	Targu-Mures	RO	Romania	EUE	46.54245	24.55747	200,245.303	2.586	6.593	
685826	Baia Mare	RO	Romania	EUE	47.65729	23.56808	79,093.54	1.021	2.604	
683123	Buzau	RO	Romania	EUE	45.15	26.83333	146,937.151	1.898	4.838	
684039	Botosani	RO	Romania	EUE	47.75	26.66667	74,982.328	0.968	2.469	
667873	Satu Mare	RO	Romania	EUE	47.8	22.88333	162,659.53	2.101	5.356	
668872	Ramnicu Valcea	RO	Romania	EUE	45.1	24.36667	28,744.086	0.371	0.946	
665850	Suceava	RO	Romania	EUE	47.63333	26.25	115,888.034	1.497	3.816	
678015	Focsani	RO	Romania	EUE	45.7	27.18333	87,608.395	1.131	2.885	
670889	Piatra Neamt	RO	Romania	EUE	46.91667	26.33333	132,143.666	1.707	4.351	
678817	Drobeta-Turnu Severin	RO	Romania	EUE	44.63194	22.65611	248,410.138	3.208	8.179	

%N/A	N/A	BE	Belgium	EUW	N/A	N/A	8,489,901	95.177	297.195	
2800866	Brussels	BE	Belgium	EUW	50.85045	4.34878	5,424,194.288	60.809	189.878	
2803138	Antwerpen	BE	Belgium	EUW	51.21989	4.40346	1,535,195.81	17.211	53.741	
2797656	Gent	BE	Belgium	EUW	51.05	3.71667	914,243.595	10.249	32.004	
2800481	Charleroi	BE	Belgium	EUW	50.41136	4.44448	246,563.465	2.764	8.631	
2792413	Liege	BE	Belgium	EUW	50.63373	5.56749	182,994.113	2.051	6.406	
2800931	Brugge	BE	Belgium	EUW	51.20892	3.22424	102,502.551	1.149	3.588	
2790471	Namur	BE	Belgium	EUW	50.4669	4.86746	84,207.178	0.944	2.948	

%N/A	N/A	SE	Sweden	EUW	N/A	N/A	8,441,718	109.254	439.59	
2673730	Stockholm	SE	Sweden	EUW	59.33258	18.0649	3,353,442.259	43.401	174.626	
2711537	Goeteborg	SE	Sweden	EUW	57.70716	11.96679	1,589,060.474	20.566	82.748	
2692969	Malmoe	SE	Sweden	EUW	55.60587	13.00073	1,506,196.756	19.493	78.433	
2666199	Uppsala	SE	Sweden	EUW	59.8585	17.64543	553,543.729	7.164	28.825	
2700791	Kista	SE	Sweden	EUW	59.40316	17.94479	764,629.676	9.896	39.817	
2664454	Vasteras	SE	Sweden	EUW	59.61617	16.55276	674,845.106	8.734	35.142	

%N/A	N/A	UZ	Uzbekistan	ASC	N/A	N/A	7,550,000	52.921	11.641	
1512569	Tashkent	UZ	Uzbekistan	ASC	41.26465	69.21627	6,560,192.99	45.983	10.115	
1512979	Qo`qon	UZ	Uzbekistan	ASC	40.52861	70.9425	989,807.01	6.938	1.526	

%N/A	N/A	CZ	Czech Republic	EUW	N/A	N/A	7,220,732	70.062	155.323	
3067696	Prague	CZ	Czech Republic	EUW	50.08804	14.42076	5,229,114.303	50.738	112.482	
3078610	Brno	CZ	Czech Republic	EUW	49.19522	16.60796	930,746.965	9.031	20.021	
3068799	Ostrava	CZ	Czech Republic	EUW	49.83465	18.28204	519,127.838	5.037	11.167	
3068160	Plzen	CZ	Czech Republic	EUW	49.74747	13.37759	246,114.867	2.388	5.294	
3069011	Olomouc	CZ	Czech Republic	EUW	49.59552	17.25175	295,628.027	2.868	6.359	

%N/A	N/A	ZA	South Africa	AFR	N/A	N/A	6,800,000	58.553	42.596	
3369157	Cape Town	ZA	South Africa	AFR	-33.92584	18.42322	1,571,503.087	13.532	9.844	
1007311	Durban	ZA	South Africa	AFR	-29.8579	31.0292	494,611.869	4.259	3.098	
993800	Johannesburg	ZA	South Africa	AFR	-26.20227	28.04363	2,841,834.502	24.47	17.802	
953781	Soweto	ZA	South Africa	AFR	-26.26781	27.85849	19,481.662	0.168	0.122	
964137	Pretoria	ZA	South Africa	AFR	-25.74486	28.18783	647,341.747	5.574	4.055	
964420	Port Elizabeth	ZA	South Africa	AFR	-33.91799	25.57007	58,127.35	0.501	0.364	
965301	Pietermaritzburg	ZA	South Africa	AFR	-29.61678	30.39278	69,985.753	0.603	0.438	
1006984	East London	ZA	South Africa	AFR	-33.01529	27.91162	5,982.141	0.052	0.037	
944986	Vanderbijlpark	ZA	South Africa	AFR	-26.71171	27.83795	14,187.732	0.122	0.089	
1105777	Centurion	ZA	South Africa	AFR	-25.85891	28.18577	79,779.523	0.687	0.5	
3363613	Noorder-Paarl	ZA	South Africa	AFR	-33.70468	18.96552	89,467.415	0.77	0.56	
1002145	George	ZA	South Africa	AFR	-33.963	22.46173	258,608.475	2.227	1.62	
1105776	Midrand	ZA	South Africa	AFR	-25.96361	28.13778	356,652.056	3.071	2.234	
990930	Kimberley	ZA	South Africa	AFR	-28.73226	24.76232	11,170.192	0.096	0.07	
1019330	Bhisho	ZA	South Africa	AFR	-32.84721	27.44218	83,273.517	0.717	0.522	
964349	Potchefstroom	ZA	South Africa	AFR	-26.71667	27.1	197,992.978	1.705	1.24	

%N/A	N/A	HU	Hungary	EUE	N/A	N/A	6,516,627	65.343	406.16	
3054643	Budapest	HU	Hungary	EUE	47.49801	19.03991	4,863,449.957	48.766	303.123	
721472	Debrecen	HU	Hungary	EUE	47.53333	21.63333	58,088.29	0.582	3.62	
717582	Miskolc	HU	Hungary	EUE	48.1	20.78333	90,476.437	0.907	5.639	
715429	Szeged	HU	Hungary	EUE	46.253	20.14824	160,417.879	1.609	9.998	
3046526	Pecs	HU	Hungary	EUE	46.08333	18.23333	115,642.796	1.16	7.208	
7284824	Budapest XI. keruelet	HU	Hungary	EUE	47.47603	19.03605	271,099.621	2.718	16.897	
3052009	Gyor	HU	Hungary	EUE	47.68333	17.63512	283,423.758	2.842	17.665	
7284842	Budapest III. keruelet	HU	Hungary	EUE	47.54157	19.04501	289,687.874	2.905	18.055	
7284829	Budapest XIV. keruelet	HU	Hungary	EUE	47.5183	19.10789	107,808.727	1.081	6.719	
716935	Nyiregyhaza	HU	Hungary	EUE	47.95539	21.71671	12,120.043	0.122	0.755	
3050434	Kecskemet	HU	Hungary	EUE	46.90618	19.69128	125,486.407	1.258	7.821	
3044774	Szekesfehervar	HU	Hungary	EUE	47.18995	18.41034	138,925.211	1.393	8.659	

%N/A	N/A	CH	Switzerland	EUW	N/A	N/A	6,430,363	80.934	182.349	
2657896	Zurich	CH	Switzerland	EUW	47.36667	8.55	4,122,789.494	51.89	116.912	
2660646	Geneve	CH	Switzerland	EUW	46.20222	6.14569	838,319.115	10.551	23.773	
2661604	Basel	CH	Switzerland	EUW	47.5584	7.57327	483,916.392	6.091	13.723	
2661552	Bern	CH	Switzerland	EUW	46.94809	7.44744	684,198.473	8.611	19.402	
2659994	Lausanne	CH	Switzerland	EUW	46.516	6.63282	301,139.526	3.79	8.54	

%N/A	N/A	AT	Austria	EUW	N/A	N/A	6,143,600	38.971	180.704	
2761369	Vienna	AT	Austria	EUW	48.20849	16.37208	3,640,079.343	23.09	107.067	
2778067	Graz	AT	Austria	EUW	47.06667	15.45	1,130,022.423	7.168	33.238	
2772400	Linz	AT	Austria	EUW	48.30639	14.28611	757,916.638	4.808	22.293	
2766824	Salzburg	AT	Austria	EUW	47.79941	13.04399	295,462.825	1.874	8.691	
2775220	Innsbruck	AT	Austria	EUW	47.26266	11.39454	320,118.771	2.031	9.416	

%N/A	N/A	AE	United Arab Emirates	ASC	N/A	N/A	5,859,118	35.637	3.643	
292223	Dubai	AE	United Arab Emirates	ASC	25.25817	55.30472	5,792,850.878	35.234	3.602	
292968	Abu Dhabi	AE	United Arab Emirates	ASC	24.46667	54.36667	66,267.122	0.403	0.041	

%N/A	N/A	BD	Bangladesh	ASS	N/A	N/A	5,501,609	29.444	1.498	
1185241	Dhaka	BD	Bangladesh	ASS	23.7104	90.40744	3,780,669.127	20.234	1.029	
1205733	Chittagong	BD	Bangladesh	ASS	22.33306	91.83639	380,288.783	2.035	0.104	
1185099	Sylhet	BD	Bangladesh	ASS	24.89667	91.87167	40,581.275	0.217	0.011	
1336137	Barisal	BD	Bangladesh	ASS	22.70194	90.37111	129,823.356	0.695	0.035	
1336144	Tangail	BD	Bangladesh	ASS	24.25	89.91667	1,170,246.459	6.263	0.319	

%N/A	N/A	PT	Portugal	EUW	N/A	N/A	5,455,217	49.164	277.804	
2267057	Lisbon	PT	Portugal	EUW	38.71667	-9.13333	66,904.257	0.603	3.407	
2735943	Porto	PT	Portugal	EUW	41.14961	-8.61099	558,309.604	5.032	28.432	
2271772	Amadora	PT	Portugal	EUW	38.75382	-9.23083	3,204,783.103	28.883	163.202	
2742032	Braga	PT	Portugal	EUW	41.55032	-8.42005	450,294.311	4.058	22.931	
2262963	Setubal	PT	Portugal	EUW	38.5244	-8.8882	80,443.228	0.725	4.097	
2740637	Coimbra	PT	Portugal	EUW	40.20564	-8.41955	835,809.094	7.533	42.563	
2264268	Queluz	PT	Portugal	EUW	38.75657	-9.25451	258,673.403	2.331	13.173	

%N/A	N/A	KZ	Kazakhstan	ASC	N/A	N/A	5,448,965	31.942	16.895	
1526384	Almaty	KZ	Kazakhstan	ASC	43.25	76.95	4,171,764.756	24.455	12.935	
1518980	Shymkent	KZ	Kazakhstan	ASC	42.3	69.6	182,506.14	1.07	0.566	
1526273	Astana	KZ	Kazakhstan	ASC	51.1801	71.44598	78,314.841	0.459	0.243	
1519422	Semey	KZ	Kazakhstan	ASC	50.42675	80.26669	110,703.255	0.649	0.343	
1519928	Qostanay	KZ	Kazakhstan	ASC	53.16667	63.58333	274,701.73	1.61	0.852	
1520172	Petropavlovsk	KZ	Kazakhstan	ASC	54.87528	69.16278	342.735	0.002	0.001	
608668	Oral	KZ	Kazakhstan	ASC	51.23333	51.36667	121,842.127	0.714	0.378	
610612	Aktau	KZ	Kazakhstan	ASC	43.65	51.2	508,789.417	2.983	1.578	

%N/A	N/A	IL	Israel	ASC	N/A	N/A	5,263,146	69.778	38.532	
281184	Jerusalem	IL	Israel	ASC	31.76904	35.21633	316,648.419	4.198	2.318	
7498240	West Jerusalem	IL	Israel	ASC	31.78199	35.21961	150,116.406	1.99	1.099	
294801	Haifa	IL	Israel	ASC	32.81556	34.98917	1,174,219.889	15.568	8.596	
293397	Tel Aviv	IL	Israel	ASC	32.08088	34.78057	408,158.229	5.411	2.988	
295629	Ashdod	IL	Israel	ASC	31.81667	34.65	1,727.959	0.023	0.013	
293703	Rishon LeZiyyon	IL	Israel	ASC	31.96417	34.80444	51,766.761	0.686	0.379	
6693674	Petah Tikva	IL	Israel	ASC	32.09174	34.88503	2,699,575.372	35.79	19.764	
295530	Beersheba	IL	Israel	ASC	31.25181	34.7913	186,403.537	2.471	1.365	
294751	Holon	IL	Israel	ASC	32.01139	34.77222	16,631.602	0.22	0.122	
295514	Bene Beraq	IL	Israel	ASC	32.09028	34.83972	198,139.257	2.627	1.451	
293788	Ramat Gan	IL	Israel	ASC	32.08056	34.81417	59,758.569	0.792	0.437	

%N/A	N/A	SY	Syrian Arab Republic	ASC	N/A	N/A	5,069,418	23.855	1.594	
170654	Damascus	SY	Syrian Arab Republic	ASC	33.5102	36.29128	2,462,288.743	11.587	0.774	
169389	Idlib	SY	Syrian Arab Republic	ASC	35.93062	36.63393	2,607,129.257	12.268	0.82	

%N/A	N/A	GR	Greece	EUE	N/A	N/A	5,043,550	224.802	120.63	
264371	Athens	GR	Greece	EUE	37.97945	23.71622	2,709,080.786	120.75	64.795	
734077	Thessaloniki	GR	Greece	EUE	40.64028	22.94389	667,815.355	29.766	15.973	
255274	Piraeus	GR	Greece	EUE	37.94745	23.63708	99,657.613	4.442	2.384	
255683	Patra	GR	Greece	EUE	38.24444	21.73444	423,365.75	18.87	10.126	
255524	Peristeri	GR	Greece	EUE	38.01667	23.7	402,589.608	17.944	9.629	
261745	Irakleion	GR	Greece	EUE	35.32787	25.14341	358,435.592	15.976	8.573	
258576	Larisa	GR	Greece	EUE	39.63722	22.42028	236,305.055	10.533	5.652	
261414	Kallithea	GR	Greece	EUE	37.95	23.7	146,300.241	6.521	3.499	

%N/A	N/A	TZ	Tanzania, United Rep. of	AFR	N/A	N/A	4,932,535	22.608	0.412	
160263	Dar es Salaam	TZ	Tanzania, United Rep. of	AFR	-6.82349	39.26951	2,868,678.144	13.149	0.239	
148730	Zanzibar	TZ	Tanzania, United Rep. of	AFR	-6.16394	39.19793	906,770.844	4.156	0.076	
160196	Dodoma	TZ	Tanzania, United Rep. of	AFR	-6.17221	35.73947	1,157,086.012	5.303	0.097	

%N/A	N/A	DK	Denmark	EUW	N/A	N/A	4,923,824	32.758	226.833	
2618425	Copenhagen	DK	Denmark	EUW	55.67594	12.56553	3,152,683.316	20.975	145.239	
2624652	Arhus	DK	Denmark	EUW	56.15674	10.21076	783,943.439	5.216	36.115	
2615876	Odense	DK	Denmark	EUW	55.39594	10.38831	270,869.436	1.802	12.479	
2624886	Aalborg	DK	Denmark	EUW	57.048	9.9187	716,327.809	4.766	33	

%N/A	N/A	HK	Hong Kong, (China)	ASP	N/A	N/A	4,894,913	33.986	5.423	
1819729	Hong Kong	HK	Hong Kong, (China)	ASP	22.28552	114.15769	29,917.969	0.208	0.033	
1819609	Kowloon	HK	Hong Kong, (China)	ASP	22.31667	114.18333	295,973.625	2.055	0.328	
1818209	Tsuen Wan	HK	Hong Kong, (China)	ASP	22.36667	114.1	4,569,021.407	31.723	5.062	

%N/A	N/A	DZ	Algeria	AFR	N/A	N/A	4,700,000	20.788	1.478	
2507480	Algiers	DZ	Algeria	AFR	36.7525	3.04197	1,791,820.913	7.925	0.563	
2474141	Boumerdas	DZ	Algeria	AFR	36.76639	3.47717	332,493.459	1.471	0.105	
2485926	Oran	DZ	Algeria	AFR	35.69111	-0.64167	44,180.638	0.195	0.014	
2505854	Bab Ezzouar	DZ	Algeria	AFR	36.72615	3.18291	1,137,309.817	5.03	0.358	
2485801	Ouargla	DZ	Algeria	AFR	31.94932	5.32502	737,862.196	3.263	0.232	
2503661	Bordj el Kiffan	DZ	Algeria	AFR	36.74871	3.19248	656,332.978	2.903	0.206	

%N/A	N/A	FI	Finland	EUE	N/A	N/A	4,661,265	47.632	169.696	
658225	Helsinki	FI	Finland	EUE	60.16952	24.93545	1,848,891.73	18.893	67.31	
660158	Espoo	FI	Finland	EUE	60.2052	24.6522	536,095.583	5.478	19.517	
634963	Tampere	FI	Finland	EUE	61.49911	23.78712	855,005.467	8.737	31.127	
632453	Vantaa	FI	Finland	EUE	60.29414	25.04099	284,173.761	2.904	10.346	
633679	Turku	FI	Finland	EUE	60.45148	22.26869	784,726.392	8.019	28.568	
643492	Oulu	FI	Finland	EUE	65.01236	25.46816	352,372.066	3.601	12.828	

%N/A	N/A	DO	Dominican Republic	NAS	N/A	N/A	4,643,393	21.938	6.113	
3492908	Santo Domingo	DO	Dominican Republic	NAS	18.50012	-69.98857	4,643,393	21.938	6.113	

%N/A	N/A	NO	Norway	EUW	N/A	N/A	4,560,572	34.157	149.767	
3143244	Oslo	NO	Norway	EUW	59.91273	10.74609	3,494,817.974	26.175	114.768	
3161732	Bergen	NO	Norway	EUW	60.39299	5.32415	423,918.088	3.175	13.921	
3133880	Trondheim	NO	Norway	EUW	63.43049	10.39506	315,062.665	2.36	10.347	
3137115	Stavanger	NO	Norway	EUW	58.97005	5.73332	326,773.273	2.447	10.731	

%N/A	N/A	BY	Belarus	EUE	N/A	N/A	4,436,800	30.931	52.731	
625144	Minsk	BY	Belarus	EUE	53.9	27.56667	2,262,765.147	15.775	26.893	
627907	Homyel'	BY	Belarus	EUE	52.4345	30.9754	926,817.877	6.461	11.015	
625665	Mahilyow	BY	Belarus	EUE	53.9141	30.33764	4,136.943	0.029	0.049	
620127	Vitsyebsk	BY	Belarus	EUE	55.19048	30.2033	446,504.533	3.113	5.307	
627904	Hrodna	BY	Belarus	EUE	53.6884	23.8258	597,574.278	4.166	7.102	
629634	Brest	BY	Belarus	EUE	52.09755	23.68775	199,001.222	1.387	2.365	

%N/A	N/A	SK	Slovakia	EUE	N/A	N/A	4,337,868	25.231	33.396	
3060972	Bratislava	SK	Slovakia	EUE	48.14816	17.10674	3,760,266.972	21.872	28.949	
724443	Kosice	SK	Slovakia	EUE	48.71395	21.25808	577,601.028	3.36	4.447	

%N/A	N/A	SD	Sudan	AFR	N/A	N/A	4,200,000	16.448	1.218	
379252	Khartoum	SD	Sudan	AFR	15.55177	32.53241	3,971,768.489	15.554	1.152	
379003	El Obeid	SD	Sudan	AFR	13.18421	30.21669	228,231.511	0.894	0.066	

%N/A	N/A	UG	Uganda	AFR	N/A	N/A	4,178,085	16.498	0.372	
232422	Kampala	UG	Uganda	AFR	0.31628	32.58219	4,178,085	16.498	0.372	

%N/A	N/A	RS	Serbia	EUE	N/A	N/A	4,107,000	20.736	17.342	
792680	Belgrade	RS	Serbia	EUE	44.80401	20.46513	2,251,623.066	11.368	9.508	
787657	Nis	RS	Serbia	EUE	43.32472	21.90333	664,480.398	3.355	2.806	
3194360	Novi Sad	RS	Serbia	EUE	45.25167	19.83694	730,303.713	3.687	3.084	
783920	Zemun	RS	Serbia	EUE	44.84306	20.40111	141,415.059	0.714	0.597	
789128	Kragujevac	RS	Serbia	EUE	44.01667	20.91667	256,648.455	1.296	1.084	
792078	Cacak	RS	Serbia	EUE	43.89139	20.34972	62,529.309	0.316	0.264	

%N/A	N/A	EC	Ecuador	SAW	N/A	N/A	4,075,500	17.98	8.376	
3657509	Guayaquil	EC	Ecuador	SAW	-2.16667	-79.9	1,105,739.621	4.878	2.273	
3652462	Quito	EC	Ecuador	SAW	-0.22985	-78.52495	2,495,341.449	11.009	5.129	
3658666	Cuenca	EC	Ecuador	SAW	-2.88333	-78.98333	474,418.93	2.093	0.975	

%N/A	N/A	TN	Tunisia	AFR	N/A	N/A	3,856,984	14.098	1.421	
2464470	Tunis	TN	Tunisia	AFR	36.81897	10.16579	3,856,984	14.098	1.421	

%N/A	N/A	AZ	Azerbaijan	ASC	N/A	N/A	3,689,000	12.553	2.5	
587084	Baku	AZ	Azerbaijan	ASC	40.37767	49.89201	2,869,980.34	9.766	1.945	
586523	Ganja	AZ	Azerbaijan	ASC	40.68278	46.36056	819,019.66	2.787	0.555	

%N/A	N/A	SG	Singapore	ASP	N/A	N/A	3,658,400	24.009	10.87	
1880252	Singapore	SG	Singapore	ASP	1.28967	103.85007	3,658,400	24.009	10.87	

%N/A	N/A	BG	Bulgaria	EUE	N/A	N/A	3,646,287	24.097	75.844	
727011	Sofia	BG	Bulgaria	EUE	42.69751	23.32415	2,548,347.829	16.841	53.006	
728193	Plovdiv	BG	Bulgaria	EUE	42.15	24.75	338,102.326	2.234	7.033	
726050	Varna	BG	Bulgaria	EUE	43.21667	27.91667	353,946.315	2.339	7.362	
732770	Burgas	BG	Bulgaria	EUE	42.50606	27.46781	111,236.103	0.735	2.314	
727523	Ruse	BG	Bulgaria	EUE	43.85639	25.97083	133,753.164	0.884	2.782	
726848	Stara Zagora	BG	Bulgaria	EUE	42.43278	25.64194	121,409.803	0.802	2.525	
728203	Pleven	BG	Bulgaria	EUE	43.41667	24.61667	39,491.46	0.261	0.821	

%N/A	N/A	NZ	New Zealand	OCE	N/A	N/A	3,325,553	15.611	39.289	
2193733	Auckland	NZ	New Zealand	OCE	-36.86667	174.76666	1,841,279.828	8.643	21.753	
2179537	Wellington	NZ	New Zealand	OCE	-41.28664	174.77557	167,442.155	0.786	1.978	
2192362	Christchurch	NZ	New Zealand	OCE	-43.53333	172.63333	442,771.293	2.078	5.231	
2187404	Manukau City	NZ	New Zealand	OCE	-36.99282	174.87987	100,880.492	0.474	1.192	
2185964	North Shore	NZ	New Zealand	OCE	-36.8	174.75	572,975.246	2.69	6.769	
2190324	Hamilton	NZ	New Zealand	OCE	-37.78333	175.28333	13,623.732	0.064	0.161	
2191562	Dunedin	NZ	New Zealand	OCE	-45.87416	170.50362	26,014.841	0.122	0.307	
2208032	Tauranga	NZ	New Zealand	OCE	-37.68611	176.16667	157,970.417	0.742	1.866	
2188164	Lower Hutt	NZ	New Zealand	OCE	-41.21667	174.91667	2,594.997	0.012	0.031	

%N/A	N/A	IE	Ireland	EUW	N/A	N/A	3,122,358	18.99	39.891	
2964574	Dublin	IE	Ireland	EUW	53.33306	-6.24889	2,411,329.455	14.666	30.807	
2965140	Cork	IE	Ireland	EUW	51.89797	-8.47061	639,921.304	3.892	8.176	
2964506	Dun Laoghaire	IE	Ireland	EUW	53.29395	-6.13586	71,107.241	0.432	0.908	

%N/A	N/A	HR	Croatia	EUE	N/A	N/A	2,656,089	12.874	17.994	
6618983	Zagreb - Centar	HR	Croatia	EUE	45.81313	15.97753	2,317,375.447	11.232	15.699	
3186886	Zagreb	HR	Croatia	EUE	45.81444	15.97798	37,805.199	0.183	0.256	
3190261	Split	HR	Croatia	EUE	43.50891	16.43915	72,806.767	0.353	0.493	
3191648	Rijeka	HR	Croatia	EUE	45.34306	14.40917	228,101.587	1.106	1.545	

%N/A	N/A	LK	Sri Lanka (ex-Ceilan)	ASS	N/A	N/A	2,503,194	6.453	0.298	
1248991	Colombo	LK	Sri Lanka (ex-Ceilan)	ASS	6.93194	79.84778	2,175,937.699	5.609	0.259	
1234633	Moratuwa	LK	Sri Lanka (ex-Ceilan)	ASS	6.773	79.8816	327,256.301	0.844	0.039	

%N/A	N/A	GT	Guatemala	NAS	N/A	N/A	2,280,000	5.647	3.447	
3598132	Guatemala City	GT	Guatemala	NAS	14.64072	-90.51327	2,280,000	5.647	3.447	

%N/A	N/A	KG	Kyrgyzstan	ASC	N/A	N/A	2,194,400	4.821	0.571	
1528675	Bishkek	KG	Kyrgyzstan	ASC	42.87	74.59	2,194,400	4.821	0.571	

%N/A	N/A	LT	Lithuania	EUE	N/A	N/A	2,103,471	7.006	25.213	
593116	Vilnius	LT	Lithuania	EUE	54.68916	25.2798	1,160,986.834	3.867	13.916	
598316	Kaunas	LT	Lithuania	EUE	54.9	23.9	449,954.384	1.499	5.393	
598098	Klaipeda	LT	Lithuania	EUE	55.71722	21.1175	170,268.305	0.567	2.041	
594739	Siauliai	LT	Lithuania	EUE	55.93333	23.31667	199,162.32	0.663	2.387	
596128	Panevezys	LT	Lithuania	EUE	55.73333	24.35	123,099.157	0.41	1.476	

%N/A	N/A	GH	Ghana	AFR	N/A	N/A	2,085,501	4.902	0.865	
2306104	Accra	GH	Ghana	AFR	5.55602	-0.1969	2,085,501	4.902	0.865	

%N/A	N/A	NP	Nepal	ASS	N/A	N/A	2,031,245	4.675	0.155	
1283240	Kathmandu	NP	Nepal	ASS	27.70169	85.3206	2,031,245	4.675	0.155	

%N/A	N/A	CR	Costa Rica	NAS	N/A	N/A	2,000,000	5.662	8.688	
3621849	San Jose	CR	Costa Rica	NAS	9.93333	-84.08333	2,000,000	5.662	8.688	

%N/A	N/A	SN	Senegal	AFR	N/A	N/A	1,989,396	3.897	0.454	
2253354	Dakar	SN	Senegal	AFR	14.6937	-17.44406	870,096.764	1.705	0.198	
2250805	Kaolack	SN	Senegal	AFR	14.1825	-16.25333	1,119,299.236	2.193	0.255	

%N/A	N/A	JO	Jordan	ASC	N/A	N/A	1,987,400	3.89	0.325	
250441	Amman	JO	Jordan	ASC	31.95522	35.94503	1,912,073.969	3.742	0.312	
250090	Az Zarqa'	JO	Jordan	ASC	32.07275	36.08796	75,326.031	0.147	0.012	

%N/A	N/A	BO	Bolivia	SAW	N/A	N/A	1,985,970	4.388	2.406	
3904906	Santa Cruz de la Sierra	BO	Bolivia	SAW	-17.8	-63.16667	382,133.776	0.844	0.463	
3919968	Cochabamba	BO	Bolivia	SAW	-17.3895	-66.1568	56,087.69	0.124	0.068	
3911925	La Paz	BO	Bolivia	SAW	-16.5	-68.15	1,547,748.534	3.42	1.875	

%N/A	N/A	BA	Bosnia and Herzegovina	EUE	N/A	N/A	1,955,277	4.464	2.195	
3191281	Sarajevo	BA	Bosnia and Herzegovina	EUE	43.84864	18.35644	941,329.559	2.149	1.057	
3204541	Banja Luka	BA	Bosnia and Herzegovina	EUE	44.77583	17.18556	234,431.424	0.535	0.263	
3186573	Zenica	BA	Bosnia and Herzegovina	EUE	44.20139	17.90639	88,925.371	0.203	0.1	
3188582	Tuzla	BA	Bosnia and Herzegovina	EUE	44.54278	18.66944	388,496.656	0.887	0.436	
3194828	Mostar	BA	Bosnia and Herzegovina	EUE	43.34333	17.80806	302,093.99	0.69	0.339	

%N/A	N/A	UY	Uruguay	SAE	N/A	N/A	1,855,000	3.69	6.011	
3441575	Montevideo	UY	Uruguay	SAE	-34.83346	-56.16735	1,855,000	3.69	6.011	

%N/A	N/A	OM	Oman	ASC	N/A	N/A	1,741,804	2.768	0.126	
287286	Muscat	OM	Oman	ASC	23.61387	58.5922	1,741,804	2.768	0.126	

%N/A	N/A	CU	Cuba	NAS	N/A	N/A	1,702,206	2.643	2.125	
3553478	Havana	CU	Cuba	NAS	23.13302	-82.38304	606,594.603	0.942	0.757	
3564124	Cienfuegos	CU	Cuba	NAS	22.14611	-80.43556	427,555.667	0.664	0.534	
3540667	Sancti Spiritus	CU	Cuba	NAS	21.92972	-79.4425	668,055.73	1.037	0.834	

%N/A	N/A	PR	Puerto Rico	NAS	N/A	N/A	1,698,301	4.085	0.682	
4568127	San Juan	PR	Puerto Rico	NAS	18.46633	-66.10572	440,018.485	1.058	0.177	
4562831	Bayamon	PR	Puerto Rico	NAS	18.39856	-66.15572	317,423.596	0.764	0.127	
4563243	Carolina	PR	Puerto Rico	NAS	18.38078	-65.95739	785,103.457	1.889	0.315	
4566880	Ponce	PR	Puerto Rico	NAS	18.01108	-66.61406	155,755.463	0.375	0.063	

%N/A	N/A	JM	Jamaica	NAS	N/A	N/A	1,581,100	2.432	3.267	
3489854	Kingston	JM	Jamaica	NAS	17.99702	-76.79358	1,041,379.297	1.602	2.152	
3489297	New Kingston	JM	Jamaica	NAS	18.00747	-76.78319	539,720.703	0.83	1.115	

%N/A	N/A	LV	Latvia	EUE	N/A	N/A	1,540,859	4.423	15.902	
456172	Riga	LV	Latvia	EUE	56.946	24.10589	1,453,954.926	4.173	15.005	
460413	Daugavpils	LV	Latvia	EUE	55.88333	26.53333	86,904.074	0.249	0.897	

%N/A	N/A	PY	Paraguay	SAE	N/A	N/A	1,523,273	2.262	2.313	
3439389	Asuncion	PY	Paraguay	SAE	-25.30066	-57.63591	1,436,642.416	2.133	2.181	
3437056	San Lorenzo	PY	Paraguay	SAE	-25.33968	-57.50879	68,369.124	0.102	0.104	
3437863	Lambare	PY	Paraguay	SAE	-25.34682	-57.60647	18,261.46	0.027	0.028	

%N/A	N/A	AF	Afghanistan	ASC	N/A	N/A	1,520,996	7.278	0.851	
1138958	Kabul	AF	Afghanistan	ASC	34.52813	69.17233	1,520,996	7.278	0.851	

%N/A	N/A	PS	Palestinian Territory	ASC	N/A	N/A	1,512,273	2.086	0.131	
7303419	East Jerusalem	PS	Palestinian Territory	ASC	31.78336	35.23388	620,797.997	0.856	0.054	
281133	Gaza	PS	Palestinian Territory	ASC	31.5	34.46667	160,306.613	0.221	0.014	
282615	Nablus	PS	Palestinian Territory	ASC	32.22111	35.25444	731,168.39	1.009	0.063	

%N/A	N/A	PA	Panama	NAS	N/A	N/A	1,503,441	2.206	1.539	
3703443	Panama	PA	Panama	NAS	8.9936	-79.51973	1,503,327.258	2.206	1.539	
3701329	San Miguelito	PA	Panama	NAS	9.03333	-79.5	113.742	0	0	

%N/A	N/A	ZW	Zimbabwe	AFR	N/A	N/A	1,445,717	2.046	0.742	
890299	Harare	ZW	Zimbabwe	AFR	-17.82935	31.05389	1,218,161.544	1.724	0.625	
890422	Gweru	ZW	Zimbabwe	AFR	-19.45	29.81667	227,555.456	0.322	0.117	

%N/A	N/A	AL	Albania	EUE	N/A	N/A	1,441,928	1.897	0.864	
3183875	Tirana	AL	Albania	EUE	41.3275	19.81889	1,265,224.521	1.664	0.758	
783263	Elbasan	AL	Albania	EUE	41.1125	20.08222	176,703.479	0.232	0.106	

%N/A	N/A	MD	Moldova, Republic of	EUE	N/A	N/A	1,429,154	2.507	2.709	
618426	Chisinau	MD	Moldova, Republic of	EUE	47.00556	28.8575	1,147,196.602	2.013	2.175	
617239	Tiraspol	MD	Moldova, Republic of	EUE	46.84028	29.64333	123,375.041	0.216	0.234	
618605	Balti	MD	Moldova, Republic of	EUE	47.76167	27.92889	98,329.43	0.173	0.186	
618577	Bender	MD	Moldova, Republic of	EUE	46.83056	29.47111	60,252.927	0.106	0.114	

%N/A	N/A	SI	Slovenia	EUE	N/A	N/A	1,420,776	3.131	13.664	
3196359	Ljubljana	SI	Slovenia	EUE	46.05108	14.50513	1,420,776	3.131	13.664	

%N/A	N/A	AM	Armenia	ASC	N/A	N/A	1,396,550	2.338	1.269	
616052	Yerevan	AM	Armenia	ASC	40.18111	44.51361	1,124,157.895	1.882	1.021	
616635	Gyumri	AM	Armenia	ASC	40.7942	43.84528	272,392.105	0.456	0.247	

%N/A	N/A	LB	Lebanon	ASC	N/A	N/A	1,367,220	2.045	1.698	
276781	Beirut	LB	Lebanon	ASC	33.88894	35.49442	914,675.537	1.368	1.136	
278913	Nabatiye et Tahta	LB	Lebanon	ASC	33.37889	35.48389	452,544.463	0.677	0.562	

%N/A	N/A	IQ	Iraq	ASC	N/A	N/A	1,303,760	1.551	0.304	
98463	As Sulaymaniyah	IQ	Iraq	ASC	35.56113	45.43749	1,303,760	1.551	0.304	

%N/A	N/A	GE	Georgia	ASC	N/A	N/A	1,300,000	2.062	1.848	
611717	Tbilisi	GE	Georgia	ASC	41.69411	44.83368	1,116,783.46	1.772	1.588	
613607	K'ut'aisi	GE	Georgia	ASC	42.24961	42.69974	15,390.642	0.024	0.022	
615532	Bat'umi	GE	Georgia	ASC	41.64159	41.63593	167,825.898	0.266	0.239	

%N/A	N/A	SV	El Salvador	NAS	N/A	N/A	1,257,380	1.883	1.06	
3584399	Mejicanos	SV	El Salvador	NAS	13.74028	-89.21306	1,257,380	1.883	1.06	

%N/A	N/A	KW	Kuwait	ASC	N/A	N/A	1,100,000	1.266	0.078	
285704	As Salimiyah	KW	Kuwait	ASC	29.33389	48.07611	1,012,855.997	1.166	0.072	
412800	Sabah as Salim	KW	Kuwait	ASC	29.25722	48.05722	87,144.003	0.1	0.006	

%N/A	N/A	MK	Macedonia, TFYR	EUE	N/A	N/A	1,069,432	1.256	1.099	
785842	Skopje	MK	Macedonia, TFYR	EUE	42.0	21.43333	1,069,432	1.256	1.099	

%N/A	N/A	HN	Honduras	NAS	N/A	N/A	1,067,560	1.143	1.155	
3600949	Tegucigalpa	HN	Honduras	NAS	14.0818	-87.20681	237,116.126	0.254	0.257	
3601782	San Pedro Sula	HN	Honduras	NAS	15.5	-88.03333	830,443.874	0.889	0.898	

%N/A	N/A	EE	Estonia	EUE	N/A	N/A	993,785	2.712	9.716	
588409	Tallinn	EE	Estonia	EUE	59.43696	24.75353	777,173.138	2.121	7.598	
588335	Tartu	EE	Estonia	EUE	58.38062	26.72509	216,611.862	0.591	2.118	

%N/A	N/A	MZ	Mozambique	AFR	N/A	N/A	975,395	0.963	0.438	
1040652	Maputo	MZ	Mozambique	AFR	-25.96528	32.58917	975,395	0.963	0.438	

%N/A	N/A	CI	Ivory Coast (Cote d'Ivoire)	AFR	N/A	N/A	968,000	0.901	0.285	
2293538	Abidjan	CI	Ivory Coast (Cote d'Ivoire)	AFR	5.30966	-4.01266	968,000	0.901	0.285	

%N/A	N/A	CD	Congo, Dem. Rep. of the	AFR	N/A	N/A	915,400	0.808	0.22	
2314302	Kinshasa	CD	Congo, Dem. Rep. of the	AFR	-4.32459	15.32146	915,400	0.808	0.22	

%N/A	N/A	ZM	Zambia	AFR	N/A	N/A	882,170	0.71	0.125	
909137	Lusaka	ZM	Zambia	AFR	-15.40669	28.28713	679,438.249	0.547	0.096	
901344	Ndola	ZM	Zambia	AFR	-12.95867	28.63659	202,731.751	0.163	0.029	

%N/A	N/A	HT	Haiti	NAS	N/A	N/A	836,435	0.678	0.77	
3718426	Port-au-Prince	HT	Haiti	NAS	18.53917	-72.335	53,093.169	0.043	0.049	
3726786	Delmas 73	HT	Haiti	NAS	18.54472	-72.30278	131,427.352	0.107	0.121	
3719028	Petionville	HT	Haiti	NAS	18.5125	-72.28528	651,914.48	0.529	0.6	

%N/A	N/A	RW	Rwanda	AFR	N/A	N/A	818,048	0.61	0.021	
202061	Kigali	RW	Rwanda	AFR	-1.94995	30.05885	818,048	0.61	0.021	

%N/A	N/A	TJ	Tajikistan	ASC	N/A	N/A	794,483	0.576	0.122	
1221874	Dushanbe	TJ	Tajikistan	ASC	38.53575	68.77905	794,483	0.576	0.122	

%N/A	N/A	CM	Cameroon	AFR	N/A	N/A	783,956	0.561	0.381	
2232593	Douala	CM	Cameroon	AFR	4.04827	9.70428	150,479.527	0.108	0.073	
2220957	Yaounde	CM	Cameroon	AFR	3.86667	11.51667	633,476.473	0.453	0.308	

%N/A	N/A	AO	Angola	AFR	N/A	N/A	744,195	1.788	0.274	
2240449	Luanda	AO	Angola	AFR	-8.83682	13.23432	695,919.11	1.672	0.256	
3351663	Benguela	AO	Angola	AFR	-12.57626	13.40547	48,275.89	0.116	0.018	

%N/A	N/A	MW	Malawi	AFR	N/A	N/A	716,400	0.468	0.078	
931755	Blantyre	MW	Malawi	AFR	-15.78499	35.00854	716,400	0.468	0.078	

%N/A	N/A	BH	Bahrain	ASC	N/A	N/A	694,009	0.439	0.303	
290340	Manama	BH	Bahrain	ASC	26.21536	50.5832	694,009	0.439	0.303	

%N/A	N/A	NI	Nicaragua	NAS	N/A	N/A	663,500	0.467	1.011	
3617763	Managua	NI	Nicaragua	NAS	12.13282	-86.2504	663,500	0.467	1.011	

%N/A	N/A	CY	Cyprus	EUE	N/A	N/A	584,863	0.429	1.918	
146268	Nicosia	CY	Cyprus	EUE	35.16667	33.36667	495,936.974	0.364	1.626	
146384	Limassol	CY	Cyprus	EUE	34.675	33.03333	88,926.026	0.065	0.292	

%N/A	N/A	QA	Qatar	ASC	N/A	N/A	563,800	0.432	0.06	
290030	Doha	QA	Qatar	ASC	25.27932	51.52245	563,800	0.432	0.06	

%N/A	N/A	LA	Lao People's Democ. Rep.	ASP	N/A	N/A	527,400	0.254	0.028	
1651944	Vientiane	LA	Lao People's Democ. Rep.	ASP	17.96667	102.6	527,400	0.254	0.028	

%N/A	N/A	KH	Cambodia	ASP	N/A	N/A	449,160	0.206	0.048	
1821306	Phnom Penh	KH	Cambodia	ASP	11.56245	104.91601	449,160	0.206	0.048	

%N/A	N/A	ML	Mali	AFR	N/A	N/A	414,985	0.199	0.17	
2460596	Bamako	ML	Mali	AFR	12.65	-8.0	414,985	0.199	0.17	

%N/A	N/A	LY	Libyan Arab Jamahiriya	AFR	N/A	N/A	391,880	0.159	0.046	
2210247	Tripoli	LY	Libyan Arab Jamahiriya	AFR	32.87519	13.18746	391,880	0.159	0.046	

%N/A	N/A	TG	Togo	AFR	N/A	N/A	356,300	0.116	0.022	
2365267	Lome	TG	Togo	AFR	6.13748	1.21227	356,300	0.116	0.022	

%N/A	N/A	MN	Mongolia	ASC	N/A	N/A	355,524	0.115	0.181	
2028462	Ulaanbaatar	MN	Mongolia	ASC	47.90771	106.88324	355,524	0.115	0.181	

%N/A	N/A	ME	Montenegro	EUE	N/A	N/A	328,375	0.132	0.111	
3193044	Podgorica	ME	Montenegro	EUE	42.44111	19.26361	328,375	0.132	0.111	

%N/A	N/A	MU	Mauritius	AFR	N/A	N/A	323,494	0.111	0.268	
934154	Port Louis	MU	Mauritius	AFR	-20.16194	57.49889	323,494	0.111	0.268	

%N/A	N/A	MO	Macao, (China)	ASP	N/A	N/A	308,797	0.087	0.027	
1821274	Macau	MO	Macao, (China)	ASP	22.20056	113.54611	308,797	0.087	0.027	

%N/A	N/A	IS	Iceland	EUW	N/A	N/A	304,129	0.254	0.773	
3413829	Reykjavik	IS	Iceland	EUW	64.13548	-21.89541	304,129	0.254	0.773	

%N/A	N/A	RE	Reunion (FR)	AFR	N/A	N/A	300,000	0.082	0.273	
935264	Saint-Denis	RE	Reunion (FR)	AFR	-20.88231	55.4504	300,000	0.082	0.273	

%N/A	N/A	ER	Eritrea	AFR	N/A	N/A	283,699	0.088	0.009	
343300	Asmara	ER	Eritrea	AFR	15.33333	38.93333	283,699	0.088	0.009	

%N/A	N/A	BJ	Benin	AFR	N/A	N/A	277,002	0.084	0.035	
2394819	Cotonou	BJ	Benin	AFR	6.36536	2.41833	277,002	0.084	0.035	

%N/A	N/A	BF	Burkina Faso	AFR	N/A	N/A	230,562	0.06	0.103	
2357048	Ouagadougou	BF	Burkina Faso	AFR	12.36423	-1.53834	230,562	0.06	0.103	

%N/A	N/A	GY	Guyana	SAE	N/A	N/A	225,593	0.058	0.148	
3378644	Georgetown	GY	Guyana	SAE	6.80448	-58.15527	225,593	0.058	0.148	

%N/A	N/A	BI	Burundi	AFR	N/A	N/A	176,040	0.028	0.006	
425378	Bujumbura	BI	Burundi	AFR	-3.3822	29.3644	176,040	0.028	0.006	

%N/A	N/A	BW	Botswana	AFR	N/A	N/A	167,180	0.025	0.01	
933773	Gaborone	BW	Botswana	AFR	-24.65451	25.90859	167,180	0.025	0.01	

%N/A	N/A	SR	Suriname	SAE	N/A	N/A	165,733	0.025	0.025	
3383330	Paramaribo	SR	Suriname	SAE	5.86638	-55.16682	165,733	0.025	0.025	

%N/A	N/A	BS	Bahamas, The	NAS	N/A	N/A	158,700	0.023	0.06	
3571824	Nassau	BS	Bahamas, The	NAS	25.05823	-77.34306	158,700	0.023	0.06	

%N/A	N/A	NA	Namibia	AFR	N/A	N/A	148,414	0.02	0.027	
3352136	Windhoek	NA	Namibia	AFR	-22.55941	17.08323	148,414	0.02	0.027	

%N/A	N/A	PG	Papua New Guinea	OCE	N/A	N/A	125,000	0.014	0.078	
2088122	Port Moresby	PG	Papua New Guinea	OCE	-9.44314	147.17972	125,000	0.014	0.078	

%N/A	N/A	CF	Central African Republic	AFR	N/A	N/A	123,800	0.014	0.012	
2389853	Bangui	CF	Central African Republic	AFR	4.36122	18.55496	123,800	0.014	0.012	

%N/A	N/A	TM	Turkmenistan	ASC	N/A	N/A	110,924	0.017	0.014	
162183	Ashgabat	TM	Turkmenistan	ASC	37.95	58.38333	110,924	0.017	0.014	

%N/A	N/A	MM	Myanmar (ex-Burma)	ASP	N/A	N/A	110,000	0.028	0.031	
1309611	Myeik	MM	Myanmar (ex-Burma)	ASP	12.43333	98.6	110,000	0.028	0.031	

%N/A	N/A	GA	Gabon	AFR	N/A	N/A	108,845	0.011	0.016	
2399697	Libreville	GA	Gabon	AFR	0.3925	9.45365	32,901.387	0.003	0.005	
2396518	Port-Gentil	GA	Gabon	AFR	-0.71933	8.78151	75,943.613	0.008	0.011	

%N/A	N/A	MR	Mauritania	AFR	N/A	N/A	100,333	0.009	0.002	
2377450	Nouakchott	MR	Mauritania	AFR	18.08581	-15.9785	100,333	0.009	0.002	

%N/A	N/A	SZ	Swaziland	AFR	N/A	N/A	95,122	0.008	0.004	
934995	Manzini	SZ	Swaziland	AFR	-26.48333	31.36667	95,122	0.008	0.004	

%N/A	N/A	CW	Curacao	NAS	N/A	N/A	92,500	0.008	0	
3513090	Willemstad	CW	Curacao	NAS	12.1084	-68.93354	92,500	0.008	0	

%N/A	N/A	LS	Lesotho	AFR	N/A	N/A	83,813	0.006	0.004	
932505	Maseru	LS	Lesotho	AFR	-29.31667	27.48333	83,813	0.006	0.004	

%N/A	N/A	SL	Sierra Leone	AFR	N/A	N/A	48,520	0.002	0.015	
2409306	Freetown	SL	Sierra Leone	AFR	8.484	-13.22994	48,520	0.002	0.015	

%N/A	N/A	GW	Guinea-Bissau	AFR	N/A	N/A	37,123	0.001	0.005	
2374775	Bissau	GW	Guinea-Bissau	AFR	11.86357	-15.59767	37,123	0.001	0.005	

%N/A	N/A	TL	Timor-Leste (East Timor)	OCE	N/A	N/A	2,361	0	0	
1645457	Dili	TL	Timor-Leste (East Timor)	OCE	-8.55861	125.57361	2,361	0	0	

